{"type":"FeatureCollection","crs":{"type":"name","properties":{"name":"EPSG:4326"}},"features":[{"type":"Feature","id":1,"geometry":{"type":"Polygon","coordinates":[[[-118.660725016215,34.603159562815],[-118.660667343716,34.5959054916902],[-118.658474300166,34.5959173781086],[-118.658445558637,34.5922903604629],[-118.656252610148,34.5923022068021],[-118.656238283311,34.5904887039344],[-118.654045382037,34.5905005104532],[-118.654031023126,34.5886767705053],[-118.651937609113,34.5886597616248],[-118.642888150534,34.5885858772007],[-118.642897083546,34.5811622394884],[-118.634168801071,34.5811144692837],[-118.634173529243,34.5774915422109],[-118.629844530549,34.5774676494663],[-118.629814510744,34.5738445622864],[-118.625450767017,34.5738203541995],[-118.62544830217,34.5736830737576],[-118.616832365674,34.5736780459197],[-118.608061347233,34.5736809301461],[-118.608058658336,34.5663990493667],[-118.608057882792,34.559203509094],[-118.59052108925,34.5592900088429],[-118.590521093018,34.5592900791438],[-118.590521168248,34.5736848002752],[-118.555441006405,34.5736849444169],[-118.555345965621,34.559455948685],[-118.564814447294,34.5594122883845],[-118.564814482522,34.5594122607241],[-118.56468376583,34.5401615478556],[-118.564634522585,34.5329074514716],[-118.573400097752,34.5328663729329],[-118.57340013404,34.5328663430111],[-118.573350137915,34.5256121836856],[-118.573300147665,34.518358080618],[-118.590828250851,34.5182740671573],[-118.590828250646,34.5182740383092],[-118.590828283263,34.5182740300367],[-118.590760038919,34.5110199575213],[-118.590993497907,34.503702410827],[-118.59957669969,34.5036949380217],[-118.599576735424,34.5036949098976],[-118.599744978989,34.4963943471793],[-118.599567265207,34.4891127791758],[-118.603863017599,34.4891145240558],[-118.603863050102,34.4891145018065],[-118.603736946938,34.4818637132609],[-118.599394537509,34.4818976161988],[-118.590656058815,34.4818848812117],[-118.573127245903,34.4817705417381],[-118.573274490904,34.4854013151159],[-118.568886337469,34.4853931289798],[-118.568886342292,34.4853931974738],[-118.56903492185,34.4890417704055],[-118.560086367776,34.4890260001104],[-118.560134427796,34.4917679375545],[-118.558528816979,34.492134647801],[-118.558503212425,34.4920503621956],[-118.558500114598,34.4920393164299],[-118.558479722892,34.491956407821],[-118.558477321034,34.491945066756],[-118.55846108681,34.4918592766477],[-118.55846106383,34.4918592596242],[-118.558355782882,34.4918708877496],[-118.556922517904,34.4921783320697],[-118.556377384921,34.4921939444434],[-118.556176184483,34.4921290481042],[-118.555801779551,34.4925301079723],[-118.554677411076,34.4913436843191],[-118.555379850043,34.4904976568297],[-118.555379890034,34.4904976124716],[-118.555586951501,34.4891223090717],[-118.555481538783,34.4891207476859],[-118.555269478778,34.4882677037474],[-118.555548405304,34.4853672823322],[-118.555571333205,34.4817256736998],[-118.55555965878,34.4817256333728],[-118.546722652778,34.4817121502031],[-118.537814561158,34.4817213322914],[-118.529007654334,34.4816974152745],[-118.520200917045,34.4816728612866],[-118.511377832874,34.4816549522062],[-118.502480714332,34.4816385294072],[-118.485206897242,34.4812823079394],[-118.476391082761,34.4811903129874],[-118.476391085341,34.4811903832967],[-118.476338444972,34.4885025052532],[-118.467535209036,34.4883856719158],[-118.46753521052,34.4883857422294],[-118.46744771133,34.4957426984328],[-118.458587309956,34.4957666030386],[-118.449845792711,34.4955792967387],[-118.44094625497,34.4953977527655],[-118.440876138845,34.4811412096238],[-118.431969557323,34.4815327690029],[-118.42162601311,34.4815292727094],[-118.414402983556,34.4814877399922],[-118.397001071732,34.4816094791525],[-118.388230915094,34.4815668982145],[-118.383689746383,34.4815307445614],[-118.383896368662,34.4676937588429],[-118.379482661038,34.4676679319497],[-118.370578860061,34.4675978857551],[-118.369922056859,34.4675943540865],[-118.369906470295,34.4639117716091],[-118.369889297949,34.4602080610988],[-118.369859172982,34.4528996435388],[-118.361253427283,34.4528687725669],[-118.35233262145,34.4522790443855],[-118.351598364661,34.4370883882408],[-118.351383976819,34.4298635083347],[-118.360569138596,34.4310808603136],[-118.37898047602,34.4310150604198],[-118.378980467185,34.4310150315984],[-118.378980509026,34.4310150211001],[-118.376742548281,34.4237586210862],[-118.385402804002,34.4238286942648],[-118.385402826707,34.4238286635406],[-118.388331147159,34.4091921400094],[-118.397728411888,34.40933874424],[-118.397728449818,34.4093387148158],[-118.397804342296,34.40188560559],[-118.3979119208,34.3944738541894],[-118.397948922439,34.3871797848236],[-118.398068507405,34.3818442131319],[-118.398040681056,34.374985786351],[-118.39816302492,34.3667677241981],[-118.41324124231,34.3668947497022],[-118.431113694802,34.3670973377228],[-118.448487824762,34.3670140932762],[-118.483163946922,34.3665728001933],[-118.483163982098,34.366572773007],[-118.48317192308,34.3513589212139],[-118.482709198173,34.3371373616417],[-118.500293466074,34.3374791296663],[-118.500293500684,34.3374791015757],[-118.500328150696,34.3358137153764],[-118.501755473071,34.3366731591801],[-118.501755499007,34.3366731347312],[-118.50481549916,34.3343660861017],[-118.519883812576,34.3343748349277],[-118.519789086297,34.3381551200834],[-118.519789098499,34.3381551596989],[-118.528599664104,34.3382214253963],[-118.528620393782,34.3416824742167],[-118.528620404879,34.3416825102299],[-118.537595022408,34.3415564640456],[-118.537778790727,34.3448262177253],[-118.53777880402,34.3448262564326],[-118.541961380722,34.3449400372347],[-118.541961415326,34.3449400100337],[-118.541868833535,34.3416294922508],[-118.546143250493,34.3417023742414],[-118.546143286714,34.3417023452289],[-118.546141874558,34.3383510556845],[-118.55051261607,34.3383886473871],[-118.550483156326,34.3525425846417],[-118.550483167422,34.3525426188499],[-118.554856523051,34.352558264127],[-118.572687503408,34.3526110282258],[-118.572738737294,34.3599312671373],[-118.572286105615,34.3671633430015],[-118.572286117306,34.3671633830649],[-118.589612983318,34.3672761378788],[-118.59392152796,34.3670293604038],[-118.593990389343,34.3740351139474],[-118.593990401573,34.3740351517523],[-118.598304192822,34.3738654558707],[-118.60251196439,34.3737012243909],[-118.602525947751,34.378207917237],[-118.602525967674,34.3782079658213],[-118.603162782097,34.3799256106258],[-118.603166405535,34.3847869791753],[-118.603166414534,34.3847870206015],[-118.605396638865,34.3856941093958],[-118.605446000138,34.3869016428226],[-118.605446012375,34.3869016806262],[-118.607364725699,34.3867833572839],[-118.607490897588,34.387861687297],[-118.605504772088,34.3883394012293],[-118.605504778023,34.388339469717],[-118.605666376577,34.3922926360651],[-118.605666387701,34.3922926702682],[-118.605765039193,34.3923070195569],[-118.605826709448,34.3923148478684],[-118.605839266839,34.3923165873103],[-118.605846293408,34.3923173338396],[-118.605864043179,34.392319587359],[-118.605963353932,34.3923303675915],[-118.606000519914,34.3923337222074],[-118.606013115725,34.3923350611544],[-118.606025766276,34.3923360013446],[-118.606062923563,34.392339355985],[-118.606162706358,34.3923465482598],[-118.606180589234,34.3923475127632],[-118.606187687085,34.392348040743],[-118.606200525099,34.3923485878068],[-118.60626265334,34.3923519401525],[-118.606362719903,34.3923555300826],[-118.60638122172,34.3923831131146],[-118.606383666795,34.3923873372359],[-118.606395779218,34.3924158005701],[-118.606397453629,34.3924211257226],[-118.606403681033,34.3924510348107],[-118.606403999767,34.3924552307993],[-118.606404104754,34.3924871412782],[-118.606397716758,34.392518851631],[-118.606396683561,34.3925225828739],[-118.606384474153,34.3925517799886],[-118.606382183389,34.3925560584459],[-118.606364139323,34.3925833139648],[-118.606361856698,34.3925860209922],[-118.60633751252,34.3926114868959],[-118.606336084337,34.392612948226],[-118.606323285653,34.3926252849256],[-118.606317558944,34.3926319002321],[-118.606314605422,34.3926349225471],[-118.606313011015,34.3926371546254],[-118.606310552094,34.3926399959616],[-118.606299424636,34.3926555770679],[-118.606297599889,34.3926587361821],[-118.606296069,34.3926608795913],[-118.606294361739,34.3926643419379],[-118.606289990494,34.3926719079037],[-118.606282879262,34.3926876303027],[-118.606282301593,34.3926888006889],[-118.606140112256,34.3930507885445],[-118.606143700013,34.3931056475087],[-118.60591549712,34.3931583626098],[-118.605915499787,34.3931584302122],[-118.605898793342,34.3935813092197],[-118.6054544812,34.3938796618631],[-118.605132875216,34.3941993936815],[-118.604637548218,34.3944264298231],[-118.604581144862,34.394448454462],[-118.60457830048,34.3944494486205],[-118.604521192786,34.394464637642],[-118.604515484491,34.3944658831826],[-118.604457768844,34.394474628275],[-118.604451113255,34.3944752708951],[-118.604392442976,34.3944777549949],[-118.604386716058,34.3944776329824],[-118.604326694236,34.3944737111155],[-118.604324044412,34.3944733402648],[-118.60426278227,34.394462600773],[-118.604203760419,34.3944453968466],[-118.604201189777,34.3944445468795],[-118.604147558941,34.394422083511],[-118.604142458067,34.3944196567299],[-118.60409400354,34.3943923199539],[-118.604088599112,34.3943888254535],[-118.604044897576,34.3943565795205],[-118.604040644778,34.3943529206097],[-118.604001523378,34.3943154742868],[-118.603999570174,34.3943132319631],[-118.603965285197,34.3942702332794],[-118.603716081926,34.3939087540041],[-118.599933081532,34.3957007057134],[-118.59993309828,34.3957007660339],[-118.599943567998,34.3957310673551],[-118.599940724454,34.3957495621364],[-118.599917572211,34.3957730031838],[-118.599877851711,34.3957885872123],[-118.599751179945,34.3958174519048],[-118.599707604116,34.3958354818972],[-118.599663926997,34.3958663395162],[-118.599635904036,34.3958951642642],[-118.599621100657,34.3959199108721],[-118.599615006585,34.395937848338],[-118.599610346418,34.3959764050953],[-118.599610363114,34.3959764582037],[-118.599617358513,34.3960110743835],[-118.599617375144,34.3960111184768],[-118.599630690409,34.3960334793948],[-118.599630715676,34.39603351443],[-118.599684367666,34.3960986866404],[-118.599684387533,34.3960987271115],[-118.599690078191,34.3961256812224],[-118.599682816805,34.3961373767777],[-118.599652203908,34.3961725061993],[-118.599633066817,34.3962222397431],[-118.599615893663,34.3962290213186],[-118.599591298175,34.3962083596881],[-118.599564277543,34.3961902902573],[-118.599540569432,34.3961860872894],[-118.599434259513,34.3961991821687],[-118.599348835373,34.396218293392],[-118.599292372814,34.3962440906049],[-118.599257897338,34.3962456006773],[-118.599234571975,34.396231102852],[-118.5991533626,34.3961372938954],[-118.599117927004,34.3961120563124],[-118.599081307638,34.396104144994],[-118.5933902889,34.3987994661684],[-118.593390289105,34.3987994950167],[-118.59339033495,34.3987995182325],[-118.593390304601,34.3987995328057],[-118.593637367024,34.3989032612231],[-118.593638053466,34.3989035878269],[-118.593680783182,34.3989254555906],[-118.593686481512,34.3989286993872],[-118.59372351413,34.3989545140294],[-118.593729930452,34.3989596114845],[-118.593761660054,34.39898927101],[-118.593766866122,34.3989950162868],[-118.593793528516,34.3990287972208],[-118.59379646894,34.3990334564143],[-118.59381803574,34.3990721071794],[-118.593818050071,34.3990721341555],[-118.593818069943,34.3990721755291],[-118.593953405681,34.3993700501298],[-118.593953423359,34.3993700888095],[-118.594004884642,34.3994219765],[-118.594004904482,34.399422013366],[-118.594076660885,34.3997464710754],[-118.594076679664,34.3997465115527],[-118.594423338668,34.4001981791288],[-118.594423361765,34.4001982150772],[-118.594580769682,34.4004950080187],[-118.594580794947,34.4004950430549],[-118.594804656538,34.4007405718559],[-118.594979298019,34.400776396146],[-118.595571417682,34.4012030687144],[-118.59557144253,34.4012030451523],[-118.595728827338,34.4010899219743],[-118.595728866298,34.4010898947367],[-118.595730256939,34.4010889169447],[-118.595876979044,34.4009862812972],[-118.595915581057,34.4009600055012],[-118.596066951016,34.4008597602078],[-118.596066987827,34.4008597365867],[-118.596068813379,34.4008585871632],[-118.596221374581,34.400762990479],[-118.596262026493,34.4007382199842],[-118.596419482053,34.4006449574155],[-118.596646399699,34.4009157605651],[-118.596646417314,34.4009157902293],[-118.59664643998,34.4009157657761],[-118.596670661472,34.400901881862],[-118.597108616937,34.4011283950314],[-118.597216755954,34.401078972808],[-118.597937450289,34.4011208419489],[-118.597978871611,34.4011090601036],[-118.597979562143,34.4011088908149],[-118.598024724976,34.4010992307641],[-118.598031075708,34.4010981608693],[-118.59807562091,34.4010945847447],[-118.598084116269,34.4010943931902],[-118.59812811322,34.4010965643745],[-118.598136540108,34.4010975920385],[-118.598180213993,34.4011055148308],[-118.598186466153,34.4011072284735],[-118.598229713562,34.4011211927802],[-118.598230508497,34.4011214764504],[-118.598231186092,34.4011217778289],[-118.598271403325,34.4011411960707],[-118.598276823543,34.4011441363039],[-118.598311634022,34.4011676363417],[-118.598317652942,34.4011723108902],[-118.59834729889,34.4011996958994],[-118.598352141399,34.4012050352778],[-118.598376740426,34.4012364768771],[-118.59837940807,34.4012408172591],[-118.598398840762,34.4012769534315],[-118.59839886065,34.4012769966074],[-118.598645535851,34.4018526252206],[-118.598645552431,34.401852662102],[-118.598721580799,34.4019119580059],[-118.598756678591,34.4019087825825],[-118.598758110409,34.4019086943741],[-118.598804991078,34.4019066111256],[-118.598816535167,34.4019065613342],[-118.598863373827,34.401908772314],[-118.598872567536,34.4019097898296],[-118.598914057914,34.4019155973073],[-118.5989231782,34.4019171434852],[-118.598968288397,34.4019278022937],[-118.598979160732,34.401930987832],[-118.599022659009,34.4019457286494],[-118.599023940319,34.4019461884172],[-118.599258425464,34.4020384738148],[-118.599259550281,34.4020389514828],[-118.599310238859,34.4020616569474],[-118.599319521125,34.4020662125432],[-118.599365855269,34.4020924708439],[-118.599375321175,34.4020985130716],[-118.59941875622,34.402129085134],[-118.599424077879,34.4021334295039],[-118.59946214125,34.4021664577578],[-118.59946709144,34.4021710239384],[-118.5995021322,34.4022085838459],[-118.59950870006,34.4022163668426],[-118.599538507854,34.4022563119445],[-118.599543168583,34.4022635778676],[-118.599568951699,34.4023078585402],[-118.599569003479,34.4023079502414],[-118.599569024436,34.4023079907072],[-118.599600106676,34.4023693465197],[-118.599600121056,34.4023693798056],[-118.599711934758,34.4024177779169],[-118.600012546542,34.4027045390789],[-118.600066452113,34.4027283200797],[-118.600067306711,34.4027287296587],[-118.600112762633,34.4027518185945],[-118.600120615794,34.4027562198254],[-118.600161129036,34.402782887982],[-118.600169080428,34.4027888456863],[-118.600205795372,34.4028197175832],[-118.600210584968,34.4028244765569],[-118.600242129263,34.402858385184],[-118.600244936947,34.4028616105265],[-118.600272181164,34.4028996730974],[-118.600276725931,34.402906832283],[-118.600297726076,34.4029464385431],[-118.600300928302,34.4029538504944],[-118.600316451441,34.4029965464005],[-118.600317229941,34.4029996781091],[-118.600326278478,34.4030430227194],[-118.600327130098,34.4030483015384],[-118.600329795824,34.4030925062623],[-118.600329724996,34.4031001868474],[-118.600325930334,34.4031441476806],[-118.60032483223,34.4031502484406],[-118.600314173767,34.403195492788],[-118.600188944344,34.4035961276219],[-118.600188967509,34.4035961725844],[-118.600315432555,34.4038156580392],[-118.600315458886,34.4038156894628],[-118.600556347124,34.4040499217832],[-118.600447395901,34.4041340585422],[-118.596919206812,34.4065002952252],[-118.596919234311,34.4065003379131],[-118.612005875995,34.4154235294114],[-118.612005904059,34.4154234995189],[-118.613398453667,34.4139378433217],[-118.61339848827,34.413937815199],[-118.627011013597,34.4062251654251],[-118.627011047112,34.4062251382055],[-118.629410253847,34.3998190698578],[-118.625074454392,34.3986706345407],[-118.616493846859,34.3926409425424],[-118.615707246203,34.3778421510079],[-118.637631849967,34.3772199637186],[-118.637631887237,34.3772199319684],[-118.636728676571,34.3499240185476],[-118.648399692723,34.3486969140534],[-118.648399728367,34.3486968850132],[-118.6483985499,34.3476074322346],[-118.659112305793,34.3475883028032],[-118.666244440689,34.3517989736686],[-118.669519790948,34.3584684349043],[-118.669519799876,34.3584684637045],[-118.67747289745,34.3584583968325],[-118.678876490518,34.3592779113085],[-118.681616295341,34.3584529638085],[-118.69107716728,34.3584399868785],[-118.691077202385,34.3584399596318],[-118.691071400467,34.3556054491481],[-118.72603785673,34.3450668197912],[-118.726088658243,34.3656407682998],[-118.726088670524,34.3656408051899],[-118.743586955983,34.3656098295683],[-118.743627294862,34.3806620727317],[-118.743627307153,34.3806621096199],[-118.744223591844,34.380670818189],[-118.74415700688,34.4071500918009],[-118.744150822516,34.4071485682639],[-118.74409579547,34.4071342746441],[-118.744058691555,34.407125872656],[-118.744046341365,34.4071228299657],[-118.74404006003,34.4071216532133],[-118.744033893121,34.4071202566818],[-118.743971406307,34.4071081463476],[-118.743946261684,34.4071040804411],[-118.743933687031,34.4071017242944],[-118.743923489582,34.4071003975594],[-118.743908423288,34.4070979611301],[-118.743845027925,34.4070897131358],[-118.743829787195,34.4070882063633],[-118.743819587574,34.4070868796328],[-118.743806740487,34.4070859288577],[-118.743781307339,34.4070834144513],[-118.743717349717,34.4070790744526],[-118.743710976717,34.4070788385621],[-118.74370454936,34.4070783622908],[-118.743691645524,34.4070781213714],[-118.743653242118,34.4070766980145],[-118.743595640826,34.4070763308727],[-118.743589082839,34.4070762088039],[-118.743582559614,34.4070764471416],[-118.74352492841,34.407077847188],[-118.743486521771,34.4070799614809],[-118.743473698237,34.4070804304676],[-118.7434673141,34.4070810186495],[-118.743460897408,34.407081371726],[-118.743397068812,34.4070868567626],[-118.743371628128,34.4070898354616],[-118.743358908757,34.4070910070068],[-118.7433488192,34.4070925059219],[-118.743333527398,34.4070942954675],[-118.743270362264,34.4071036773781],[-118.743255264792,34.4071064006304],[-118.743245224112,34.4071078920248],[-118.743232869451,34.4071104406933],[-118.743207658125,34.4071149884526],[-118.743145502965,34.4071282155307],[-118.743139283844,34.4071297439025],[-118.743133146142,34.4071310103254],[-118.743121117074,34.4071342097096],[-118.743083980364,34.4071433391687],[-118.743028896358,34.4071587379683],[-118.743023173191,34.4071602605907],[-118.743014825404,34.407162891972],[-118.742979566766,34.4071736804649],[-118.742944661034,34.4071850113217],[-118.742936281787,34.4071876528074],[-118.742848523251,34.4072180785797],[-118.742759522011,34.4072506512775],[-118.742442997629,34.4073685495273],[-118.7423500257,34.4074025751876],[-118.742254261719,34.407435775817],[-118.742155204883,34.4074670031941],[-118.742035400031,34.4074990534373],[-118.742028780542,34.4075007005014],[-118.741911533863,34.4075254098753],[-118.741899071666,34.407527742693],[-118.741782511678,34.407545899783],[-118.741768938958,34.4075476299321],[-118.741650337762,34.4075597391603],[-118.741640111612,34.4075604445025],[-118.74151617916,34.4075665458167],[-118.741515810434,34.4075665480712],[-118.741385617606,34.4075661287535],[-118.741385472896,34.4075661242289],[-118.741261702207,34.4075592347617],[-118.741251557608,34.4075584700462],[-118.741132905841,34.4075455854069],[-118.741119595539,34.4075438014409],[-118.741002935949,34.4075248551],[-118.740990871617,34.4075225153645],[-118.74087352919,34.4074969872492],[-118.740867295281,34.4074953926252],[-118.740747536912,34.4074625089765],[-118.740648772515,34.4074306500802],[-118.740553320425,34.4073968388559],[-118.74046066762,34.4073622207079],[-118.74014139161,34.4072408385443],[-118.740052695348,34.4072076988231],[-118.739965224637,34.4071767179841],[-118.739956445332,34.4071738847885],[-118.739922048523,34.4071624655633],[-118.739887700004,34.4071517059683],[-118.739878588001,34.4071487666108],[-118.739871685801,34.4071468748954],[-118.739816436047,34.4071310579792],[-118.739786302499,34.4071234776528],[-118.739772501388,34.407119695994],[-118.739763799097,34.4071178170561],[-118.739753537273,34.4071152354061],[-118.739689958921,34.4071013994536],[-118.739675008483,34.4070986435454],[-118.739664376103,34.4070963472345],[-118.73965070775,34.4070941632003],[-118.739625794711,34.4070895702848],[-118.739561136164,34.4070797653716],[-118.739559012817,34.4070795114616],[-118.739554662217,34.4070788167525],[-118.739542468171,34.4070775369856],[-118.73949607476,34.4070719976787],[-118.739457892643,34.4070686576539],[-118.739443812872,34.4070671793139],[-118.739437034268,34.4070668329783],[-118.739430705235,34.4070662792494],[-118.739365122284,34.4070626176199],[-118.739344924035,34.4070621259024],[-118.739332290741,34.4070614807787],[-118.739319622107,34.40706151113],[-118.739299417333,34.4070610194447],[-118.739233687187,34.4070614850353],[-118.739227323911,34.4070617302777],[-118.739220556137,34.407061746287],[-118.739206447535,34.4070625345916],[-118.739168026478,34.4070640147162],[-118.739121143598,34.4070673008165],[-118.73910907458,34.4070679748041],[-118.739104753936,34.4070684492066],[-118.739102527629,34.4070686052196],[-118.739037286297,34.407075249652],[-118.739011995929,34.4070786358233],[-118.738998308094,34.4070801391733],[-118.738987617092,34.4070819001349],[-118.738972394849,34.4070839384355],[-118.738907947805,34.4070946592744],[-118.738897431635,34.4070967554409],[-118.738888716338,34.4070981906168],[-118.738874854161,34.4071012546963],[-118.73884403639,34.4071073962875],[-118.738787379877,34.4071205894313],[-118.738780754379,34.4071220533399],[-118.738773464482,34.4071240315728],[-118.73873702779,34.4071335259705],[-118.738700830248,34.4071437401405],[-118.738693636927,34.4071456925368],[-118.738685695606,34.4071481768954],[-118.738650182712,34.4071589350223],[-118.73861494503,34.4071703090241],[-118.738607066613,34.4071727731603],[-118.738598231161,34.4071758706034],[-118.738563894023,34.4071876024303],[-118.738529798681,34.4071998619847],[-118.738521048885,34.4072029291493],[-118.738511043123,34.4072067747868],[-118.738478139969,34.4072191613975],[-118.738445444101,34.4072319866934],[-118.738435533728,34.4072357956817],[-118.738350422196,34.4072710100363],[-118.738265568594,34.4073082115793],[-118.738180794619,34.4073470425797],[-118.738095888252,34.4073871455113],[-118.738010613531,34.4074281611897],[-118.735542388102,34.4086224606801],[-118.73545699054,34.4086640153178],[-118.735372162629,34.4087056647096],[-118.735288037573,34.4087475883588],[-118.735204748526,34.4087899603605],[-118.735122434061,34.4088329520722],[-118.735041239184,34.4088767248961],[-118.735031001315,34.4088825370285],[-118.734957540975,34.4089236691604],[-118.734921308047,34.4089448082863],[-118.734902337805,34.408955576852],[-118.734889962281,34.4089630950358],[-118.734874936009,34.4089718616986],[-118.734793462863,34.4090213599784],[-118.734778847587,34.4090306019602],[-118.734766552109,34.4090380718642],[-118.734748578559,34.4090497422273],[-118.734713150735,34.4090721448927],[-118.734643363197,34.409118058037],[-118.734634050849,34.4091241043413],[-118.732936934371,34.4064799308035],[-118.732936900614,34.4064799264998],[-118.732366660734,34.4069678245014],[-118.729973716132,34.4109818141133],[-118.729879832821,34.4109726929084],[-118.729780272895,34.4109623914025],[-118.729644442132,34.4109480364934],[-118.72954784762,34.4109383606625],[-118.729453198231,34.4109304391902],[-118.729435624228,34.4109294819635],[-118.729375589642,34.4109259366129],[-118.729363569497,34.410925555422],[-118.72934970118,34.4109247994814],[-118.729326550446,34.4109243806433],[-118.729297855293,34.4109234695383],[-118.729269123473,34.41092334029],[-118.729246005372,34.4109229212404],[-118.729232131747,34.4109231741516],[-118.729220064424,34.4109231195909],[-118.729159715023,34.4109244930747],[-118.729142309903,34.4109248095805],[-118.729047332969,34.4109292977798],[-118.728950321347,34.410935467803],[-118.728269653237,34.4109824725593],[-118.728169644813,34.4109891603122],[-118.728068710873,34.4109952495009],[-118.727966821334,34.4110002850213],[-118.727863968872,34.4110038017158],[-118.72776017652,34.4110053225244],[-118.727655503099,34.4110043575507],[-118.727550060658,34.4110004084654],[-118.727444019935,34.4109929702766],[-118.727298662831,34.4109773860758],[-118.727287345455,34.4109760141703],[-118.72714808344,34.4109555861799],[-118.727131602301,34.4109528397049],[-118.726993674169,34.4109270717803],[-118.72698250901,34.4109246928054],[-118.726841242075,34.4108925121705],[-118.726701943734,34.4108549220029],[-118.726691023458,34.4108518076732],[-118.726558846432,34.4108104107055],[-118.726543105787,34.4108051308702],[-118.726413457676,34.4107587050819],[-118.72640284086,34.4107545863865],[-118.726271305939,34.4107013371063],[-118.726150143431,34.4106493598733],[-118.7259770899,34.4105717267403],[-118.725960427385,34.4105640064461],[-118.725796773467,34.4104839691595],[-118.725775617615,34.410473157273],[-118.725614220366,34.4103874039408],[-118.72560365311,34.4103814718647],[-118.7254408533,34.4102877606096],[-118.725438787913,34.4102865468575],[-118.725283129521,34.4101896859382],[-118.725264663401,34.4101778183921],[-118.725117771483,34.4100791693558],[-118.725099807013,34.4100665676294],[-118.724953368107,34.409960555443],[-118.724951237111,34.4099589255592],[-118.724807324767,34.4098467044551],[-118.724797746745,34.4098390588639],[-118.724663507339,34.4097263425307],[-118.724645775218,34.4097109229109],[-118.724517945448,34.4095953381584],[-118.724504587386,34.4095826790747],[-118.724377573688,34.4094589456104],[-118.724237984084,34.4093177510897],[-118.724228893227,34.409308823247],[-118.724144716916,34.4092251726223],[-118.72410171134,34.4091839157831],[-118.72408152413,34.4091640904463],[-118.724067611642,34.4091512038286],[-118.724049556479,34.4091338828817],[-118.723952495992,34.4090439774682],[-118.723933711139,34.4090271747428],[-118.723919759218,34.4090142513802],[-118.723898147659,34.4089953640121],[-118.723853563987,34.4089554850563],[-118.723762679136,34.4088769724677],[-118.723752824248,34.4088683601836],[-118.72374261862,34.4088599429233],[-118.723650207061,34.4087828421719],[-118.723603209924,34.4087449717518],[-118.723580859512,34.408726538609],[-118.723565541467,34.4087146168635],[-118.723545843515,34.4086987445154],[-118.723439731183,34.4086161636898],[-118.723419430568,34.4086009070679],[-118.723404009629,34.4085889056782],[-118.723380264771,34.4085714716185],[-118.723331902915,34.4085351247379],[-118.723233589843,34.4084637773941],[-118.72322242355,34.4084555785849],[-118.721385147051,34.4071454484781],[-118.721026389523,34.4077136030721],[-118.721170193055,34.4095975931746],[-118.721170201114,34.4095976445149],[-118.721602800551,34.4118023993145],[-118.719511644553,34.4129301539376],[-118.712110442909,34.4164183600676],[-118.710461756887,34.4204659187688],[-118.700203351817,34.4208919604647],[-118.65151254256,34.4229022452666],[-118.650609304436,34.4240544038662],[-118.650609335101,34.4240544298464],[-118.650609325529,34.4240544578456],[-118.658809245632,34.4239275078033],[-118.658722338924,34.4310918380475],[-118.658722348987,34.4310918722515],[-118.667476642108,34.4311761628465],[-118.667389026762,34.4383317353401],[-118.667389035734,34.4383317686479],[-118.676134753539,34.4384057725956],[-118.676123939687,34.4420471995621],[-118.67612395306,34.442047238254],[-118.693709723797,34.4421437360264],[-118.698146540166,34.4421711881471],[-118.698221724808,34.4530219935142],[-118.698556928058,34.4637964593979],[-118.694316504494,34.463735466449],[-118.694315936192,34.463723444913],[-118.690068070097,34.4636916075272],[-118.690297113432,34.46728998639],[-118.686110442114,34.4672377994905],[-118.686110444856,34.4672378679922],[-118.686003029693,34.4817299318955],[-118.686550107884,34.4926860483219],[-118.677890424689,34.4926623960361],[-118.677974982451,34.4963469939644],[-118.66919777037,34.496348059051],[-118.66919774656,34.496348077213],[-118.669398402312,34.5037075012023],[-118.665046921882,34.503703105643],[-118.665046926785,34.5037031741331],[-118.665221312075,34.5109818750897],[-118.665221324343,34.510981911084],[-118.67184896228,34.5109622326677],[-118.662446965672,34.5188982978262],[-118.662446991103,34.518898345469],[-118.678854711708,34.5401881093778],[-118.669179933094,34.5401811358976],[-118.669179937996,34.5401812034858],[-118.669356372053,34.5593178642912],[-118.660580310128,34.5592964555586],[-118.660580312866,34.5592965258633],[-118.660568449762,34.5740152325775],[-118.660568459843,34.5740152667809],[-118.678279948856,34.5740645826202],[-118.678247324994,34.5814253404131],[-118.678247337308,34.5814253800118],[-118.68039400935,34.5814672527584],[-118.680394044001,34.5814672246169],[-118.680491120064,34.5741452353709],[-118.682702199519,34.5742258321988],[-118.682702234173,34.5742258049581],[-118.682704703655,34.5705084036263],[-118.68487782026,34.5705691082074],[-118.684877856539,34.5705690800554],[-118.684860092453,34.5686996789295],[-118.687014233068,34.5687512284111],[-118.687124422179,34.5743868652051],[-118.684913313411,34.5743063444503],[-118.684855660521,34.5779294317924],[-118.682621437548,34.5778669423211],[-118.682540653896,34.5815090598062],[-118.682555613753,34.5833311616538],[-118.680397401072,34.5832983580727],[-118.680404186112,34.5869604413382],[-118.678222851959,34.5869459065596],[-118.67822285578,34.5869459741532],[-118.678214683585,34.588786119199],[-118.678270884106,34.6030629304762],[-118.678330087962,34.6103169446238],[-118.660782688633,34.6104135853132],[-118.660725016215,34.603159562815]],[[-118.645439802435,34.4418404718828],[-118.645472809208,34.4382037267269],[-118.641085017437,34.4381856311831],[-118.641057158983,34.4418161812873],[-118.645439802435,34.4418404718828]],[[-118.649929591867,34.43114264267],[-118.647731339425,34.4311551285144],[-118.647666758152,34.4382126597158],[-118.649860702771,34.4382216359974],[-118.649929591867,34.43114264267]]]},"properties":{"FID":1,"Comments":"SCVWA Service Area","Acres":125953.8892293,"GlobalID":"{5596307D-BC6C-4E4E-8BE6-09C1B621D265}","created_us":"DRICHAN","created_da":1651104000000,"last_edite":"DRICHAN","last_edi_1":1651104000000,"Shape__Area":751344321.453125,"Shape__Length":236456.0891816089,"GlobalID_2":"316c0e2d-36ea-4b0f-9818-c230a23f6a5f"}}]}