{"type": "FeatureCollection", "name": "Newhall 2015 Adopted Plan County GIS Shapefile", "crs_note": "converted from Esri JSON (Web Mercator 102100) in the web map to WGS84 lon/lat", "features": [{"type": "Feature", "properties": {"FID": 0, "ID": 7, "AREA": 41.689152, "DISTRICT": "1", "MEMBERS": 1, "LOCKED": " ", "NAME": " ", "POPULATION": 14822, "HISPANIC_O": 2403, "NH_WHT": 8109, "NH_DOJ_BLK": 540, "NH_DOJ_IND": 72, "NH_DOJ_ASN": 3500, "NH_DOJ_HWN": 25, "NH_DOJ_OTH": 66, "NH_DOJ_OT1": 107, "F18_POP": 10345, "H18_POP": 1580, "NH18_WHT": 5866, "NH18_DOJ_B": 376, "NH18_DOJ_I": 47, "NH18_DOJ_A": 2351, "NH18_DOJ_H": 15, "NH18_DOJ_O": 42, "NH18_DOJ_1": 68, "ACS0913_M1": 9368.943746, "ACS0913_M2": 1678.021371, "ACS0913_M3": 5786.313978, "ACS0913_M4": 274.057332, "ACS0913_M5": 57.003509, "ACS0913_M6": 1383.179218, "ACS0913_M7": 0, "ACS0913_M8": 306.373885, "ACS0913_M9": 362.351938, "ST0913_M2_": 9370.612086, "ST0913_M21": 1683.328026, "ST0913_M22": 5815.948269, "ST0913_M23": 184.983147, "ST0913_M24": 1364.448951, "ST0913_M25": 322.307704, "G08_VOTE_T": 6099, "G08_VOTE_L": 783.677312, "G08_VOTE_A": 423, "G08_VOTE_F": 143, "G10_VOTE_T": 4566, "G10_VOTE_L": 533.212262, "G10_VOTE_A": 277, "G10_VOTE_F": 88, "G12_REG_TO": 7242.0019, "G12_REG_LA": 1046.541785, "G12_REG_AS": 618.56641, "G12_REG_FI": 163.372463, "G12_VOT_TO": 5265.208554, "G12_VOT_LA": 746.678594, "G12_VOT_AS": 374.519551, "G12_VOT_FI": 106.503479, "BLK_TOTPOP": 14855.023072, "BLK_AGE0_1": 5220.501565, "BLK_AGE20_": 7821.4726, "BLK_AGE60P": 1813.048983, "BLK_AGE65P": 1109.651753, "BLK_CHINA": 317.884237, "BLK_FILIP": 231.014719, "BLK_JAPAN": 45.236954, "BLK_KOREA": 1587.289297, "BLK_VIET": 52, "BLK_MEX": 1824.543911, "BLK_ARAB": 291.639095, "BLK_BORNUS": 11810.367704, "BLK_IMMIGR": 3044.655276, "BLK_CIT": 2054.310611, "BLK_NONCIT": 990.344657, "BLK_POP5PL": 13956.091026, "BLK_ENGLIS": 9941.281356, "BLK_SPANIS": 993.471825, "BLK_ASIAN_": 1854.742144, "BLK_OTHER_": 1166.595642, "BLK_ENG_LV": 1401.662071, "BLK_POP25P": 9010.553862, "BLK_NOHSDE": 398.331196, "BLK_HS_GRA": 3820.653748, "BLK_BACHEL": 2981.511589, "BLK_GRADDE": 1810.057342, "BLK_POP3PL": 5489.44581, "BLK_INSCHO": 440.25302, "BLK_INSCH1": 3680.971749, "BLK_INSCH2": 1368.221005, "BLK_POP16P": 10785.963906, "BLK_EMPLOY": 7047.815422, "BLK_VETERA": 575.063611, "BLK_DRIVEA": 5251.066924, "BLK_CARPOO": 591.040474, "BLK_PUBTRA": 179.328634, "BLK_WALK": 102.998792, "BLK_WORKAT": 577.013011, "BLK_WORKPR": 0.017544, "BLK_WORKCO": 285.98953, "BLK_WORKMA": 760.006, "BLK_WORKWH": 227.024187, "BLK_WORKRE": 641.375458, "BLK_WORKTR": 207.68714, "BLK_WORKIN": 577.662132, "BLK_WORKFI": 793.746749, "BLK_WORKP1": 930.435834, "BLK_WORKED": 1456.171474, "BLK_WORKAR": 457.359507, "BLK_WORKOT": 339.672989, "BLK_WORKGO": 370.66702, "BLK_HHS": 5042.768385, "BLK_CHILD": 2338.308111, "BLK_HHINC0": 288.786155, "BLK_HHINC2": 774.296277, "BLK_HHINC5": 547.30265, "BLK_HHINC7": 2343.147022, "BLK_HHINC1": 1089.23627, "BLK_HOUSIN": 5277.944816, "BLK_VACANT": 235.176367, "BLK_OCCUPI": 5042.768385, "BLK_RENTED": 1594.663982, "BLK_OWNED": 3448.104392, "BLK_SINGLE": 3651.837053, "BLK_MULTIF": 1626.107755, "IDEAL_VALU": 14811, "DEVIATION": 11, "F_DEVIATIO": 0.000743, "F_ST0913_M": 0.179639, "F_G12_REG_": 0.14451, "F_G12_VOT_": 0.727038, "F_G12_VOT1": 0.141814, "F_ST0913_1": 0.905811, "F_HISPANIC": 0.162124, "F_NH_WHT": 0.547092, "F_NH_DOJ_B": 0.036432, "F_NH_DOJ_I": 0.004858, "F_NH_DOJ_A": 0.236135, "F_NH_DOJ_H": 0.001687, "F_NH_DOJ_O": 0.004453, "F_NH_DOJ_1": 0.007219, "F_18_POP": 0.697949, "F_H18_POP": 0.152731, "F_NH18_WHT": 0.567037, "F_NH18_DOJ": 0.036346, "F_NH18_DO1": 0.004543, "F_NH18_DO2": 0.22726, "F_NH18_DO3": 0.00145, "F_NH18_DO4": 0.00406, "F_NH18_DO5": 0.006573, "F_ACS0913_": 0.905649, "F_ACS09131": 0.179105, "F_ACS09132": 0.617606, "F_ACS09133": 0.029252, "F_ACS09134": 0.006084, "F_ACS09135": 0.147634, "F_ACS09136": 0, "F_ACS09137": 0.032701, "F_ACS09138": 0.038676, "F_ST0913_2": 0.620658, "F_ST0913_3": 0.019741, "F_ST0913_4": 0.145609, "F_ST0913_5": 0.034396, "F_G08_VOTE": 0.128493, "F_G08_VOT1": 0.069356, "F_G08_VOT2": 0.023446, "F_G10_VOTE": 0.116779, "F_G10_VOT1": 0.060666, "F_G10_VOT2": 0.019273, "F_G12_REG1": 0.085414, "F_G12_REG2": 0.022559, "F_G12_VOT2": 0.071131, "F_G12_VOT3": 0.020228, "F_BLK_AGE0": 0.35143, "F_BLK_AGE2": 0.52652, "F_BLK_AGE6": 0.12205, "F_BLK_AGE1": 0.074699, "F_BLK_CHIN": 0.021399, "F_BLK_FILI": 0.015551, "F_BLK_JAPA": 0.003045, "F_BLK_KORE": 0.106852, "F_BLK_VIET": 0.0035, "F_BLK_MEX": 0.122823, "F_BLK_ARAB": 0.019632, "F_BLK_BORN": 0.795042, "F_BLK_IMMI": 0.204958, "F_BLK_CIT": 0.674727, "F_BLK_NONC": 0.325273, "F_BLK_ENGL": 0.712326, "F_BLK_SPAN": 0.071186, "F_BLK_ASIA": 0.132898, "F_BLK_OTHE": 0.08359, "F_BLK_ENG_": 0.100434, "F_BLK_NOHS": 0.044207, "F_BLK_HS_G": 0.42402, "F_BLK_BACH": 0.330891, "F_BLK_GRAD": 0.200882, "F_BLK_INSC": 0.0802, "F_BLK_INS1": 0.670554, "F_BLK_INS2": 0.249246, "F_BLK_EMPL": 0.653425, "F_BLK_VETE": 0.053316, "F_BLK_DRIV": 0.486843, "F_BLK_CARP": 0.054797, "F_BLK_PUBT": 0.016626, "F_BLK_WALK": 0.009549, "F_BLK_WORK": 0.053497, "F_BLK_WOR1": 2e-06, "F_BLK_WOR2": 0.026515, "F_BLK_WOR3": 0.070463, "F_BLK_WOR4": 0.021048, "F_BLK_WOR5": 0.059464, "F_BLK_WOR6": 0.019255, "F_BLK_WOR7": 0.053557, "F_BLK_WOR8": 0.073591, "F_BLK_WOR9": 0.086264, "F_BLK_WO10": 0.135006, "F_BLK_WO11": 0.042403, "F_BLK_WO12": 0.031492, "F_BLK_WO13": 0.034366, "F_BLK_CHIL": 0.463695, "F_BLK_HHIN": 0.057267, "F_BLK_HHI1": 0.153546, "F_BLK_HHI2": 0.108532, "F_BLK_HHI3": 0.464655, "F_BLK_HHI4": 0.216, "F_BLK_VACA": 0.044558, "F_BLK_OCCU": 0.955442, "F_BLK_RENT": 0.316228, "F_BLK_OWNE": 0.683772, "F_BLK_SING": 0.691905, "F_BLK_MULT": 0.308095}, "geometry": {"type": "Polygon", "coordinates": [[[-118.5178616, 34.3399881], [-118.5114745, 34.3371695], [-118.5086179, 34.3349961], [-118.5083933, 34.3350999], [-118.5084023, 34.3348254], [-118.5077645, 34.334321], [-118.5226226, 34.3231118], [-118.5299529, 34.3234308], [-118.6048993, 34.3239798], [-118.6046388, 34.3204706], [-118.6508571, 34.3204854], [-118.6913981, 34.4030348], [-118.6906525, 34.4031164], [-118.6900956, 34.4029459], [-118.6877599, 34.4027235], [-118.6859094, 34.4034054], [-118.682918, 34.4039835], [-118.6821095, 34.4039094], [-118.6814448, 34.4035685], [-118.6809956, 34.4035463], [-118.680286, 34.403739], [-118.6799176, 34.4041095], [-118.6792259, 34.4044579], [-118.6778066, 34.4048137], [-118.6774922, 34.4050138], [-118.6752823, 34.4054214], [-118.6743301, 34.4052732], [-118.6729018, 34.4053621], [-118.6717789, 34.4059476], [-118.6706021, 34.4060959], [-118.6696679, 34.4059032], [-118.6689852, 34.4063108], [-118.6676107, 34.4066666], [-118.6672424, 34.4074448], [-118.6667304, 34.4079339], [-118.666389, 34.4080599], [-118.6656075, 34.4080822], [-118.6654368, 34.4082304], [-118.6650865, 34.409053], [-118.6644756, 34.4096756], [-118.6635863, 34.4100165], [-118.6623017, 34.4110911], [-118.6614303, 34.4112986], [-118.6606039, 34.4119508], [-118.6582593, 34.4130773], [-118.6575496, 34.4138999], [-118.6569208, 34.4141519], [-118.6563279, 34.4146929], [-118.6526448, 34.4163158], [-118.6519172, 34.4163158], [-118.6513422, 34.4165456], [-118.6503631, 34.4175312], [-118.6493749, 34.4179906], [-118.6487192, 34.4181018], [-118.6475603, 34.4179832], [-118.646114, 34.4181388], [-118.645045, 34.4186279], [-118.6438593, 34.4187984], [-118.6430688, 34.4189984], [-118.6426196, 34.419243], [-118.6421615, 34.4192874], [-118.641344, 34.4191763], [-118.6405714, 34.4192356], [-118.6396282, 34.4188947], [-118.6359271, 34.4187909], [-118.6350917, 34.4188651], [-118.6345617, 34.4187168], [-118.6321991, 34.4186057], [-118.6319117, 34.4185094], [-118.6316242, 34.4181166], [-118.6311032, 34.4179091], [-118.6292437, 34.4186946], [-118.6281208, 34.419532], [-118.6270069, 34.4199396], [-118.6260547, 34.4205694], [-118.6250216, 34.4221997], [-118.6245545, 34.4226147], [-118.6244107, 34.4231185], [-118.6236651, 34.423741], [-118.6233418, 34.424193], [-118.6230453, 34.4242745], [-118.62212, 34.4250229], [-118.6209702, 34.4261122], [-118.6205749, 34.4263419], [-118.6200539, 34.4263196], [-118.6195598, 34.426579], [-118.6188681, 34.4274163], [-118.6186256, 34.4286981], [-118.61788, 34.4291279], [-118.6171434, 34.4297651], [-118.6165864, 34.4312915], [-118.6140801, 34.4338032], [-118.6134333, 34.434796], [-118.6120769, 34.4352554], [-118.6115738, 34.4350924], [-118.6100467, 34.4353665], [-118.6081423, 34.4350701], [-118.6070822, 34.4353146], [-118.6068128, 34.4073855], [-118.6035339, 34.4074225], [-118.6039381, 34.4063034], [-118.6048095, 34.4054733], [-118.605097, 34.405288], [-118.6055012, 34.4052806], [-118.6056539, 34.4050731], [-118.6063366, 34.4050286], [-118.6075584, 34.4041318], [-118.6083129, 34.4041318], [-118.6087262, 34.4039835], [-118.6090496, 34.4036945], [-118.6095077, 34.4026346], [-118.6094897, 34.4008335], [-118.6096874, 34.4007149], [-118.6100108, 34.4000552], [-118.6106216, 34.4000107], [-118.6106396, 34.3997143], [-118.6112055, 34.3996624], [-118.6109091, 34.3992102], [-118.6111157, 34.3986766], [-118.6109899, 34.3982763], [-118.6110887, 34.3976092], [-118.6105767, 34.3977648], [-118.6100647, 34.3976314], [-118.6101994, 34.3974609], [-118.6106036, 34.3974091], [-118.6104599, 34.3970014], [-118.6106036, 34.3959785], [-118.6105318, 34.3956078], [-118.6108013, 34.3948592], [-118.6114031, 34.3948592], [-118.612553, 34.3953484], [-118.6140442, 34.3953484], [-118.6149695, 34.3951112], [-118.6148167, 34.3950593], [-118.616299, 34.3948073], [-118.6166224, 34.3945478], [-118.6171613, 34.3935101], [-118.6172871, 34.3924945], [-118.6182842, 34.392198], [-118.6185807, 34.3919386], [-118.6190658, 34.390797], [-118.6196766, 34.3899445], [-118.6188681, 34.3894849], [-118.6182663, 34.3893737], [-118.6168379, 34.3894775], [-118.6158588, 34.3896776], [-118.6151401, 34.3894182], [-118.6143766, 34.3896109], [-118.6122835, 34.3894182], [-118.6115738, 34.3895812], [-118.6111067, 34.3893144], [-118.6099658, 34.389218], [-118.6095975, 34.3890179], [-118.6093191, 34.3890623], [-118.6090136, 34.3893366], [-118.6087262, 34.3892921], [-118.6080345, 34.3896035], [-118.6064714, 34.389344], [-118.6045939, 34.3912343], [-118.6033542, 34.3904708], [-118.60295, 34.3908489], [-118.6022134, 34.3902558], [-118.6009827, 34.3912417], [-118.6014768, 34.3916495], [-118.6003089, 34.3926873], [-118.5995633, 34.3941772], [-118.5988986, 34.3939845], [-118.5980272, 34.3951334], [-118.5964462, 34.3961934], [-118.5946406, 34.3947257], [-118.5915594, 34.3934952], [-118.5904005, 34.3929022], [-118.5898436, 34.3924649], [-118.589071, 34.3912269], [-118.588029, 34.3904486], [-118.5870049, 34.3910787], [-118.5856215, 34.3912047], [-118.584822, 34.3909823], [-118.5842111, 34.3906413], [-118.5835284, 34.3896999], [-118.5828187, 34.3899297], [-118.5816689, 34.3905672], [-118.5795938, 34.3908266], [-118.5790818, 34.3911824], [-118.578947, 34.3918422], [-118.5781655, 34.3917384], [-118.5777253, 34.3914345], [-118.5762071, 34.3926279], [-118.575246, 34.3931691], [-118.5749585, 34.3931394], [-118.5736739, 34.3935842], [-118.5715, 34.3940438], [-118.5712395, 34.3935101], [-118.5700986, 34.3887065], [-118.5667299, 34.3804627], [-118.5658226, 34.3788687], [-118.5653735, 34.3787723], [-118.5598129, 34.3700085], [-118.5563723, 34.3654854], [-118.5556357, 34.3641062], [-118.5539469, 34.3593231], [-118.5532282, 34.3580921], [-118.5524557, 34.3571651], [-118.5487457, 34.3537686], [-118.5468592, 34.3523002], [-118.5456375, 34.3516549], [-118.5343367, 34.3472272], [-118.5334384, 34.3467303], [-118.532037, 34.3456623], [-118.5306266, 34.3441418], [-118.5294858, 34.343185], [-118.5280574, 34.3423913], [-118.5263507, 34.3417312], [-118.5202421, 34.3406483], [-118.5178616, 34.3397804], [-118.5178616, 34.3399881]]]}}, {"type": "Feature", "properties": {"FID": 1, "ID": 3, "AREA": 4.686998, "DISTRICT": "2", "MEMBERS": 1, "LOCKED": " ", "NAME": " ", "POPULATION": 14813, "HISPANIC_O": 2226, "NH_WHT": 9631, "NH_DOJ_BLK": 403, "NH_DOJ_IND": 79, "NH_DOJ_ASN": 2359, "NH_DOJ_HWN": 27, "NH_DOJ_OTH": 41, "NH_DOJ_OT1": 47, "F18_POP": 11252, "H18_POP": 1533, "NH18_WHT": 7660, "NH18_DOJ_B": 307, "NH18_DOJ_I": 59, "NH18_DOJ_A": 1621, "NH18_DOJ_H": 16, "NH18_DOJ_O": 21, "NH18_DOJ_1": 35, "ACS0913_M1": 10205.568899, "ACS0913_M2": 1650.990317, "ACS0913_M3": 7174.402548, "ACS0913_M4": 131.055269, "ACS0913_M5": 0, "ACS0913_M6": 845.380503, "ACS0913_M7": 61.931158, "ACS0913_M8": 362.872667, "ACS0913_M9": 468.048401, "ST0913_M2_": 10335.552169, "ST0913_M21": 1745.843963, "ST0913_M22": 7192.254539, "ST0913_M23": 127.679779, "ST0913_M24": 851.085562, "ST0913_M25": 405.153848, "G08_VOTE_T": 6460, "G08_VOTE_L": 647.869596, "G08_VOTE_A": 287, "G08_VOTE_F": 72, "G10_VOTE_T": 4950, "G10_VOTE_L": 460.855692, "G10_VOTE_A": 185, "G10_VOTE_F": 42, "G12_REG_TO": 9555.996587, "G12_REG_LA": 1129.378103, "G12_REG_AS": 563.573852, "G12_REG_FI": 152.775589, "G12_VOT_TO": 6873.179664, "G12_VOT_LA": 806.896258, "G12_VOT_AS": 329.423328, "G12_VOT_FI": 98.380611, "BLK_TOTPOP": 14438.331416, "BLK_AGE0_1": 3774.566135, "BLK_AGE20_": 8041.145069, "BLK_AGE60P": 2622.620345, "BLK_AGE65P": 1890.3705, "BLK_CHINA": 290.80122, "BLK_FILIP": 340.774333, "BLK_JAPAN": 82.075221, "BLK_KOREA": 695.877125, "BLK_VIET": 68.0117, "BLK_MEX": 1614.808097, "BLK_ARAB": 116.95551, "BLK_BORNUS": 11824.933655, "BLK_IMMIGR": 2613.397833, "BLK_CIT": 1598.714885, "BLK_NONCIT": 1014.682925, "BLK_POP5PL": 13629.334586, "BLK_ENGLIS": 10524.200449, "BLK_SPANIS": 1371.700782, "BLK_ASIAN_": 1034.600236, "BLK_OTHER_": 698.833472, "BLK_ENG_LV": 1068.24981, "BLK_POP25P": 9416.258679, "BLK_NOHSDE": 650.338138, "BLK_HS_GRA": 4492.324894, "BLK_BACHEL": 2720.511235, "BLK_GRADDE": 1553.084407, "BLK_POP3PL": 4373.820278, "BLK_INSCHO": 255.905263, "BLK_INSCH1": 2485.189577, "BLK_INSCH2": 1632.72554, "BLK_POP16P": 11547.631731, "BLK_EMPLOY": 6985.86913, "BLK_VETERA": 955.387696, "BLK_DRIVEA": 5163.335143, "BLK_CARPOO": 564.097361, "BLK_PUBTRA": 100.328687, "BLK_WALK": 266.660587, "BLK_WORKAT": 518.680561, "BLK_WORKPR": 0, "BLK_WORKCO": 446.856586, "BLK_WORKMA": 738.907976, "BLK_WORKWH": 220.954671, "BLK_WORKRE": 574.793131, "BLK_WORKTR": 173.749064, "BLK_WORKIN": 469.340488, "BLK_WORKFI": 641.838071, "BLK_WORKP1": 804.389318, "BLK_WORKED": 1648.076306, "BLK_WORKAR": 577.912523, "BLK_WORKOT": 227.61049, "BLK_WORKGO": 461.440539, "BLK_HHS": 5274.118274, "BLK_CHILD": 1692.952503, "BLK_HHINC0": 814.38, "BLK_HHINC2": 751.059872, "BLK_HHINC5": 637.201953, "BLK_HHINC7": 2338.102003, "BLK_HHINC1": 733.374471, "BLK_HOUSIN": 5408.812555, "BLK_VACANT": 134.694204, "BLK_OCCUPI": 5274.118274, "BLK_RENTED": 1702.876284, "BLK_OWNED": 3571.241982, "BLK_SINGLE": 3722.086984, "BLK_MULTIF": 1686.725511, "IDEAL_VALU": 14811, "DEVIATION": 2, "F_DEVIATIO": 0.000135, "F_ST0913_M": 0.168916, "F_G12_REG_": 0.118185, "F_G12_VOT_": 0.719253, "F_G12_VOT1": 0.117398, "F_ST0913_1": 0.918552, "F_HISPANIC": 0.150273, "F_NH_WHT": 0.650172, "F_NH_DOJ_B": 0.027206, "F_NH_DOJ_I": 0.005333, "F_NH_DOJ_A": 0.159252, "F_NH_DOJ_H": 0.001823, "F_NH_DOJ_O": 0.002768, "F_NH_DOJ_1": 0.003173, "F_18_POP": 0.759603, "F_H18_POP": 0.136242, "F_NH18_WHT": 0.680768, "F_NH18_DOJ": 0.027284, "F_NH18_DO1": 0.005244, "F_NH18_DO2": 0.144063, "F_NH18_DO3": 0.001422, "F_NH18_DO4": 0.001866, "F_NH18_DO5": 0.003111, "F_ACS0913_": 0.907, "F_ACS09131": 0.161773, "F_ACS09132": 0.702989, "F_ACS09133": 0.012842, "F_ACS09134": 0, "F_ACS09135": 0.082835, "F_ACS09136": 0.006068, "F_ACS09137": 0.035556, "F_ACS09138": 0.045862, "F_ST0913_2": 0.695875, "F_ST0913_3": 0.012353, "F_ST0913_4": 0.082345, "F_ST0913_5": 0.0392, "F_G08_VOTE": 0.100289, "F_G08_VOT1": 0.044427, "F_G08_VOT2": 0.011146, "F_G10_VOTE": 0.093102, "F_G10_VOT1": 0.037374, "F_G10_VOT2": 0.008485, "F_G12_REG1": 0.058976, "F_G12_REG2": 0.015987, "F_G12_VOT2": 0.047929, "F_G12_VOT3": 0.014314, "F_BLK_AGE0": 0.261427, "F_BLK_AGE2": 0.55693, "F_BLK_AGE6": 0.181643, "F_BLK_AGE1": 0.130927, "F_BLK_CHIN": 0.020141, "F_BLK_FILI": 0.023602, "F_BLK_JAPA": 0.005685, "F_BLK_KORE": 0.048197, "F_BLK_VIET": 0.00471, "F_BLK_MEX": 0.111842, "F_BLK_ARAB": 0.0081, "F_BLK_BORN": 0.818996, "F_BLK_IMMI": 0.181004, "F_BLK_CIT": 0.611738, "F_BLK_NONC": 0.388262, "F_BLK_ENGL": 0.772173, "F_BLK_SPAN": 0.100643, "F_BLK_ASIA": 0.07591, "F_BLK_OTHE": 0.051274, "F_BLK_ENG_": 0.078379, "F_BLK_NOHS": 0.069065, "F_BLK_HS_G": 0.477082, "F_BLK_BACH": 0.288916, "F_BLK_GRAD": 0.164936, "F_BLK_INSC": 0.058508, "F_BLK_INS1": 0.568197, "F_BLK_INS2": 0.373295, "F_BLK_EMPL": 0.604961, "F_BLK_VETE": 0.082735, "F_BLK_DRIV": 0.447134, "F_BLK_CARP": 0.04885, "F_BLK_PUBT": 0.008688, "F_BLK_WALK": 0.023092, "F_BLK_WORK": 0.044917, "F_BLK_WOR1": 0, "F_BLK_WOR2": 0.038697, "F_BLK_WOR3": 0.063988, "F_BLK_WOR4": 0.019134, "F_BLK_WOR5": 0.049776, "F_BLK_WOR6": 0.015046, "F_BLK_WOR7": 0.040644, "F_BLK_WOR8": 0.055582, "F_BLK_WOR9": 0.069658, "F_BLK_WO10": 0.14272, "F_BLK_WO11": 0.050046, "F_BLK_WO12": 0.019711, "F_BLK_WO13": 0.03996, "F_BLK_CHIL": 0.320993, "F_BLK_HHIN": 0.154411, "F_BLK_HHI1": 0.142405, "F_BLK_HHI2": 0.120817, "F_BLK_HHI3": 0.443316, "F_BLK_HHI4": 0.139052, "F_BLK_VACA": 0.024903, "F_BLK_OCCU": 0.975097, "F_BLK_RENT": 0.322874, "F_BLK_OWNE": 0.677126, "F_BLK_SING": 0.688152, "F_BLK_MULT": 0.311848}, "geometry": {"type": "Polygon", "coordinates": [[[-118.6035339, 34.4074225], [-118.5899604, 34.4075782], [-118.5794411, 34.4145595], [-118.5790189, 34.4135442], [-118.5788392, 34.4124399], [-118.5788662, 34.4117581], [-118.5797735, 34.4080599], [-118.5796387, 34.4077042], [-118.5792524, 34.4075856], [-118.5769078, 34.4080525], [-118.5759197, 34.4084453], [-118.5733775, 34.4091568], [-118.571473, 34.4091346], [-118.5690296, 34.4085861], [-118.5671791, 34.4087788], [-118.5658136, 34.4095274], [-118.5639631, 34.4118989], [-118.562948, 34.412603], [-118.5621755, 34.4129217], [-118.561331, 34.4130995], [-118.5599027, 34.4131069], [-118.5594266, 34.4119953], [-118.5589146, 34.4112468], [-118.5533091, 34.4047025], [-118.5531923, 34.4047692], [-118.5520425, 34.4034128], [-118.5513148, 34.4022492], [-118.5509286, 34.4008483], [-118.5509914, 34.3993659], [-118.5516921, 34.3976611], [-118.5523209, 34.3968605], [-118.5530396, 34.3962527], [-118.5521233, 34.3953262], [-118.5487636, 34.3909675], [-118.5475599, 34.3899148], [-118.5476677, 34.3898185], [-118.5489792, 34.3910342], [-118.5497787, 34.3904856], [-118.5506321, 34.3907821], [-118.551252, 34.3906635], [-118.5540277, 34.3893366], [-118.5556717, 34.3890104], [-118.5549171, 34.3887584], [-118.5550159, 34.3880838], [-118.556552, 34.3876612], [-118.5575941, 34.3870385], [-118.5571808, 34.3858895], [-118.5573695, 34.3840509], [-118.5571, 34.3835246], [-118.5563993, 34.3829463], [-118.5571269, 34.382331], [-118.5578815, 34.3811596], [-118.5581061, 34.380307], [-118.5582408, 34.3786834], [-118.5594805, 34.3786166], [-118.5594985, 34.3787501], [-118.5596512, 34.3787427], [-118.562948, 34.3783275], [-118.5652567, 34.3785944], [-118.5653735, 34.3787723], [-118.5658226, 34.3788687], [-118.5663886, 34.3798103], [-118.5676911, 34.3825682], [-118.5700986, 34.3887065], [-118.5712395, 34.3935101], [-118.5715, 34.3940438], [-118.5736739, 34.3935842], [-118.5749585, 34.3931394], [-118.575246, 34.3931691], [-118.5762071, 34.3926279], [-118.5777253, 34.3914345], [-118.5781655, 34.3917384], [-118.578947, 34.3918422], [-118.5790818, 34.3911824], [-118.5795938, 34.3908266], [-118.5816689, 34.3905672], [-118.5828187, 34.3899297], [-118.5835284, 34.3896999], [-118.5842111, 34.3906413], [-118.584822, 34.3909823], [-118.5856215, 34.3912047], [-118.5870049, 34.3910787], [-118.588029, 34.3904486], [-118.589071, 34.3912269], [-118.5898436, 34.3924649], [-118.5904005, 34.3929022], [-118.5915594, 34.3934952], [-118.5946406, 34.3947257], [-118.5964462, 34.3961934], [-118.5980272, 34.3951334], [-118.5988986, 34.3939845], [-118.5995633, 34.3941772], [-118.6003089, 34.3926873], [-118.6014768, 34.3916495], [-118.6009827, 34.3912417], [-118.6022134, 34.3902558], [-118.60295, 34.3908489], [-118.6033542, 34.3904708], [-118.6045939, 34.3912343], [-118.6064714, 34.389344], [-118.6080345, 34.3896035], [-118.6087262, 34.3892921], [-118.6090136, 34.3893366], [-118.6093191, 34.3890623], [-118.6095975, 34.3890179], [-118.6099658, 34.389218], [-118.6111067, 34.3893144], [-118.6115738, 34.3895812], [-118.6122835, 34.3894182], [-118.6143766, 34.3896109], [-118.6151401, 34.3894182], [-118.6158588, 34.3896776], [-118.6168379, 34.3894775], [-118.6182663, 34.3893737], [-118.6188681, 34.3894849], [-118.6196766, 34.3899445], [-118.6190658, 34.390797], [-118.6185807, 34.3919386], [-118.6182842, 34.392198], [-118.6172871, 34.3924945], [-118.6171613, 34.3935101], [-118.6166224, 34.3945478], [-118.616299, 34.3948073], [-118.6148167, 34.3950593], [-118.6149695, 34.3951112], [-118.6140442, 34.3953484], [-118.612553, 34.3953484], [-118.6114031, 34.3948592], [-118.6108013, 34.3948592], [-118.6105318, 34.3956078], [-118.6106036, 34.3959785], [-118.6104599, 34.3970014], [-118.6106036, 34.3974091], [-118.6101994, 34.3974609], [-118.6100647, 34.3976314], [-118.6105767, 34.3977648], [-118.6110887, 34.3976092], [-118.6109899, 34.3982763], [-118.6111157, 34.3986766], [-118.6109091, 34.3992102], [-118.6112055, 34.3996624], [-118.6106396, 34.3997143], [-118.6106216, 34.4000107], [-118.6100108, 34.4000552], [-118.6096874, 34.4007149], [-118.6094897, 34.4008335], [-118.6095077, 34.4026346], [-118.6090496, 34.4036945], [-118.6087262, 34.4039835], [-118.6083129, 34.4041318], [-118.6075584, 34.4041318], [-118.6063366, 34.4050286], [-118.6056539, 34.4050731], [-118.6055012, 34.4052806], [-118.605097, 34.405288], [-118.6048095, 34.4054733], [-118.6039381, 34.4063034], [-118.6035339, 34.4074225]]]}}, {"type": "Feature", "properties": {"FID": 2, "ID": 4, "AREA": 5.690807, "DISTRICT": "3", "MEMBERS": 1, "LOCKED": " ", "NAME": " ", "POPULATION": 14776, "HISPANIC_O": 2765, "NH_WHT": 10118, "NH_DOJ_BLK": 373, "NH_DOJ_IND": 78, "NH_DOJ_ASN": 1289, "NH_DOJ_HWN": 40, "NH_DOJ_OTH": 55, "NH_DOJ_OT1": 58, "F18_POP": 11463, "H18_POP": 1942, "NH18_WHT": 8063, "NH18_DOJ_B": 279, "NH18_DOJ_I": 63, "NH18_DOJ_A": 994, "NH18_DOJ_H": 25, "NH18_DOJ_O": 49, "NH18_DOJ_1": 48, "ACS0913_M1": 10600.513816, "ACS0913_M2": 1735.266833, "ACS0913_M3": 7315.504219, "ACS0913_M4": 126.264395, "ACS0913_M5": 28.015488, "ACS0913_M6": 996.563093, "ACS0913_M7": 39.107245, "ACS0913_M8": 504.525712, "ACS0913_M9": 482.444611, "ST0913_M2_": 10601.856037, "ST0913_M21": 1735.528585, "ST0913_M22": 7346.380831, "ST0913_M23": 122.000002, "ST0913_M24": 949.000013, "ST0913_M25": 411.999997, "G08_VOTE_T": 7294, "G08_VOTE_L": 971.804394, "G08_VOTE_A": 172, "G08_VOTE_F": 82, "G10_VOTE_T": 5516, "G10_VOTE_L": 603.342476, "G10_VOTE_A": 113, "G10_VOTE_F": 63, "G12_REG_TO": 8981.996399, "G12_REG_LA": 1374.2985, "G12_REG_AS": 238.775067, "G12_REG_FI": 115.663366, "G12_VOT_TO": 6563.296468, "G12_VOT_LA": 897.287569, "G12_VOT_AS": 155.173949, "G12_VOT_FI": 80.952707, "BLK_TOTPOP": 14920.422677, "BLK_AGE0_1": 4146.169208, "BLK_AGE20_": 8425.071396, "BLK_AGE60P": 2349.182173, "BLK_AGE65P": 1430.962647, "BLK_CHINA": 238.931606, "BLK_FILIP": 881.465158, "BLK_JAPAN": 165.003927, "BLK_KOREA": 135.16978, "BLK_VIET": 166.921802, "BLK_MEX": 1834.392775, "BLK_ARAB": 104.656479, "BLK_BORNUS": 12661.895729, "BLK_IMMIGR": 2258.527098, "BLK_CIT": 1363.257023, "BLK_NONCIT": 895.270081, "BLK_POP5PL": 14232.830182, "BLK_ENGLIS": 11270.778602, "BLK_SPANIS": 1493.874594, "BLK_ASIAN_": 846.871706, "BLK_OTHER_": 621.305114, "BLK_ENG_LV": 831.450563, "BLK_POP25P": 9867.709818, "BLK_NOHSDE": 857.781692, "BLK_HS_GRA": 5114.702333, "BLK_BACHEL": 2468.131722, "BLK_GRADDE": 1427.094062, "BLK_POP3PL": 4817.79905, "BLK_INSCHO": 234.739237, "BLK_INSCH1": 2699.05471, "BLK_INSCH2": 1884.005128, "BLK_POP16P": 11925.290742, "BLK_EMPLOY": 7491.095846, "BLK_VETERA": 844.451383, "BLK_DRIVEA": 5853.467471, "BLK_CARPOO": 631.459376, "BLK_PUBTRA": 169.769113, "BLK_WALK": 173.016207, "BLK_WORKAT": 377.153461, "BLK_WORKPR": 58.001886, "BLK_WORKCO": 370.078522, "BLK_WORKMA": 914.756246, "BLK_WORKWH": 222.871664, "BLK_WORKRE": 514.971681, "BLK_WORKTR": 385.555332, "BLK_WORKIN": 429.562005, "BLK_WORKFI": 608.633533, "BLK_WORKP1": 832.317058, "BLK_WORKED": 1703.143435, "BLK_WORKAR": 703.279407, "BLK_WORKOT": 320.032526, "BLK_WORKGO": 427.892557, "BLK_HHS": 5280.02372, "BLK_CHILD": 1796.906313, "BLK_HHINC0": 543.246983, "BLK_HHINC2": 538.745215, "BLK_HHINC5": 969.495136, "BLK_HHINC7": 2731.040831, "BLK_HHINC1": 497.495525, "BLK_HOUSIN": 5478.872062, "BLK_VACANT": 198.84831, "BLK_OCCUPI": 5280.02372, "BLK_RENTED": 1501.464766, "BLK_OWNED": 3778.558996, "BLK_SINGLE": 4205.023128, "BLK_MULTIF": 1273.848855, "IDEAL_VALU": 14811, "DEVIATION": -35, "F_DEVIATIO": -0.002363, "F_ST0913_M": 0.1637, "F_G12_REG_": 0.153006, "F_G12_VOT_": 0.730717, "F_G12_VOT1": 0.136713, "F_ST0913_1": 0.924876, "F_HISPANIC": 0.187128, "F_NH_WHT": 0.684759, "F_NH_DOJ_B": 0.025244, "F_NH_DOJ_I": 0.005279, "F_NH_DOJ_A": 0.087236, "F_NH_DOJ_H": 0.002707, "F_NH_DOJ_O": 0.003722, "F_NH_DOJ_1": 0.003925, "F_18_POP": 0.775785, "F_H18_POP": 0.169415, "F_NH18_WHT": 0.703394, "F_NH18_DOJ": 0.024339, "F_NH18_DO1": 0.005496, "F_NH18_DO2": 0.086714, "F_NH18_DO3": 0.002181, "F_NH18_DO4": 0.004275, "F_NH18_DO5": 0.004187, "F_ACS0913_": 0.924759, "F_ACS09131": 0.163696, "F_ACS09132": 0.690108, "F_ACS09133": 0.011911, "F_ACS09134": 0.002643, "F_ACS09135": 0.094011, "F_ACS09136": 0.003689, "F_ACS09137": 0.047594, "F_ACS09138": 0.045511, "F_ST0913_2": 0.692933, "F_ST0913_3": 0.011507, "F_ST0913_4": 0.089513, "F_ST0913_5": 0.038861, "F_G08_VOTE": 0.133233, "F_G08_VOT1": 0.023581, "F_G08_VOT2": 0.011242, "F_G10_VOTE": 0.10938, "F_G10_VOT1": 0.020486, "F_G10_VOT2": 0.011421, "F_G12_REG1": 0.026584, "F_G12_REG2": 0.012877, "F_G12_VOT2": 0.023643, "F_G12_VOT3": 0.012334, "F_BLK_AGE0": 0.277886, "F_BLK_AGE2": 0.564667, "F_BLK_AGE6": 0.157447, "F_BLK_AGE1": 0.095906, "F_BLK_CHIN": 0.016014, "F_BLK_FILI": 0.059078, "F_BLK_JAPA": 0.011059, "F_BLK_KORE": 0.009059, "F_BLK_VIET": 0.011187, "F_BLK_MEX": 0.122945, "F_BLK_ARAB": 0.007014, "F_BLK_BORN": 0.848628, "F_BLK_IMMI": 0.151372, "F_BLK_CIT": 0.603604, "F_BLK_NONC": 0.396396, "F_BLK_ENGL": 0.791886, "F_BLK_SPAN": 0.10496, "F_BLK_ASIA": 0.059501, "F_BLK_OTHE": 0.043653, "F_BLK_ENG_": 0.058418, "F_BLK_NOHS": 0.086928, "F_BLK_HS_G": 0.518327, "F_BLK_BACH": 0.250122, "F_BLK_GRAD": 0.144623, "F_BLK_INSC": 0.048723, "F_BLK_INS1": 0.560226, "F_BLK_INS2": 0.391051, "F_BLK_EMPL": 0.628169, "F_BLK_VETE": 0.070812, "F_BLK_DRIV": 0.490845, "F_BLK_CARP": 0.052951, "F_BLK_PUBT": 0.014236, "F_BLK_WALK": 0.014508, "F_BLK_WORK": 0.031626, "F_BLK_WOR1": 0.004864, "F_BLK_WOR2": 0.031033, "F_BLK_WOR3": 0.076707, "F_BLK_WOR4": 0.018689, "F_BLK_WOR5": 0.043183, "F_BLK_WOR6": 0.032331, "F_BLK_WOR7": 0.036021, "F_BLK_WOR8": 0.051037, "F_BLK_WOR9": 0.069794, "F_BLK_WO10": 0.142818, "F_BLK_WO11": 0.058974, "F_BLK_WO12": 0.026836, "F_BLK_WO13": 0.035881, "F_BLK_CHIL": 0.340322, "F_BLK_HHIN": 0.102887, "F_BLK_HHI1": 0.102035, "F_BLK_HHI2": 0.183616, "F_BLK_HHI3": 0.51724, "F_BLK_HHI4": 0.094222, "F_BLK_VACA": 0.036294, "F_BLK_OCCU": 0.963706, "F_BLK_RENT": 0.284367, "F_BLK_OWNE": 0.715633, "F_BLK_SING": 0.767498, "F_BLK_MULT": 0.232502}, "geometry": {"type": "Polygon", "coordinates": [[[-118.5504345, 34.4145002], [-118.5496529, 34.4159379], [-118.5409842, 34.4134923], [-118.5399152, 34.4077931], [-118.5104954, 34.407882], [-118.5102528, 34.3933544], [-118.4985298, 34.3939103], [-118.4950803, 34.395378], [-118.4944245, 34.3953855], [-118.4920709, 34.3962972], [-118.4843634, 34.3959636], [-118.4853336, 34.3952001], [-118.4860702, 34.3943699], [-118.4876961, 34.3920349], [-118.4892951, 34.3887213], [-118.4907504, 34.3843994], [-118.4933376, 34.3791282], [-118.494182, 34.3780902], [-118.4942898, 34.3781347], [-118.4987185, 34.3739753], [-118.5004702, 34.3719957], [-118.5031112, 34.3733673], [-118.506983, 34.3747464], [-118.5076208, 34.3751616], [-118.5083664, 34.3761329], [-118.5084562, 34.3760884], [-118.5091749, 34.3768817], [-118.5100013, 34.3772895], [-118.5132263, 34.3780532], [-118.516541, 34.3780161], [-118.5181939, 34.3785351], [-118.5195953, 34.3786685], [-118.5211764, 34.3794841], [-118.5220567, 34.3796842], [-118.5232964, 34.3802255], [-118.5238982, 34.3803293], [-118.524563, 34.3801068], [-118.5260093, 34.3803663], [-118.526692, 34.3806703], [-118.5273029, 34.3812412], [-118.5284886, 34.3820122], [-118.5287492, 34.3819158], [-118.5381006, 34.3940438], [-118.5384779, 34.394622], [-118.5386935, 34.3953187], [-118.5392864, 34.3951408], [-118.5391157, 34.3941253], [-118.5393852, 34.3931765], [-118.5395649, 34.393006], [-118.5413435, 34.392287], [-118.5417388, 34.3917013], [-118.5437241, 34.3903374], [-118.5446853, 34.3899815], [-118.5453949, 34.3892402], [-118.5463921, 34.3886694], [-118.5473443, 34.3897295], [-118.5487636, 34.3909675], [-118.5521233, 34.3953262], [-118.5530396, 34.3962527], [-118.5523209, 34.3968605], [-118.5516921, 34.3976611], [-118.5509914, 34.3993659], [-118.5509825, 34.4011522], [-118.5516023, 34.4027606], [-118.5531923, 34.4047692], [-118.5533091, 34.4047025], [-118.5589146, 34.4112468], [-118.5594266, 34.4119953], [-118.5599027, 34.4131069], [-118.5537762, 34.4130106], [-118.5530396, 34.4130847], [-118.551746, 34.4134997], [-118.5504345, 34.4145002]]]}}, {"type": "Feature", "properties": {"FID": 3, "ID": 5, "AREA": 6.771332, "DISTRICT": "4", "MEMBERS": 1, "LOCKED": " ", "NAME": " ", "POPULATION": 14704, "HISPANIC_O": 10643, "NH_WHT": 2692, "NH_DOJ_BLK": 443, "NH_DOJ_IND": 70, "NH_DOJ_ASN": 754, "NH_DOJ_HWN": 12, "NH_DOJ_OTH": 37, "NH_DOJ_OT1": 53, "F18_POP": 9938, "H18_POP": 6787, "NH18_WHT": 2180, "NH18_DOJ_B": 294, "NH18_DOJ_I": 54, "NH18_DOJ_A": 566, "NH18_DOJ_H": 9, "NH18_DOJ_O": 12, "NH18_DOJ_1": 36, "ACS0913_M1": 5619.109399, "ACS0913_M2": 2403.43763, "ACS0913_M3": 2361.105757, "ACS0913_M4": 360.368812, "ACS0913_M5": 57.782029, "ACS0913_M6": 318.904348, "ACS0913_M7": 0, "ACS0913_M8": 500.516358, "ACS0913_M9": 296.112338, "ST0913_M2_": 5328.430256, "ST0913_M21": 2678.054103, "ST0913_M22": 1739.371038, "ST0913_M23": 344.236122, "ST0913_M24": 300.098801, "ST0913_M25": 175, "G08_VOTE_T": 2202, "G08_VOTE_L": 543.230864, "G08_VOTE_A": 77, "G08_VOTE_F": 25, "G10_VOTE_T": 1512, "G10_VOTE_L": 359.556494, "G10_VOTE_A": 42, "G10_VOTE_F": 11, "G12_REG_TO": 3550.998982, "G12_REG_LA": 1056.258432, "G12_REG_AS": 140.911373, "G12_REG_FI": 41.352051, "G12_VOT_TO": 2303.259072, "G12_VOT_LA": 582.373349, "G12_VOT_AS": 71.345055, "G12_VOT_FI": 17.404076, "BLK_TOTPOP": 14710.679601, "BLK_AGE0_1": 4988.898922, "BLK_AGE20_": 8651.31614, "BLK_AGE60P": 1070.464525, "BLK_AGE65P": 796.398732, "BLK_CHINA": 104.849174, "BLK_FILIP": 248.12796, "BLK_JAPAN": 33.452682, "BLK_KOREA": 89.728191, "BLK_VIET": 40.544471, "BLK_MEX": 8829.172615, "BLK_ARAB": 25.398823, "BLK_BORNUS": 8892.143357, "BLK_IMMIGR": 5818.536261, "BLK_CIT": 1134.248466, "BLK_NONCIT": 4684.287819, "BLK_POP5PL": 13450.439197, "BLK_ENGLIS": 4896.518114, "BLK_SPANIS": 7658.661019, "BLK_ASIAN_": 582.64204, "BLK_OTHER_": 312.618123, "BLK_ENG_LV": 4738.707374, "BLK_POP25P": 8099.962524, "BLK_NOHSDE": 3220.038224, "BLK_HS_GRA": 3716.55013, "BLK_BACHEL": 788.663391, "BLK_GRADDE": 374.710815, "BLK_POP3PL": 4790.463272, "BLK_INSCHO": 194.396893, "BLK_INSCH1": 3328.053935, "BLK_INSCH2": 1268.012419, "BLK_POP16P": 10325.955469, "BLK_EMPLOY": 6658.977447, "BLK_VETERA": 293.21648, "BLK_DRIVEA": 3731.076038, "BLK_CARPOO": 1698.688643, "BLK_PUBTRA": 540.293093, "BLK_WALK": 92.585681, "BLK_WORKAT": 231.60943, "BLK_WORKPR": 259.111213, "BLK_WORKCO": 798.711282, "BLK_WORKMA": 853.452509, "BLK_WORKWH": 189.339018, "BLK_WORKRE": 431.757027, "BLK_WORKTR": 287.287392, "BLK_WORKIN": 231.966602, "BLK_WORKFI": 259.420432, "BLK_WORKP1": 1025.792233, "BLK_WORKED": 891.060303, "BLK_WORKAR": 840.626541, "BLK_WORKOT": 427.430794, "BLK_WORKGO": 163.022065, "BLK_HHS": 3741.965888, "BLK_CHILD": 1831.763496, "BLK_HHINC0": 839.060259, "BLK_HHINC2": 1007.063464, "BLK_HHINC5": 836.741323, "BLK_HHINC7": 946.17059, "BLK_HHINC1": 112.930245, "BLK_HOUSIN": 3968.512166, "BLK_VACANT": 226.546271, "BLK_OCCUPI": 3741.965888, "BLK_RENTED": 2680.774034, "BLK_OWNED": 1061.191836, "BLK_SINGLE": 1776.646545, "BLK_MULTIF": 2191.8656, "IDEAL_VALU": 14811, "DEVIATION": -107, "F_DEVIATIO": -0.007224, "F_ST0913_M": 0.502597, "F_G12_REG_": 0.297454, "F_G12_VOT_": 0.648623, "F_G12_VOT1": 0.252848, "F_ST0913_1": 0.536167, "F_HISPANIC": 0.723817, "F_NH_WHT": 0.183079, "F_NH_DOJ_B": 0.030128, "F_NH_DOJ_I": 0.004761, "F_NH_DOJ_A": 0.051279, "F_NH_DOJ_H": 0.000816, "F_NH_DOJ_O": 0.002516, "F_NH_DOJ_1": 0.003604, "F_18_POP": 0.675871, "F_H18_POP": 0.682934, "F_NH18_WHT": 0.21936, "F_NH18_DOJ": 0.029583, "F_NH18_DO1": 0.005434, "F_NH18_DO2": 0.056953, "F_NH18_DO3": 0.000906, "F_NH18_DO4": 0.001207, "F_NH18_DO5": 0.003622, "F_ACS0913_": 0.565417, "F_ACS09131": 0.427726, "F_ACS09132": 0.420192, "F_ACS09133": 0.064133, "F_ACS09134": 0.010283, "F_ACS09135": 0.056754, "F_ACS09136": 0, "F_ACS09137": 0.089074, "F_ACS09138": 0.052697, "F_ST0913_2": 0.326432, "F_ST0913_3": 0.064604, "F_ST0913_4": 0.05632, "F_ST0913_5": 0.032843, "F_G08_VOTE": 0.246699, "F_G08_VOT1": 0.034968, "F_G08_VOT2": 0.011353, "F_G10_VOTE": 0.237802, "F_G10_VOT1": 0.027778, "F_G10_VOT2": 0.007275, "F_G12_REG1": 0.039682, "F_G12_REG2": 0.011645, "F_G12_VOT2": 0.030976, "F_G12_VOT3": 0.007556, "F_BLK_AGE0": 0.339134, "F_BLK_AGE2": 0.588098, "F_BLK_AGE6": 0.072768, "F_BLK_AGE1": 0.054137, "F_BLK_CHIN": 0.007127, "F_BLK_FILI": 0.016867, "F_BLK_JAPA": 0.002274, "F_BLK_KORE": 0.0061, "F_BLK_VIET": 0.002756, "F_BLK_MEX": 0.600188, "F_BLK_ARAB": 0.001727, "F_BLK_BORN": 0.604469, "F_BLK_IMMI": 0.395531, "F_BLK_CIT": 0.194937, "F_BLK_NONC": 0.805063, "F_BLK_ENGL": 0.364042, "F_BLK_SPAN": 0.569399, "F_BLK_ASIA": 0.043318, "F_BLK_OTHE": 0.023242, "F_BLK_ENG_": 0.352309, "F_BLK_NOHS": 0.397537, "F_BLK_HS_G": 0.458835, "F_BLK_BACH": 0.097366, "F_BLK_GRAD": 0.046261, "F_BLK_INSC": 0.04058, "F_BLK_INS1": 0.694725, "F_BLK_INS2": 0.264695, "F_BLK_EMPL": 0.644878, "F_BLK_VETE": 0.028396, "F_BLK_DRIV": 0.36133, "F_BLK_CARP": 0.164507, "F_BLK_PUBT": 0.052324, "F_BLK_WALK": 0.008966, "F_BLK_WORK": 0.02243, "F_BLK_WOR1": 0.025093, "F_BLK_WOR2": 0.07735, "F_BLK_WOR3": 0.082651, "F_BLK_WOR4": 0.018336, "F_BLK_WOR5": 0.041813, "F_BLK_WOR6": 0.027822, "F_BLK_WOR7": 0.022464, "F_BLK_WOR8": 0.025123, "F_BLK_WOR9": 0.099341, "F_BLK_WO10": 0.086293, "F_BLK_WO11": 0.081409, "F_BLK_WO12": 0.041394, "F_BLK_WO13": 0.015788, "F_BLK_CHIL": 0.489519, "F_BLK_HHIN": 0.22423, "F_BLK_HHI1": 0.269127, "F_BLK_HHI2": 0.22361, "F_BLK_HHI3": 0.252854, "F_BLK_HHI4": 0.030179, "F_BLK_VACA": 0.057086, "F_BLK_OCCU": 0.942914, "F_BLK_RENT": 0.716408, "F_BLK_OWNE": 0.283592, "F_BLK_SING": 0.447686, "F_BLK_MULT": 0.552314}, "geometry": {"type": "Polygon", "coordinates": [[[-118.4934813, 34.3775416], [-118.4908133, 34.375562], [-118.4898611, 34.3751171], [-118.488325, 34.3749985], [-118.4838873, 34.3757399], [-118.4832674, 34.3757474], [-118.4827464, 34.3756139], [-118.4820907, 34.3752061], [-118.4806084, 34.3738122], [-118.4799527, 34.3735379], [-118.4791262, 34.3734267], [-118.4781381, 34.3736046], [-118.4761258, 34.3748057], [-118.4719756, 34.3762664], [-118.4697748, 34.3779939], [-118.467484, 34.3788316], [-118.4657054, 34.3802774], [-118.4649149, 34.3805294], [-118.463783, 34.3804108], [-118.4600101, 34.379232], [-118.4578811, 34.378802], [-118.4534883, 34.3784165], [-118.4513054, 34.378587], [-118.448826, 34.3785054], [-118.4487362, 34.3528119], [-118.4618336, 34.3525523], [-118.5049797, 34.3525301], [-118.5039287, 34.3493262], [-118.5038299, 34.3481914], [-118.5039557, 34.3470863], [-118.504279, 34.3455881], [-118.5047641, 34.3443198], [-118.5061565, 34.3446536], [-118.5062284, 34.345551], [-118.5092557, 34.3472792], [-118.5084382, 34.3486512], [-118.5081149, 34.3497341], [-118.508061, 34.3507501], [-118.5082855, 34.3535832], [-118.5077016, 34.3572319], [-118.5070638, 34.3597755], [-118.5072345, 34.3633794], [-118.5070459, 34.3644769], [-118.5062643, 34.3658487], [-118.5079442, 34.3665606], [-118.510684, 34.3682438], [-118.511223, 34.3676135], [-118.5113398, 34.3667904], [-118.5129029, 34.3668201], [-118.5126963, 34.3679694], [-118.5121034, 34.3691336], [-118.5185802, 34.3731227], [-118.5247067, 34.3757622], [-118.5260901, 34.376474], [-118.5268717, 34.3766816], [-118.5290097, 34.3775861], [-118.5298002, 34.3762589], [-118.5298631, 34.3752728], [-118.5299978, 34.3749985], [-118.5323873, 34.3731227], [-118.5332407, 34.3727594], [-118.5341211, 34.3719512], [-118.5351452, 34.3715879], [-118.5353338, 34.3736491], [-118.5398793, 34.3733599], [-118.5402566, 34.3780383], [-118.5405979, 34.3797065], [-118.5388732, 34.3798177], [-118.5388911, 34.3799437], [-118.5330431, 34.380307], [-118.5351452, 34.3830279], [-118.5422149, 34.3914271], [-118.5417388, 34.3917013], [-118.5413435, 34.392287], [-118.5396637, 34.3929541], [-118.5393852, 34.3931765], [-118.5391157, 34.3941253], [-118.5392864, 34.3951408], [-118.5386935, 34.3953187], [-118.5384779, 34.394622], [-118.5381006, 34.3940438], [-118.5287492, 34.3819158], [-118.5284886, 34.3820122], [-118.5273029, 34.3812412], [-118.526692, 34.3806703], [-118.5260093, 34.3803663], [-118.524563, 34.3801068], [-118.5238982, 34.3803293], [-118.5232964, 34.3802255], [-118.5220567, 34.3796842], [-118.5211764, 34.3794841], [-118.5195953, 34.3786685], [-118.5181939, 34.3785351], [-118.516541, 34.3780161], [-118.5132263, 34.3780532], [-118.5100013, 34.3772895], [-118.5091749, 34.3768817], [-118.5084562, 34.3760884], [-118.5083664, 34.3761329], [-118.5076208, 34.3751616], [-118.506983, 34.3747464], [-118.5031112, 34.3733673], [-118.5004702, 34.3719957], [-118.4987185, 34.3739753], [-118.4942898, 34.3781347], [-118.4934813, 34.3775416]]]}}, {"type": "Feature", "properties": {"FID": 4, "ID": 6, "AREA": 6.085308, "DISTRICT": "5", "MEMBERS": 1, "LOCKED": " ", "NAME": " ", "POPULATION": 14941, "HISPANIC_O": 4281, "NH_WHT": 9147, "NH_DOJ_BLK": 326, "NH_DOJ_IND": 94, "NH_DOJ_ASN": 966, "NH_DOJ_HWN": 28, "NH_DOJ_OTH": 41, "NH_DOJ_OT1": 58, "F18_POP": 11400, "H18_POP": 2823, "NH18_WHT": 7415, "NH18_DOJ_B": 243, "NH18_DOJ_I": 78, "NH18_DOJ_A": 748, "NH18_DOJ_H": 21, "NH18_DOJ_O": 27, "NH18_DOJ_1": 45, "ACS0913_M1": 9958.375018, "ACS0913_M2": 2213.631806, "ACS0913_M3": 6475.267593, "ACS0913_M4": 160.970833, "ACS0913_M5": 15.398923, "ACS0913_M6": 868.820123, "ACS0913_M7": 8.063593, "ACS0913_M8": 467.966891, "ACS0913_M9": 388.06658, "ST0913_M2_": 10121.801388, "ST0913_M21": 1880.630133, "ST0913_M22": 7076.165086, "ST0913_M23": 153.763892, "ST0913_M24": 870.292503, "ST0913_M25": 235.000002, "G08_VOTE_T": 6845, "G08_VOTE_L": 901.67418, "G08_VOTE_A": 124, "G08_VOTE_F": 62, "G10_VOTE_T": 5372, "G10_VOTE_L": 611.134722, "G10_VOTE_A": 85, "G10_VOTE_F": 39, "G12_REG_TO": 8756.998293, "G12_REG_LA": 1451.843569, "G12_REG_AS": 171.815078, "G12_REG_FI": 114.283574, "G12_VOT_TO": 6412.528986, "G12_VOT_LA": 934.83244, "G12_VOT_AS": 108.864145, "G12_VOT_FI": 72.999878, "BLK_TOTPOP": 14990.156133, "BLK_AGE0_1": 4016.780599, "BLK_AGE20_": 8331.803225, "BLK_AGE60P": 2641.572275, "BLK_AGE65P": 2088.372119, "BLK_CHINA": 170.672648, "BLK_FILIP": 467.556188, "BLK_JAPAN": 94.421674, "BLK_KOREA": 70.786576, "BLK_VIET": 112.441582, "BLK_MEX": 4032.472484, "BLK_ARAB": 94.475533, "BLK_BORNUS": 11831.504323, "BLK_IMMIGR": 3158.651746, "BLK_CIT": 1607.175181, "BLK_NONCIT": 1551.476534, "BLK_POP5PL": 14184.978251, "BLK_ENGLIS": 9607.469428, "BLK_SPANIS": 3397.924242, "BLK_ASIAN_": 775.410399, "BLK_OTHER_": 404.174237, "BLK_ENG_LV": 1830.198921, "BLK_POP25P": 10014.931861, "BLK_NOHSDE": 1569.387511, "BLK_HS_GRA": 5240.241251, "BLK_BACHEL": 2128.188496, "BLK_GRADDE": 1077.114657, "BLK_POP3PL": 4480.616497, "BLK_INSCHO": 333.280284, "BLK_INSCH1": 2844.620673, "BLK_INSCH2": 1302.715548, "BLK_POP16P": 11892.328553, "BLK_EMPLOY": 6917.530273, "BLK_VETERA": 623.934796, "BLK_DRIVEA": 5037.507844, "BLK_CARPOO": 783.109903, "BLK_PUBTRA": 203.451952, "BLK_WALK": 135.559481, "BLK_WORKAT": 464.037098, "BLK_WORKPR": 11.069738, "BLK_WORKCO": 518.793225, "BLK_WORKMA": 624.533182, "BLK_WORKWH": 111.758216, "BLK_WORKRE": 548.707689, "BLK_WORKTR": 381.094739, "BLK_WORKIN": 404.836907, "BLK_WORKFI": 412.701877, "BLK_WORKP1": 916.15626, "BLK_WORKED": 1564.238879, "BLK_WORKAR": 670.521127, "BLK_WORKOT": 370.876746, "BLK_WORKGO": 382.241688, "BLK_HHS": 5044.733668, "BLK_CHILD": 1757.981793, "BLK_HHINC0": 791.452659, "BLK_HHINC2": 1010.987015, "BLK_HHINC5": 769.694124, "BLK_HHINC7": 2039.665092, "BLK_HHINC1": 432.934786, "BLK_HOUSIN": 5166.503126, "BLK_VACANT": 121.769459, "BLK_OCCUPI": 5044.733668, "BLK_RENTED": 1700.77293, "BLK_OWNED": 3343.960736, "BLK_SINGLE": 3853.097584, "BLK_MULTIF": 1313.405542, "IDEAL_VALU": 14811, "DEVIATION": 130, "F_DEVIATIO": 0.008777, "F_ST0913_M": 0.1858, "F_G12_REG_": 0.165792, "F_G12_VOT_": 0.732275, "F_G12_VOT1": 0.145782, "F_ST0913_1": 0.887877, "F_HISPANIC": 0.286527, "F_NH_WHT": 0.612208, "F_NH_DOJ_B": 0.021819, "F_NH_DOJ_I": 0.006291, "F_NH_DOJ_A": 0.064654, "F_NH_DOJ_H": 0.001874, "F_NH_DOJ_O": 0.002744, "F_NH_DOJ_1": 0.003882, "F_18_POP": 0.763001, "F_H18_POP": 0.247632, "F_NH18_WHT": 0.650439, "F_NH18_DOJ": 0.021316, "F_NH18_DO1": 0.006842, "F_NH18_DO2": 0.065614, "F_NH18_DO3": 0.001842, "F_NH18_DO4": 0.002368, "F_NH18_DO5": 0.003947, "F_ACS0913_": 0.873542, "F_ACS09131": 0.222288, "F_ACS09132": 0.650233, "F_ACS09133": 0.016164, "F_ACS09134": 0.001546, "F_ACS09135": 0.087245, "F_ACS09136": 0.00081, "F_ACS09137": 0.046992, "F_ACS09138": 0.038969, "F_ST0913_2": 0.699101, "F_ST0913_3": 0.015191, "F_ST0913_4": 0.085982, "F_ST0913_5": 0.023217, "F_G08_VOTE": 0.131727, "F_G08_VOT1": 0.018115, "F_G08_VOT2": 0.009058, "F_G10_VOTE": 0.113763, "F_G10_VOT1": 0.015823, "F_G10_VOT2": 0.00726, "F_G12_REG1": 0.01962, "F_G12_REG2": 0.013051, "F_G12_VOT2": 0.016977, "F_G12_VOT3": 0.011384, "F_BLK_AGE0": 0.267961, "F_BLK_AGE2": 0.555818, "F_BLK_AGE6": 0.17622, "F_BLK_AGE1": 0.139316, "F_BLK_CHIN": 0.011386, "F_BLK_FILI": 0.031191, "F_BLK_JAPA": 0.006299, "F_BLK_KORE": 0.004722, "F_BLK_VIET": 0.007501, "F_BLK_MEX": 0.269008, "F_BLK_ARAB": 0.006303, "F_BLK_BORN": 0.789285, "F_BLK_IMMI": 0.210715, "F_BLK_CIT": 0.508817, "F_BLK_NONC": 0.491183, "F_BLK_ENGL": 0.677299, "F_BLK_SPAN": 0.239544, "F_BLK_ASIA": 0.054664, "F_BLK_OTHE": 0.028493, "F_BLK_ENG_": 0.129024, "F_BLK_NOHS": 0.156705, "F_BLK_HS_G": 0.523243, "F_BLK_BACH": 0.212502, "F_BLK_GRAD": 0.107551, "F_BLK_INSC": 0.074383, "F_BLK_INS1": 0.634873, "F_BLK_INS2": 0.290745, "F_BLK_EMPL": 0.58168, "F_BLK_VETE": 0.052465, "F_BLK_DRIV": 0.423593, "F_BLK_CARP": 0.06585, "F_BLK_PUBT": 0.017108, "F_BLK_WALK": 0.011399, "F_BLK_WORK": 0.03902, "F_BLK_WOR1": 0.000931, "F_BLK_WOR2": 0.043624, "F_BLK_WOR3": 0.052516, "F_BLK_WOR4": 0.009398, "F_BLK_WOR5": 0.04614, "F_BLK_WOR6": 0.032045, "F_BLK_WOR7": 0.034042, "F_BLK_WOR8": 0.034703, "F_BLK_WOR9": 0.077038, "F_BLK_WO10": 0.131533, "F_BLK_WO11": 0.056383, "F_BLK_WO12": 0.031186, "F_BLK_WO13": 0.032142, "F_BLK_CHIL": 0.348479, "F_BLK_HHIN": 0.156887, "F_BLK_HHI1": 0.200404, "F_BLK_HHI2": 0.152574, "F_BLK_HHI3": 0.404316, "F_BLK_HHI4": 0.085819, "F_BLK_VACA": 0.023569, "F_BLK_OCCU": 0.976431, "F_BLK_RENT": 0.337138, "F_BLK_OWNE": 0.662862, "F_BLK_SING": 0.745784, "F_BLK_MULT": 0.254216}, "geometry": {"type": "Polygon", "coordinates": [[[-118.5177807, 34.3470418], [-118.5212392, 34.3442605], [-118.5178616, 34.3399881], [-118.5178616, 34.3397804], [-118.5202421, 34.3406483], [-118.5263507, 34.3417312], [-118.5280574, 34.3423913], [-118.5294858, 34.343185], [-118.5306266, 34.3441418], [-118.532037, 34.3456623], [-118.5334384, 34.3467303], [-118.5343367, 34.3472272], [-118.5456375, 34.3516549], [-118.5468592, 34.3523002], [-118.5487457, 34.3537686], [-118.5524557, 34.3571651], [-118.5532282, 34.3580921], [-118.5539469, 34.3593231], [-118.5556357, 34.3641062], [-118.5563723, 34.3654854], [-118.5598129, 34.3700085], [-118.5652567, 34.3785944], [-118.562948, 34.3783275], [-118.5596512, 34.3787427], [-118.5594985, 34.3787501], [-118.5594805, 34.3786166], [-118.5582408, 34.3786834], [-118.5581061, 34.380307], [-118.5578815, 34.3811596], [-118.5571269, 34.382331], [-118.5563993, 34.3829463], [-118.5571, 34.3835246], [-118.5573695, 34.3840509], [-118.5571808, 34.3858895], [-118.5575941, 34.3870385], [-118.556552, 34.3876612], [-118.5550159, 34.3880838], [-118.5549171, 34.3887584], [-118.5556717, 34.3890104], [-118.5540277, 34.3893366], [-118.551252, 34.3906635], [-118.5506321, 34.3907821], [-118.5497787, 34.3904856], [-118.5489792, 34.3910342], [-118.5476677, 34.3898185], [-118.5475599, 34.3899148], [-118.5473443, 34.3897295], [-118.5463921, 34.3886694], [-118.5453949, 34.3892402], [-118.5446853, 34.3899815], [-118.5437241, 34.3903374], [-118.5422149, 34.3914271], [-118.5351452, 34.3830279], [-118.5330431, 34.380307], [-118.5388911, 34.3799437], [-118.5388732, 34.3798177], [-118.5405979, 34.3797065], [-118.5402566, 34.3780383], [-118.5398793, 34.3733599], [-118.5353338, 34.3736491], [-118.5351452, 34.3715879], [-118.5341211, 34.3719512], [-118.5332407, 34.3727594], [-118.5323873, 34.3731227], [-118.5299978, 34.3749985], [-118.5298631, 34.3752728], [-118.5298002, 34.3762589], [-118.5290097, 34.3775861], [-118.5268717, 34.3766816], [-118.5260901, 34.376474], [-118.5247067, 34.3757622], [-118.5185802, 34.3731227], [-118.5121034, 34.3691336], [-118.5126963, 34.3679694], [-118.5129029, 34.3668201], [-118.5113398, 34.3667904], [-118.511223, 34.3676135], [-118.510684, 34.3682438], [-118.5079442, 34.3665606], [-118.5062643, 34.3658487], [-118.5070459, 34.3644769], [-118.5072345, 34.3633794], [-118.5070638, 34.3597755], [-118.5077016, 34.3572319], [-118.5082855, 34.3535832], [-118.508061, 34.3501939], [-118.5084382, 34.3486512], [-118.5089323, 34.3477167], [-118.5092557, 34.3472792], [-118.5177807, 34.3520999], [-118.5177807, 34.3470418]]]}}]}