{"type": "FeatureCollection", "name": "Board-Adopted Red II", "crs_note": "converted from Esri JSON (Web Mercator 102100) in the web map to WGS84 lon/lat", "features": [{"type": "Feature", "properties": {"FID": 0, "ID": 11, "AREA": 0.949991, "DISTRICT": "B", "MEMBERS": 1, "LOCKED": " ", "NAME": "B - Pearson \u2013 2022", "POPULATION": 4636, "HISPANIC_O": 1463, "NH_WHT": 2464, "NH_DOJ_BLK": 150, "NH_DOJ_IND": 29, "NH_DOJ_ASN": 460, "NH_DOJ_HWN": 9, "NH_DOJ_OTH": 21, "NH_DOJ_OT1": 40, "F18_POP": 3286, "H18_POP": 934, "NH18_WHT": 1837, "NH18_DOJ_B": 97, "NH18_DOJ_I": 22, "NH18_DOJ_A": 347, "NH18_DOJ_H": 8, "NH18_DOJ_O": 17, "NH18_DOJ_1": 24, "G08_VOTE_T": 1734, "G08_VOTE_L": 369.575096, "G08_VOTE_A": 40, "G08_VOTE_F": 26, "G08_VOTE_S": 332, "G10_VOTE_T": 1253, "G10_VOTE_L": 237.106914, "G10_VOTE_A": 24, "G10_VOTE_F": 20, "G10_VOTE_S": 213, "G12_REG_TO": 2285.000166, "G12_REG_LA": 489.977445, "G12_REG_AS": 64.561274, "G12_REG_FI": 29.648109, "G12_REG_OT": 1621.238812, "G12_REG_O1": 81.691163, "G12_REG_SS": 440.160913, "G12_VOT_TO": 1631.767311, "G12_VOT_LA": 334.03496, "G12_VOT_AS": 36.728153, "G12_VOT_FI": 16.553373, "G12_VOT_OT": 1190.099855, "G12_VOT_O1": 55.566658, "G12_VOT_SS": 300.073268, "G14_REG_TO": 2432, "G14_REG_LA": 565.923001, "G14_REG_AS": 59.84, "G14_REG_FI": 32.605, "G14_REG_OT": 1712.429216, "G14_REG_O1": 65.298408, "G14_REG_SS": 508.385003, "G14_VOTE_T": 822.535002, "G14_VOTE_L": 136.742786, "G14_VOTE_A": 21.21, "G14_VOTE_F": 9, "G14_VOTE_O": 636.399578, "G14_VOTE_1": 20.461057, "G14_VOTE_S": 122.840001, "ST1014_M2_": 2913.487241, "ST1014_M21": 697.813345, "ST1014_M22": 1878.926119, "ST1014_M23": 119.51419, "ST1014_M24": 176.019324, "ST1014_M25": 7.5, "ST1014_M26": 33.714286, "ST1014_M27": 0, "BLK_TOTPOP": 4684.850729, "BLK_AGE0_1": 1484.171277, "BLK_AGE20_": 2577.836064, "BLK_AGE60P": 622.843417, "BLK_AGE65P": 352.986166, "BLK_CHINA": 8.709583, "BLK_FILIP": 54.707355, "BLK_JAPAN": 19.963525, "BLK_KOREA": 19.39873, "BLK_VIET": 32.735357, "BLK_MEX": 891.815685, "BLK_ARAB": 12.124207, "BLK_BORNUS": 3774.679178, "BLK_IMMIGR": 910.171558, "BLK_CIT": 486.068095, "BLK_NONCIT": 424.10346, "BLK_POP5PL": 4437.146715, "BLK_ENGLIS": 3072.091715, "BLK_SPANIS": 1019.458123, "BLK_ASIAN_": 105.022811, "BLK_OTHER_": 240.574043, "BLK_ENG_LV": 610.791231, "BLK_POP25P": 2923.272674, "BLK_NOHSDE": 285.39084, "BLK_HS_GRA": 1758.059922, "BLK_BACHEL": 638.129233, "BLK_GRADDE": 241.692719, "BLK_POP16P": 3514.680533, "BLK_EMPLOY": 2198.3448, "BLK_VETERA": 260.323926, "BLK_DRIVEA": 1753.31539, "BLK_CARPOO": 200.551953, "BLK_PUBTRA": 29.602608, "BLK_WALK": 37.566954, "BLK_WORKAT": 88.183309, "BLK_WORKPR": 0, "BLK_WORKCO": 89.761388, "BLK_WORKMA": 276.642594, "BLK_WORKWH": 56.665258, "BLK_WORKRE": 265.780362, "BLK_WORKTR": 126.085658, "BLK_WORKIN": 107.261048, "BLK_WORKFI": 150.164987, "BLK_WORKP1": 228.03226, "BLK_WORKED": 474.03642, "BLK_WORKAR": 148.88117, "BLK_WORKOT": 125.729698, "BLK_WORKGO": 149.303969, "BLK_HHS": 1411.308609, "BLK_CHILD": 520.962885, "BLK_HHINC0": 246.449109, "BLK_HHINC2": 273.458147, "BLK_HHINC5": 198.303254, "BLK_HHINC7": 563.613944, "BLK_HHINC1": 129.484152, "BLK_HOUSIN": 1507.818995, "BLK_SINGLE": 1173.679271, "BLK_MULTIF": 334.139698, "BLK_VACANT": 96.510368, "BLK_OCCUPI": 1411.308609, "BLK_RENTED": 526.408567, "BLK_OWNED": 884.900054, "DEVIATION": -64, "F_DEVIATIO": -0.013617, "F_HISPANIC": 0.315574, "F_NH_WHT": 0.531493, "F_NH_DOJ_B": 0.032355, "F_NH_DOJ_I": 0.006255, "F_NH_DOJ_A": 0.099223, "F_NH_DOJ_H": 0.001941, "F_NH_DOJ_O": 0.00453, "F_NH_DOJ_1": 0.008628, "F_18_POP": 0.708801, "F_BLK_TOTP": 1.010537, "F_BLK_AGE0": 0.316802, "F_BLK_AGE2": 0.550249, "F_BLK_AGE6": 0.132948, "F_BLK_AGE1": 0.075346, "F_BLK_CHIN": 0.001859, "F_BLK_FILI": 0.011678, "F_BLK_JAPA": 0.004261, "F_BLK_KORE": 0.004141, "F_BLK_VIET": 0.006987, "F_BLK_MEX": 0.190362, "F_BLK_ARAB": 0.002588, "F_BLK_BORN": 0.80572, "F_BLK_IMMI": 0.19428, "F_BLK_CIT": 0.103753, "F_BLK_NONC": 0.090527, "F_BLK_POP5": 0.947127, "F_BLK_ENGL": 0.692357, "F_BLK_SPAN": 0.229755, "F_BLK_ASIA": 0.023669, "F_BLK_OTHE": 0.054218, "F_BLK_ENG_": 0.137654, "F_BLK_POP2": 0.623984, "F_BLK_NOHS": 0.097627, "F_BLK_HS_G": 0.601401, "F_BLK_BACH": 0.218293, "F_BLK_GRAD": 0.082679, "F_BLK_POP1": 0.750223, "F_BLK_EMPL": 0.625475, "F_BLK_VETE": 0.074068, "F_BLK_DRIV": 0.797562, "F_BLK_CARP": 0.091229, "F_BLK_PUBT": 0.013466, "F_BLK_WALK": 0.017089, "F_BLK_WORK": 0.040114, "F_BLK_WOR1": 0, "F_BLK_WOR2": 0.040831, "F_BLK_WOR3": 0.125841, "F_BLK_WOR4": 0.025776, "F_BLK_WOR5": 0.1209, "F_BLK_WOR6": 0.057355, "F_BLK_WOR7": 0.048792, "F_BLK_WOR8": 0.068308, "F_BLK_WOR9": 0.103729, "F_BLK_WO10": 0.215633, "F_BLK_WO11": 0.067724, "F_BLK_WO12": 0.057193, "F_BLK_WO13": 0.067917, "F_BLK_CHIL": 0.369135, "F_BLK_HHIN": 0.174625, "F_BLK_HHI1": 0.193762, "F_BLK_HHI2": 0.14051, "F_BLK_HHI3": 0.399356, "F_BLK_HHI4": 0.091748, "F_BLK_SING": 0.778395, "F_BLK_MULT": 0.221605, "F_BLK_VACA": 0.064007, "F_BLK_OCCU": 0.935993, "F_BLK_RENT": 0.372993, "F_BLK_OWNE": 0.627007, "F_H18_POP": 0.284236, "F_NH18_WHT": 0.559038, "F_NH18_DOJ": 0.029519, "F_NH18_DO1": 0.006695, "F_NH18_DO2": 0.1056, "F_NH18_DO3": 0.002435, "F_NH18_DO4": 0.005173, "F_NH18_DO5": 0.007304, "F_G08_VOTE": 0.213134, "F_G08_VOT1": 0.023068, "F_G08_VOT2": 0.014994, "F_G08_VOT3": 0.191465, "F_G10_VOTE": 0.189231, "F_G10_VOT1": 0.019154, "F_G10_VOT2": 0.015962, "F_G10_VOT3": 0.169992, "F_G12_REG_": 0.214432, "F_G12_REG1": 0.028254, "F_G12_REG2": 0.012975, "F_G12_REG3": 0.709514, "F_G12_REG4": 0.035751, "F_G12_REG5": 0.192631, "F_G12_VOT_": 0.714121, "F_G12_VOT1": 0.204707, "F_G12_VOT2": 0.022508, "F_G12_VOT3": 0.010144, "F_G12_VOT4": 0.729332, "F_G12_VOT5": 0.034053, "F_G12_VOT6": 0.183895, "F_G14_REG_": 0.232699, "F_G14_REG1": 0.024605, "F_G14_REG2": 0.013407, "F_G14_REG3": 0.704124, "F_G14_REG4": 0.02685, "F_G14_REG5": 0.20904, "F_G14_VOTE": 0.338213, "F_G14_VOT1": 0.166246, "F_G14_VOT2": 0.025786, "F_G14_VOT3": 0.010942, "F_G14_VOT4": 0.773705, "F_G14_VOT5": 0.024876, "F_G14_VOT6": 0.149343, "F_ST1014_M": 0.886636, "F_ST1014_1": 0.239511, "F_ST1014_2": 0.644906, "F_ST1014_3": 0.041021, "F_ST1014_4": 0.060415, "F_ST1014_5": 0.002574, "F_ST1014_6": 0.011572, "F_ST1014_7": 0, "IDEAL_VALU": 4700}, "geometry": {"type": "Polygon", "coordinates": [[[-118.6245455, 34.4954984], [-118.6252282, 34.4959574], [-118.6257403, 34.4966608], [-118.6260187, 34.4978379], [-118.6271237, 34.5000071], [-118.6325764, 34.5070991], [-118.6335376, 34.50684], [-118.6385951, 34.5068622], [-118.6395114, 34.5071361], [-118.6390443, 34.5075507], [-118.639206, 34.5078986], [-118.6395563, 34.5077579], [-118.6400414, 34.5077505], [-118.6407152, 34.5081281], [-118.6408769, 34.508587], [-118.6403648, 34.5092458], [-118.643473, 34.5150862], [-118.6426645, 34.5152342], [-118.6428891, 34.5158708], [-118.6417931, 34.5165295], [-118.639188, 34.5152638], [-118.6389185, 34.5153526], [-118.6384424, 34.5149159], [-118.6379933, 34.5149529], [-118.6364302, 34.5125621], [-118.636538, 34.5124806], [-118.63599, 34.5116294], [-118.6362056, 34.5115036], [-118.6357744, 34.5108596], [-118.6352714, 34.5108151], [-118.6350827, 34.5104376], [-118.6343641, 34.5105339], [-118.6336364, 34.50969], [-118.6332681, 34.5094531], [-118.6321542, 34.5092681], [-118.6314446, 34.5095271], [-118.6312918, 34.5090312], [-118.6294054, 34.507832], [-118.6289472, 34.5071954], [-118.6249767, 34.5072102], [-118.6258391, 34.5106153], [-118.6255606, 34.5106153], [-118.6236741, 34.5099935], [-118.6230543, 34.5090164], [-118.6223536, 34.5085574], [-118.6215541, 34.5083205], [-118.6215631, 34.5080466], [-118.6207636, 34.5077876], [-118.6192005, 34.5076913], [-118.6183741, 34.5067512], [-118.6166044, 34.5059443], [-118.6162181, 34.5051522], [-118.6160834, 34.5028721], [-118.6162451, 34.5024205], [-118.6167391, 34.5020134], [-118.616263, 34.5008437], [-118.6162181, 34.4999849], [-118.6166403, 34.4932477], [-118.6168739, 34.4915596], [-118.6177722, 34.4904193], [-118.6199102, 34.4893309], [-118.6211499, 34.489057], [-118.6211768, 34.4914189], [-118.623234, 34.4944693], [-118.6238538, 34.495106], [-118.6245455, 34.4954984]]]}}, {"type": "Feature", "properties": {"FID": 1, "ID": 6, "AREA": 29.278254, "DISTRICT": "D", "MEMBERS": 1, "LOCKED": " ", "NAME": "D - Titiriga \u2013 2024 ", "POPULATION": 4605, "HISPANIC_O": 1073, "NH_WHT": 2411, "NH_DOJ_BLK": 233, "NH_DOJ_IND": 12, "NH_DOJ_ASN": 852, "NH_DOJ_HWN": 0, "NH_DOJ_OTH": 4, "NH_DOJ_OT1": 20, "F18_POP": 3190, "H18_POP": 677, "NH18_WHT": 1740, "NH18_DOJ_B": 166, "NH18_DOJ_I": 9, "NH18_DOJ_A": 579, "NH18_DOJ_H": 0, "NH18_DOJ_O": 2, "NH18_DOJ_1": 17, "G08_VOTE_T": 1928, "G08_VOTE_L": 341.745646, "G08_VOTE_A": 75, "G08_VOTE_F": 58, "G08_VOTE_S": 307, "G10_VOTE_T": 1395, "G10_VOTE_L": 212.616998, "G10_VOTE_A": 48, "G10_VOTE_F": 38, "G10_VOTE_S": 191, "G12_REG_TO": 2410.997509, "G12_REG_LA": 445.43502, "G12_REG_AS": 130.784943, "G12_REG_FI": 68.781709, "G12_REG_OT": 1603.710245, "G12_REG_O1": 168.103371, "G12_REG_SS": 400.147164, "G12_VOT_TO": 1747.243305, "G12_VOT_LA": 300.173114, "G12_VOT_AS": 80.033935, "G12_VOT_FI": 45.668173, "G12_VOT_OT": 1200.824597, "G12_VOT_O1": 124.654612, "G12_VOT_SS": 269.654192, "G14_REG_TO": 2425.000001, "G14_REG_LA": 503.267597, "G14_REG_AS": 124.235897, "G14_REG_FI": 77.665001, "G14_REG_OT": 1556.114441, "G14_REG_O1": 164.244181, "G14_REG_SS": 452.201512, "G14_VOTE_T": 812.907925, "G14_VOTE_L": 117.717457, "G14_VOTE_A": 28.089986, "G14_VOTE_F": 12.154352, "G14_VOTE_O": 592.955406, "G14_VOTE_1": 61.974611, "G14_VOTE_S": 105.850668, "ST1014_M2_": 3002.457954, "ST1014_M21": 660.81814, "ST1014_M22": 1823.734517, "ST1014_M23": 88.369177, "ST1014_M24": 414.119432, "ST1014_M25": 0, "ST1014_M26": 15.416667, "ST1014_M27": 0, "BLK_TOTPOP": 4587.680408, "BLK_AGE0_1": 1608.211781, "BLK_AGE20_": 2555.959292, "BLK_AGE60P": 423.509282, "BLK_AGE65P": 236.671042, "BLK_CHINA": 24.308444, "BLK_FILIP": 225.609892, "BLK_JAPAN": 17.695564, "BLK_KOREA": 65.549823, "BLK_VIET": 30.519564, "BLK_MEX": 766.470369, "BLK_ARAB": 13.525558, "BLK_BORNUS": 3871.950816, "BLK_IMMIGR": 715.72955, "BLK_CIT": 539.991416, "BLK_NONCIT": 175.73813, "BLK_POP5PL": 4387.880029, "BLK_ENGLIS": 3316.542753, "BLK_SPANIS": 653.685031, "BLK_ASIAN_": 328.182871, "BLK_OTHER_": 89.469294, "BLK_ENG_LV": 338.651213, "BLK_POP25P": 2730.266204, "BLK_NOHSDE": 231.815334, "BLK_HS_GRA": 1570.938556, "BLK_BACHEL": 659.190773, "BLK_GRADDE": 268.32155, "BLK_POP16P": 3409.35837, "BLK_EMPLOY": 2341.705037, "BLK_VETERA": 169.000091, "BLK_DRIVEA": 1836.988251, "BLK_CARPOO": 254.911986, "BLK_PUBTRA": 41.922277, "BLK_WALK": 11.21858, "BLK_WORKAT": 85.571656, "BLK_WORKPR": 13.279314, "BLK_WORKCO": 132.071611, "BLK_WORKMA": 239.563716, "BLK_WORKWH": 88.045292, "BLK_WORKRE": 203.681086, "BLK_WORKTR": 242.84867, "BLK_WORKIN": 132.158116, "BLK_WORKFI": 144.509503, "BLK_WORKP1": 179.261806, "BLK_WORKED": 512.128422, "BLK_WORKAR": 248.968084, "BLK_WORKOT": 99.500288, "BLK_WORKGO": 105.689119, "BLK_HHS": 1443.581959, "BLK_CHILD": 728.605934, "BLK_HHINC0": 79.869779, "BLK_HHINC2": 142.793091, "BLK_HHINC5": 144.306015, "BLK_HHINC7": 954.70146, "BLK_HHINC1": 121.911612, "BLK_HOUSIN": 1486.721246, "BLK_SINGLE": 1423.110178, "BLK_MULTIF": 63.611071, "BLK_VACANT": 43.139267, "BLK_OCCUPI": 1443.581959, "BLK_RENTED": 265.972927, "BLK_OWNED": 1177.609012, "DEVIATION": -95, "F_DEVIATIO": -0.020213, "F_HISPANIC": 0.233008, "F_NH_WHT": 0.523561, "F_NH_DOJ_B": 0.050597, "F_NH_DOJ_I": 0.002606, "F_NH_DOJ_A": 0.185016, "F_NH_DOJ_H": 0, "F_NH_DOJ_O": 0.000869, "F_NH_DOJ_1": 0.004343, "F_18_POP": 0.692725, "F_BLK_TOTP": 0.996239, "F_BLK_AGE0": 0.35055, "F_BLK_AGE2": 0.557135, "F_BLK_AGE6": 0.092314, "F_BLK_AGE1": 0.051588, "F_BLK_CHIN": 0.005299, "F_BLK_FILI": 0.049177, "F_BLK_JAPA": 0.003857, "F_BLK_KORE": 0.014288, "F_BLK_VIET": 0.006653, "F_BLK_MEX": 0.167071, "F_BLK_ARAB": 0.002948, "F_BLK_BORN": 0.843989, "F_BLK_IMMI": 0.156011, "F_BLK_CIT": 0.117705, "F_BLK_NONC": 0.038307, "F_BLK_POP5": 0.956448, "F_BLK_ENGL": 0.755842, "F_BLK_SPAN": 0.148975, "F_BLK_ASIA": 0.074793, "F_BLK_OTHE": 0.02039, "F_BLK_ENG_": 0.077179, "F_BLK_POP2": 0.59513, "F_BLK_NOHS": 0.084906, "F_BLK_HS_G": 0.575379, "F_BLK_BACH": 0.241438, "F_BLK_GRAD": 0.098277, "F_BLK_POP1": 0.743155, "F_BLK_EMPL": 0.686846, "F_BLK_VETE": 0.049569, "F_BLK_DRIV": 0.784466, "F_BLK_CARP": 0.108857, "F_BLK_PUBT": 0.017902, "F_BLK_WALK": 0.004791, "F_BLK_WORK": 0.036542, "F_BLK_WOR1": 0.005671, "F_BLK_WOR2": 0.0564, "F_BLK_WOR3": 0.102303, "F_BLK_WOR4": 0.037599, "F_BLK_WOR5": 0.08698, "F_BLK_WOR6": 0.103706, "F_BLK_WOR7": 0.056437, "F_BLK_WOR8": 0.061711, "F_BLK_WOR9": 0.076552, "F_BLK_WO10": 0.218699, "F_BLK_WO11": 0.106319, "F_BLK_WO12": 0.042491, "F_BLK_WO13": 0.045133, "F_BLK_CHIL": 0.504721, "F_BLK_HHIN": 0.055327, "F_BLK_HHI1": 0.098916, "F_BLK_HHI2": 0.099964, "F_BLK_HHI3": 0.661342, "F_BLK_HHI4": 0.084451, "F_BLK_SING": 0.957214, "F_BLK_MULT": 0.042786, "F_BLK_VACA": 0.029016, "F_BLK_OCCU": 0.970984, "F_BLK_RENT": 0.184245, "F_BLK_OWNE": 0.815755, "F_H18_POP": 0.212226, "F_NH18_WHT": 0.545455, "F_NH18_DOJ": 0.052038, "F_NH18_DO1": 0.002821, "F_NH18_DO2": 0.181505, "F_NH18_DO3": 0, "F_NH18_DO4": 0.000627, "F_NH18_DO5": 0.005329, "F_G08_VOTE": 0.177254, "F_G08_VOT1": 0.0389, "F_G08_VOT2": 0.030083, "F_G08_VOT3": 0.159232, "F_G10_VOTE": 0.152414, "F_G10_VOT1": 0.034409, "F_G10_VOT2": 0.02724, "F_G10_VOT3": 0.136918, "F_G12_REG_": 0.184751, "F_G12_REG1": 0.054245, "F_G12_REG2": 0.028528, "F_G12_REG3": 0.665165, "F_G12_REG4": 0.069724, "F_G12_REG5": 0.165967, "F_G12_VOT_": 0.724697, "F_G12_VOT1": 0.171798, "F_G12_VOT2": 0.045806, "F_G12_VOT3": 0.026137, "F_G12_VOT4": 0.687268, "F_G12_VOT5": 0.071344, "F_G12_VOT6": 0.154331, "F_G14_REG_": 0.207533, "F_G14_REG1": 0.051231, "F_G14_REG2": 0.032027, "F_G14_REG3": 0.641697, "F_G14_REG4": 0.06773, "F_G14_REG5": 0.186475, "F_G14_VOTE": 0.33522, "F_G14_VOT1": 0.14481, "F_G14_VOT2": 0.034555, "F_G14_VOT3": 0.014952, "F_G14_VOT4": 0.729425, "F_G14_VOT5": 0.076238, "F_G14_VOT6": 0.130212, "F_ST1014_M": 0.941209, "F_ST1014_1": 0.220092, "F_ST1014_2": 0.607414, "F_ST1014_3": 0.029432, "F_ST1014_4": 0.137927, "F_ST1014_5": 0, "F_ST1014_6": 0.005135, "F_ST1014_7": 0, "IDEAL_VALU": 4700}, "geometry": {"type": "Polygon", "coordinates": [[[-118.6192814, 34.4896271], [-118.6177722, 34.4904193], [-118.6168739, 34.4915596], [-118.6163439, 34.4973789], [-118.6105677, 34.4971346], [-118.6094807, 34.4972901], [-118.608277, 34.4979638], [-118.6068128, 34.4997332], [-118.6041448, 34.5014285], [-118.6036866, 34.5022355], [-118.602411, 34.5077283], [-118.6018451, 34.5083724], [-118.5983057, 34.5108226], [-118.5974074, 34.5118145], [-118.5968774, 34.5131098], [-118.5958892, 34.5177138], [-118.5953233, 34.5184984], [-118.5942543, 34.5190017], [-118.5931494, 34.5190165], [-118.5839776, 34.5163815], [-118.582711, 34.5165295], [-118.5817138, 34.516981], [-118.5810042, 34.5175362], [-118.5788212, 34.5200083], [-118.5777792, 34.5217698], [-118.5744105, 34.5259145], [-118.5719671, 34.527476], [-118.5713922, 34.5279867], [-118.5703322, 34.5302217], [-118.5669725, 34.5335815], [-118.565086, 34.5378587], [-118.5601992, 34.5431199], [-118.5596063, 34.5436082], [-118.5585103, 34.5440448], [-118.5551956, 34.5442594], [-118.5494643, 34.5473226], [-118.5467424, 34.5483807], [-118.5409483, 34.5527904], [-118.5402745, 34.553545], [-118.5401398, 34.5541961], [-118.5402296, 34.5546252], [-118.5418286, 34.5572812], [-118.5428797, 34.560085], [-118.5437331, 34.5610098], [-118.5445326, 34.5613575], [-118.5454039, 34.5614536], [-118.5463651, 34.5613057], [-118.5479282, 34.5603292], [-118.5489343, 34.5600998], [-118.5496979, 34.56027], [-118.5508208, 34.5611429], [-118.5515574, 34.5614536], [-118.5527881, 34.5614314], [-118.5564532, 34.5599667], [-118.5578276, 34.5589161], [-118.558699, 34.5586054], [-118.5599566, 34.5584945], [-118.5605405, 34.5585684], [-118.5612143, 34.5589087], [-118.5616185, 34.5595894], [-118.5615287, 34.5603587], [-118.5609627, 34.5609876], [-118.5586181, 34.5615868], [-118.5562286, 34.5632217], [-118.5556627, 34.5638727], [-118.5554471, 34.56479], [-118.555474, 34.5653374], [-118.5558064, 34.5661363], [-118.5571269, 34.5672681], [-118.5575402, 34.5678599], [-118.5584385, 34.5698201], [-118.5586451, 34.5706486], [-118.5584564, 34.5712255], [-118.5575671, 34.5723351], [-118.5572257, 34.5737626], [-118.5562376, 34.5749609], [-118.5561927, 34.5757301], [-118.5566688, 34.5769284], [-118.5567227, 34.5774387], [-118.5554381, 34.5790659], [-118.5552315, 34.5798055], [-118.555492, 34.5800718], [-118.5566149, 34.5803528], [-118.5574234, 34.5809445], [-118.5577198, 34.5814474], [-118.5578636, 34.5824015], [-118.5580252, 34.5826308], [-118.5584385, 34.5828675], [-118.5588068, 34.5834739], [-118.560307, 34.5843097], [-118.5604687, 34.585138], [-118.55975, 34.5860255], [-118.5601453, 34.5862473], [-118.5610526, 34.5863139], [-118.5614299, 34.586521], [-118.5612322, 34.5876673], [-118.561376, 34.5881036], [-118.561331, 34.5892055], [-118.5618161, 34.5900634], [-118.5623282, 34.590618], [-118.5621305, 34.591217], [-118.5615736, 34.5919343], [-118.5615377, 34.5932359], [-118.5617173, 34.5933838], [-118.5631636, 34.5934651], [-118.5636846, 34.5937239], [-118.5638823, 34.5940123], [-118.5639002, 34.5943229], [-118.5626875, 34.596423], [-118.5615826, 34.5977245], [-118.5599836, 34.599159], [-118.5592739, 34.6006083], [-118.5588247, 34.6011777], [-118.5579534, 34.601747], [-118.557612, 34.6027896], [-118.5570461, 34.6032998], [-118.5572707, 34.6043276], [-118.5567496, 34.6049856], [-118.5569024, 34.6053701], [-118.5574144, 34.6053775], [-118.5585193, 34.60503], [-118.5589415, 34.6047416], [-118.5593368, 34.6042314], [-118.5601093, 34.6037065], [-118.5605495, 34.6037582], [-118.56081, 34.6040466], [-118.5607651, 34.6047046], [-118.5602171, 34.6059986], [-118.5602441, 34.606176], [-118.560819, 34.6066492], [-118.5604687, 34.6077139], [-118.5605675, 34.6084459], [-118.560837, 34.6086825], [-118.5620766, 34.6092592], [-118.5626875, 34.6098876], [-118.5627773, 34.6103239], [-118.5625617, 34.6107527], [-118.560819, 34.6122092], [-118.5601902, 34.613089], [-118.560298, 34.6134143], [-118.5609987, 34.6138874], [-118.5611514, 34.6141536], [-118.5610795, 34.6149077], [-118.5604148, 34.6158614], [-118.5604866, 34.6162606], [-118.5173585, 34.6162014], [-118.5172417, 34.6017396], [-118.5164692, 34.6017396], [-118.5164782, 34.5984787], [-118.5199277, 34.5551209], [-118.5196133, 34.552783], [-118.5254793, 34.5537448], [-118.5282551, 34.5537374], [-118.5278958, 34.5385025], [-118.5419634, 34.5384359], [-118.5420802, 34.5320052], [-118.5396727, 34.5284085], [-118.5390079, 34.518417], [-118.5436432, 34.5183355], [-118.5454399, 34.5184614], [-118.54535, 34.5039455], [-118.5547194, 34.5039159], [-118.5545578, 34.4963128], [-118.5621665, 34.496261], [-118.5662089, 34.4964387], [-118.5692991, 34.4978972], [-118.5727486, 34.4979416], [-118.5724791, 34.4934031], [-118.5718413, 34.4587682], [-118.5717066, 34.4399748], [-118.5750573, 34.436952], [-118.5751561, 34.435085], [-118.5739973, 34.4323732], [-118.5739793, 34.4314693], [-118.574177, 34.4275274], [-118.5754346, 34.4264456], [-118.5764497, 34.4262159], [-118.5796207, 34.4259047], [-118.5811569, 34.4252526], [-118.5823786, 34.425097], [-118.5832859, 34.4251637], [-118.5839955, 34.4250155], [-118.5863312, 34.4292539], [-118.5874361, 34.4306246], [-118.5963025, 34.4382411], [-118.598126, 34.439508], [-118.6085555, 34.4449532], [-118.610406, 34.4462644], [-118.6139364, 34.4506276], [-118.6149515, 34.4521758], [-118.6157061, 34.4542054], [-118.6158768, 34.4561017], [-118.6181854, 34.4558943], [-118.6197754, 34.4555091], [-118.6211409, 34.4548869], [-118.6219224, 34.4554276], [-118.623225, 34.4558943], [-118.6236562, 34.4546647], [-118.6240155, 34.4542943], [-118.6247072, 34.4538721], [-118.6262164, 34.4535239], [-118.627501, 34.4528573], [-118.6281567, 34.452798], [-118.6291269, 34.4531758], [-118.6303396, 34.4541758], [-118.630654, 34.4547017], [-118.6293335, 34.4551387], [-118.628543, 34.4557609], [-118.6281208, 34.457309], [-118.6277704, 34.4579016], [-118.6267104, 34.4581312], [-118.6267194, 34.4590497], [-118.6264769, 34.4599163], [-118.6259648, 34.4607088], [-118.6245185, 34.4621161], [-118.6235573, 34.4642788], [-118.6241772, 34.4643676], [-118.6262074, 34.4642269], [-118.6275549, 34.4644417], [-118.6297917, 34.4681967], [-118.6291988, 34.4684929], [-118.6289742, 34.468804], [-118.6288215, 34.4702629], [-118.630124, 34.4703], [-118.6299893, 34.4724106], [-118.6286508, 34.4720477], [-118.6268362, 34.4712998], [-118.6257223, 34.4710257], [-118.6216529, 34.4709443], [-118.6166942, 34.4704333], [-118.6149784, 34.4777426], [-118.6148167, 34.4797419], [-118.6149335, 34.4812155], [-118.6153737, 34.483163], [-118.6159037, 34.4843404], [-118.6178261, 34.4869838], [-118.6181585, 34.4873244], [-118.6187064, 34.4875983], [-118.6193802, 34.4877612], [-118.62053, 34.4877908], [-118.6211139, 34.4882721], [-118.6211499, 34.489057], [-118.6202156, 34.4892347], [-118.6192814, 34.4896271]]]}}, {"type": "Feature", "properties": {"FID": 2, "ID": 7, "AREA": 2.426951, "DISTRICT": "C", "MEMBERS": 1, "LOCKED": " ", "NAME": "C -  Malcomb \u2013 2024", "POPULATION": 4867, "HISPANIC_O": 1016, "NH_WHT": 2906, "NH_DOJ_BLK": 198, "NH_DOJ_IND": 43, "NH_DOJ_ASN": 668, "NH_DOJ_HWN": 13, "NH_DOJ_OTH": 9, "NH_DOJ_OT1": 14, "F18_POP": 3386, "H18_POP": 643, "NH18_WHT": 2093, "NH18_DOJ_B": 121, "NH18_DOJ_I": 34, "NH18_DOJ_A": 477, "NH18_DOJ_H": 9, "NH18_DOJ_O": 3, "NH18_DOJ_1": 6, "G08_VOTE_T": 2103, "G08_VOTE_L": 359.556494, "G08_VOTE_A": 43, "G08_VOTE_F": 52, "G08_VOTE_S": 323, "G10_VOTE_T": 1661, "G10_VOTE_L": 256.03094, "G10_VOTE_A": 40, "G10_VOTE_F": 31, "G10_VOTE_S": 230, "G12_REG_TO": 2767.999986, "G12_REG_LA": 503.999498, "G12_REG_AS": 70.797771, "G12_REG_FI": 73.353401, "G12_REG_OT": 2103.341064, "G12_REG_O1": 21.591133, "G12_REG_SS": 452.757329, "G12_VOT_TO": 2037.67006, "G12_VOT_LA": 350.589707, "G12_VOT_AS": 45.53872, "G12_VOT_FI": 46.241687, "G12_VOT_OT": 1582.38495, "G12_VOT_O1": 16.341776, "G12_VOT_SS": 314.944876, "G14_REG_TO": 2862.999999, "G14_REG_LA": 535.43353, "G14_REG_AS": 69.531794, "G14_REG_FI": 82.259529, "G14_REG_OT": 2157.820537, "G14_REG_O1": 21.90078, "G14_REG_SS": 480.995429, "G14_VOTE_T": 1017.930545, "G14_VOTE_L": 151.795816, "G14_VOTE_A": 24.872549, "G14_VOTE_F": 13.872549, "G14_VOTE_O": 821.02802, "G14_VOTE_1": 8.014102, "G14_VOTE_S": 136.362573, "ST1014_M2_": 3429.651299, "ST1014_M21": 599.147774, "ST1014_M22": 1774.835494, "ST1014_M23": 100, "ST1014_M24": 792.542951, "ST1014_M25": 0, "ST1014_M26": 148.124995, "ST1014_M27": 15, "BLK_TOTPOP": 4609.173459, "BLK_AGE0_1": 1499.040796, "BLK_AGE20_": 2616.425971, "BLK_AGE60P": 493.706639, "BLK_AGE65P": 290.706027, "BLK_CHINA": 24.460614, "BLK_FILIP": 294.715951, "BLK_JAPAN": 31.281605, "BLK_KOREA": 108.87387, "BLK_VIET": 16.193037, "BLK_MEX": 569.109251, "BLK_ARAB": 22.673246, "BLK_BORNUS": 3801.41687, "BLK_IMMIGR": 807.756509, "BLK_CIT": 741.548054, "BLK_NONCIT": 66.208433, "BLK_POP5PL": 4270.615643, "BLK_ENGLIS": 3422.029743, "BLK_SPANIS": 229.423818, "BLK_ASIAN_": 558.951572, "BLK_OTHER_": 60.21064, "BLK_ENG_LV": 188.441681, "BLK_POP25P": 2848.928791, "BLK_NOHSDE": 132.897957, "BLK_HS_GRA": 1593.432089, "BLK_BACHEL": 887.127016, "BLK_GRADDE": 235.471731, "BLK_POP16P": 3342.550332, "BLK_EMPLOY": 2310.563919, "BLK_VETERA": 169.883252, "BLK_DRIVEA": 1645.56373, "BLK_CARPOO": 358.551524, "BLK_PUBTRA": 59.721876, "BLK_WALK": 28.633776, "BLK_WORKAT": 115.971166, "BLK_WORKPR": 20.452697, "BLK_WORKCO": 203.481622, "BLK_WORKMA": 331.243675, "BLK_WORKWH": 32.413156, "BLK_WORKRE": 215.131786, "BLK_WORKTR": 163.761426, "BLK_WORKIN": 86.944069, "BLK_WORKFI": 253.272563, "BLK_WORKP1": 208.050262, "BLK_WORKED": 433.678468, "BLK_WORKAR": 227.855281, "BLK_WORKOT": 51.56702, "BLK_WORKGO": 82.711931, "BLK_HHS": 1447.460321, "BLK_CHILD": 691.32501, "BLK_HHINC0": 16.179793, "BLK_HHINC2": 163.141444, "BLK_HHINC5": 223.607245, "BLK_HHINC7": 957.569884, "BLK_HHINC1": 86.962004, "BLK_HOUSIN": 1548.785887, "BLK_SINGLE": 1426.042995, "BLK_MULTIF": 122.742909, "BLK_VACANT": 101.325511, "BLK_OCCUPI": 1447.460321, "BLK_RENTED": 150.718769, "BLK_OWNED": 1296.74156, "DEVIATION": 167, "F_DEVIATIO": 0.035532, "F_HISPANIC": 0.208753, "F_NH_WHT": 0.597082, "F_NH_DOJ_B": 0.040682, "F_NH_DOJ_I": 0.008835, "F_NH_DOJ_A": 0.137251, "F_NH_DOJ_H": 0.002671, "F_NH_DOJ_O": 0.001849, "F_NH_DOJ_1": 0.0028770000000000002, "F_18_POP": 0.695706, "F_BLK_TOTP": 0.947026, "F_BLK_AGE0": 0.32523, "F_BLK_AGE2": 0.567656, "F_BLK_AGE6": 0.107114, "F_BLK_AGE1": 0.063071, "F_BLK_CHIN": 0.005307, "F_BLK_FILI": 0.063941, "F_BLK_JAPA": 0.006787, "F_BLK_KORE": 0.023621, "F_BLK_VIET": 0.003513, "F_BLK_MEX": 0.123473, "F_BLK_ARAB": 0.004919, "F_BLK_BORN": 0.82475, "F_BLK_IMMI": 0.17525, "F_BLK_CIT": 0.160885, "F_BLK_NONC": 0.014364, "F_BLK_POP5": 0.926547, "F_BLK_ENGL": 0.801297, "F_BLK_SPAN": 0.053721, "F_BLK_ASIA": 0.130883, "F_BLK_OTHE": 0.014099, "F_BLK_ENG_": 0.044125, "F_BLK_POP2": 0.6181, "F_BLK_NOHS": 0.046648, "F_BLK_HS_G": 0.559309, "F_BLK_BACH": 0.31139, "F_BLK_GRAD": 0.082653, "F_BLK_POP1": 0.725195, "F_BLK_EMPL": 0.691258, "F_BLK_VETE": 0.050824, "F_BLK_DRIV": 0.712191, "F_BLK_CARP": 0.155179, "F_BLK_PUBT": 0.025847, "F_BLK_WALK": 0.012393, "F_BLK_WORK": 0.050192, "F_BLK_WOR1": 0.008852, "F_BLK_WOR2": 0.088066, "F_BLK_WOR3": 0.143361, "F_BLK_WOR4": 0.014028, "F_BLK_WOR5": 0.093108, "F_BLK_WOR6": 0.070875, "F_BLK_WOR7": 0.037629, "F_BLK_WOR8": 0.109615, "F_BLK_WOR9": 0.090043, "F_BLK_WO10": 0.187694, "F_BLK_WO11": 0.098615, "F_BLK_WO12": 0.022318, "F_BLK_WO13": 0.035797, "F_BLK_CHIL": 0.477612, "F_BLK_HHIN": 0.011178, "F_BLK_HHI1": 0.112709, "F_BLK_HHI2": 0.154482, "F_BLK_HHI3": 0.661552, "F_BLK_HHI4": 0.060079, "F_BLK_SING": 0.920749, "F_BLK_MULT": 0.079251, "F_BLK_VACA": 0.065423, "F_BLK_OCCU": 0.934577, "F_BLK_RENT": 0.104126, "F_BLK_OWNE": 0.895874, "F_H18_POP": 0.1899, "F_NH18_WHT": 0.618133, "F_NH18_DOJ": 0.035735, "F_NH18_DO1": 0.010041, "F_NH18_DO2": 0.140874, "F_NH18_DO3": 0.002658, "F_NH18_DO4": 0.000886, "F_NH18_DO5": 0.001772, "F_G08_VOTE": 0.170973, "F_G08_VOT1": 0.020447, "F_G08_VOT2": 0.024727, "F_G08_VOT3": 0.15359, "F_G10_VOTE": 0.154143, "F_G10_VOT1": 0.024082, "F_G10_VOT2": 0.018663, "F_G10_VOT3": 0.138471, "F_G12_REG_": 0.182081, "F_G12_REG1": 0.025577, "F_G12_REG2": 0.026501, "F_G12_REG3": 0.759878, "F_G12_REG4": 0.0078, "F_G12_REG5": 0.163568, "F_G12_VOT_": 0.736152, "F_G12_VOT1": 0.172054, "F_G12_VOT2": 0.022348, "F_G12_VOT3": 0.022693, "F_G12_VOT4": 0.776566, "F_G12_VOT5": 0.00802, "F_G12_VOT6": 0.154561, "F_G14_REG_": 0.187018, "F_G14_REG1": 0.024286, "F_G14_REG2": 0.028732, "F_G14_REG3": 0.753692, "F_G14_REG4": 0.00765, "F_G14_REG5": 0.168004, "F_G14_VOTE": 0.355547, "F_G14_VOT1": 0.149122, "F_G14_VOT2": 0.024434, "F_G14_VOT3": 0.013628, "F_G14_VOT4": 0.806566, "F_G14_VOT5": 0.007873, "F_G14_VOT6": 0.133961, "F_ST1014_M": 1.012892, "F_ST1014_1": 0.174696, "F_ST1014_2": 0.517497, "F_ST1014_3": 0.029157, "F_ST1014_4": 0.231086, "F_ST1014_5": 0, "F_ST1014_6": 0.04319, "F_ST1014_7": 0.004374, "IDEAL_VALU": 4700}, "geometry": {"type": "Polygon", "coordinates": [[[-118.6448025, 34.4891458], [-118.6455301, 34.4899011], [-118.6458086, 34.4908044], [-118.6462578, 34.4915596], [-118.646123, 34.4922185], [-118.6464824, 34.4928849], [-118.6462668, 34.493107], [-118.645054, 34.4931514], [-118.6446767, 34.4935734], [-118.6438144, 34.4929515], [-118.6406343, 34.491915], [-118.6357116, 34.4914337], [-118.6349121, 34.4908488], [-118.6345976, 34.4901972], [-118.6343641, 34.4899899], [-118.6334478, 34.4893605], [-118.6326932, 34.489057], [-118.6314625, 34.4889311], [-118.6305193, 34.4890496], [-118.6286328, 34.4899455], [-118.6277615, 34.4894716], [-118.6261175, 34.4890792], [-118.6211499, 34.489057], [-118.6211139, 34.4882721], [-118.6207097, 34.4878723], [-118.6203324, 34.4877464], [-118.6190209, 34.487702], [-118.6181585, 34.4873244], [-118.616272, 34.4849401], [-118.6156162, 34.4837554], [-118.615194, 34.482578], [-118.6148437, 34.4805343], [-118.6149784, 34.4777426], [-118.6166942, 34.4704333], [-118.6216529, 34.4709443], [-118.6257223, 34.4710257], [-118.6268362, 34.4712998], [-118.6290371, 34.472181], [-118.6303935, 34.4724699], [-118.6421165, 34.4726772], [-118.6418021, 34.4699963], [-118.6455212, 34.4696927], [-118.6458984, 34.4727439], [-118.6480275, 34.4725661], [-118.6504888, 34.4729586], [-118.6506865, 34.4745434], [-118.6516746, 34.4745508], [-118.6516836, 34.4757431], [-118.6512255, 34.4765059], [-118.6511177, 34.4773279], [-118.6508032, 34.477587], [-118.6507314, 34.4782979], [-118.6501654, 34.4790755], [-118.6502283, 34.4794383], [-118.6505607, 34.4798678], [-118.650417, 34.480712], [-118.6500217, 34.4814599], [-118.6497343, 34.4815636], [-118.6496444, 34.4822892], [-118.6491414, 34.4829186], [-118.6491503, 34.4833259], [-118.6488719, 34.4836665], [-118.648809, 34.484133], [-118.6490156, 34.4846365], [-118.6486832, 34.4853844], [-118.647749, 34.4862063], [-118.6471291, 34.4870282], [-118.6462937, 34.4876354], [-118.6448025, 34.4891458]]]}}, {"type": "Feature", "properties": {"FID": 3, "ID": 9, "AREA": 103.95507, "DISTRICT": "A", "MEMBERS": 1, "LOCKED": " ", "NAME": "A - Richardson \u2013 2024", "POPULATION": 4734, "HISPANIC_O": 1085, "NH_WHT": 3081, "NH_DOJ_BLK": 149, "NH_DOJ_IND": 28, "NH_DOJ_ASN": 358, "NH_DOJ_HWN": 7, "NH_DOJ_OTH": 1, "NH_DOJ_OT1": 25, "F18_POP": 3413, "H18_POP": 694, "NH18_WHT": 2330, "NH18_DOJ_B": 105, "NH18_DOJ_I": 22, "NH18_DOJ_A": 236, "NH18_DOJ_H": 4, "NH18_DOJ_O": 1, "NH18_DOJ_1": 21, "G08_VOTE_T": 1987, "G08_VOTE_L": 280.520856, "G08_VOTE_A": 44, "G08_VOTE_F": 23, "G08_VOTE_S": 252, "G10_VOTE_T": 1554, "G10_VOTE_L": 195.919328, "G10_VOTE_A": 23, "G10_VOTE_F": 9, "G10_VOTE_S": 176, "G12_REG_TO": 2745.002741, "G12_REG_LA": 477.703362, "G12_REG_AS": 55.498674, "G12_REG_FI": 45.484248, "G12_REG_OT": 2128.921738, "G12_REG_O1": 27.745199, "G12_REG_SS": 429.134749, "G12_VOT_TO": 1967.897935, "G12_VOT_LA": 327.410527, "G12_VOT_AS": 34.51248, "G12_VOT_FI": 25.895059, "G12_VOT_OT": 1552.416662, "G12_VOT_O1": 20.433794, "G12_VOT_SS": 294.122348, "G14_REG_TO": 2875.999999, "G14_REG_LA": 495.93973, "G14_REG_AS": 68.089744, "G14_REG_FI": 38.135471, "G14_REG_OT": 2244.126442, "G14_REG_O1": 29.674841, "G14_REG_SS": 445.517006, "G14_VOTE_T": 1042.278041, "G14_VOTE_L": 118.741831, "G14_VOTE_A": 16.276425, "G14_VOTE_F": 4.127451, "G14_VOTE_O": 889.940882, "G14_VOTE_1": 12.045329, "G14_VOTE_S": 106.669222, "ST1014_M2_": 3146.063334, "ST1014_M21": 549.746934, "ST1014_M22": 2364.006219, "ST1014_M23": 27.708494, "ST1014_M24": 148.262376, "ST1014_M25": 20, "ST1014_M26": 36.339286, "ST1014_M27": 0, "BLK_TOTPOP": 4794.157838, "BLK_AGE0_1": 1549.10576, "BLK_AGE20_": 2660.453694, "BLK_AGE60P": 584.598509, "BLK_AGE65P": 341.001807, "BLK_CHINA": 23.07276, "BLK_FILIP": 170.602102, "BLK_JAPAN": 25.020925, "BLK_KOREA": 40.218349, "BLK_VIET": 37.285206, "BLK_MEX": 983.664424, "BLK_ARAB": 10.270531, "BLK_BORNUS": 4040.654123, "BLK_IMMIGR": 753.503777, "BLK_CIT": 539.014452, "BLK_NONCIT": 214.489316, "BLK_POP5PL": 4517.311759, "BLK_ENGLIS": 3384.464917, "BLK_SPANIS": 758.038885, "BLK_ASIAN_": 223.365112, "BLK_OTHER_": 151.442836, "BLK_ENG_LV": 312.208919, "BLK_POP25P": 2991.304615, "BLK_NOHSDE": 261.907715, "BLK_HS_GRA": 1773.847537, "BLK_BACHEL": 726.389065, "BLK_GRADDE": 229.160309, "BLK_POP16P": 3763.178578, "BLK_EMPLOY": 2397.807542, "BLK_VETERA": 184.160199, "BLK_DRIVEA": 1790.28659, "BLK_CARPOO": 316.946274, "BLK_PUBTRA": 52.900034, "BLK_WALK": 10.463435, "BLK_WORKAT": 126.804821, "BLK_WORKPR": 5.032364, "BLK_WORKCO": 144.815641, "BLK_WORKMA": 346.141711, "BLK_WORKWH": 66.897119, "BLK_WORKRE": 294.572716, "BLK_WORKTR": 134.771982, "BLK_WORKIN": 122.554688, "BLK_WORKFI": 166.744823, "BLK_WORKP1": 230.081153, "BLK_WORKED": 462.816843, "BLK_WORKAR": 189.482462, "BLK_WORKOT": 105.988164, "BLK_WORKGO": 127.907931, "BLK_HHS": 1488.019979, "BLK_CHILD": 671.768256, "BLK_HHINC0": 129.637659, "BLK_HHINC2": 160.643166, "BLK_HHINC5": 176.87725, "BLK_HHINC7": 842.730819, "BLK_HHINC1": 178.131086, "BLK_HOUSIN": 1549.1789, "BLK_SINGLE": 1491.826742, "BLK_MULTIF": 57.352165, "BLK_VACANT": 61.158938, "BLK_OCCUPI": 1488.019979, "BLK_RENTED": 162.671425, "BLK_OWNED": 1325.348573, "DEVIATION": 34, "F_DEVIATIO": 0.007234, "F_HISPANIC": 0.229193, "F_NH_WHT": 0.650824, "F_NH_DOJ_B": 0.031474, "F_NH_DOJ_I": 0.005915, "F_NH_DOJ_A": 0.075623, "F_NH_DOJ_H": 0.001479, "F_NH_DOJ_O": 0.000211, "F_NH_DOJ_1": 0.005281, "F_18_POP": 0.720955, "F_BLK_TOTP": 1.012708, "F_BLK_AGE0": 0.323124, "F_BLK_AGE2": 0.554937, "F_BLK_AGE6": 0.12194, "F_BLK_AGE1": 0.071129, "F_BLK_CHIN": 0.004813, "F_BLK_FILI": 0.035585, "F_BLK_JAPA": 0.005219, "F_BLK_KORE": 0.008389, "F_BLK_VIET": 0.007777, "F_BLK_MEX": 0.20518, "F_BLK_ARAB": 0.002142, "F_BLK_BORN": 0.842829, "F_BLK_IMMI": 0.157171, "F_BLK_CIT": 0.112432, "F_BLK_NONC": 0.04474, "F_BLK_POP5": 0.942253, "F_BLK_ENGL": 0.749221, "F_BLK_SPAN": 0.167808, "F_BLK_ASIA": 0.049446, "F_BLK_OTHE": 0.033525, "F_BLK_ENG_": 0.069114, "F_BLK_POP2": 0.623948, "F_BLK_NOHS": 0.087556, "F_BLK_HS_G": 0.593001, "F_BLK_BACH": 0.242834, "F_BLK_GRAD": 0.076609, "F_BLK_POP1": 0.784951, "F_BLK_EMPL": 0.637176, "F_BLK_VETE": 0.048937, "F_BLK_DRIV": 0.746635, "F_BLK_CARP": 0.132182, "F_BLK_PUBT": 0.022062, "F_BLK_WALK": 0.004364, "F_BLK_WORK": 0.052884, "F_BLK_WOR1": 0.002099, "F_BLK_WOR2": 0.060395, "F_BLK_WOR3": 0.144358, "F_BLK_WOR4": 0.027899, "F_BLK_WOR5": 0.122851, "F_BLK_WOR6": 0.056206, "F_BLK_WOR7": 0.051111, "F_BLK_WOR8": 0.069541, "F_BLK_WOR9": 0.095955, "F_BLK_WO10": 0.193017, "F_BLK_WO11": 0.079023, "F_BLK_WO12": 0.044202, "F_BLK_WO13": 0.053344, "F_BLK_CHIL": 0.451451, "F_BLK_HHIN": 0.087121, "F_BLK_HHI1": 0.107958, "F_BLK_HHI2": 0.118868, "F_BLK_HHI3": 0.566344, "F_BLK_HHI4": 0.11971, "F_BLK_SING": 0.962979, "F_BLK_MULT": 0.037021, "F_BLK_VACA": 0.039478, "F_BLK_OCCU": 0.960522, "F_BLK_RENT": 0.109321, "F_BLK_OWNE": 0.890679, "F_H18_POP": 0.20334, "F_NH18_WHT": 0.682684, "F_NH18_DOJ": 0.030765, "F_NH18_DO1": 0.006446, "F_NH18_DO2": 0.069147, "F_NH18_DO3": 0.001172, "F_NH18_DO4": 0.000293, "F_NH18_DO5": 0.006153, "F_G08_VOTE": 0.141178, "F_G08_VOT1": 0.022144, "F_G08_VOT2": 0.011575, "F_G08_VOT3": 0.126824, "F_G10_VOTE": 0.126074, "F_G10_VOT1": 0.014801, "F_G10_VOT2": 0.005792, "F_G10_VOT3": 0.113256, "F_G12_REG_": 0.174027, "F_G12_REG1": 0.020218, "F_G12_REG2": 0.01657, "F_G12_REG3": 0.775563, "F_G12_REG4": 0.010108, "F_G12_REG5": 0.156333, "F_G12_VOT_": 0.716902, "F_G12_VOT1": 0.166376, "F_G12_VOT2": 0.017538, "F_G12_VOT3": 0.013159, "F_G12_VOT4": 0.788871, "F_G12_VOT5": 0.010384, "F_G12_VOT6": 0.14946, "F_G14_REG_": 0.172441, "F_G14_REG1": 0.023675, "F_G14_REG2": 0.01326, "F_G14_REG3": 0.780294, "F_G14_REG4": 0.010318, "F_G14_REG5": 0.154909, "F_G14_VOTE": 0.362405, "F_G14_VOT1": 0.113925, "F_G14_VOT2": 0.015616, "F_G14_VOT3": 0.00396, "F_G14_VOT4": 0.853842, "F_G14_VOT5": 0.011557, "F_G14_VOT6": 0.102342, "F_ST1014_M": 0.921788, "F_ST1014_1": 0.174741, "F_ST1014_2": 0.751417, "F_ST1014_3": 0.008807, "F_ST1014_4": 0.047126, "F_ST1014_5": 0.006357, "F_ST1014_6": 0.011551, "F_ST1014_7": 0, "IDEAL_VALU": 4700}, "geometry": {"type": "Polygon", "coordinates": [[[-118.6395114, 34.5071361], [-118.6383526, 34.5068326], [-118.6335376, 34.50684], [-118.6325764, 34.5070991], [-118.6271237, 34.5000071], [-118.6260187, 34.4978379], [-118.6257403, 34.4966608], [-118.6255426, 34.4963646], [-118.6250575, 34.4957945], [-118.6236112, 34.4949061], [-118.6213205, 34.4916928], [-118.621078, 34.490908], [-118.6211499, 34.489057], [-118.6261175, 34.4890792], [-118.6277615, 34.4894716], [-118.6286328, 34.4899455], [-118.6305193, 34.4890496], [-118.6314625, 34.4889311], [-118.6323698, 34.4889903], [-118.6331064, 34.4891828], [-118.6339509, 34.4896715], [-118.6345976, 34.4901972], [-118.6349121, 34.4908488], [-118.6357116, 34.4914337], [-118.6406343, 34.491915], [-118.6438144, 34.4929515], [-118.6446049, 34.4935734], [-118.6447666, 34.4935438], [-118.645054, 34.4931514], [-118.6463835, 34.4930552], [-118.6464644, 34.492796], [-118.646123, 34.4922185], [-118.6462578, 34.4915596], [-118.6458086, 34.4908044], [-118.6454852, 34.4898196], [-118.6448025, 34.4891458], [-118.6462937, 34.4876354], [-118.6471291, 34.4870282], [-118.6488809, 34.485029], [-118.6490156, 34.4846365], [-118.6488449, 34.4843404], [-118.6488449, 34.4837332], [-118.6491503, 34.4833259], [-118.6491414, 34.4829186], [-118.6496444, 34.4822892], [-118.6497343, 34.4815636], [-118.6500217, 34.4814599], [-118.6505697, 34.4802677], [-118.6505607, 34.4798678], [-118.6502283, 34.4794383], [-118.6501654, 34.4790755], [-118.6507314, 34.4782979], [-118.6508032, 34.477587], [-118.6511177, 34.4773279], [-118.6512255, 34.4765059], [-118.6516836, 34.4757431], [-118.6516746, 34.4745508], [-118.6506865, 34.4745434], [-118.6504888, 34.4729586], [-118.6480275, 34.4725661], [-118.6458984, 34.4727439], [-118.6455212, 34.4696927], [-118.6418021, 34.4699963], [-118.6421165, 34.4726772], [-118.6333939, 34.472581], [-118.6299893, 34.4724106], [-118.630124, 34.4703], [-118.6288215, 34.4702629], [-118.6289742, 34.468804], [-118.6291988, 34.4684929], [-118.6297917, 34.4681967], [-118.6275549, 34.4644417], [-118.6262074, 34.4642269], [-118.6241772, 34.4643676], [-118.6235573, 34.4642788], [-118.6245185, 34.4621161], [-118.6259648, 34.4607088], [-118.6264769, 34.4599163], [-118.6267194, 34.4590497], [-118.6267104, 34.4581312], [-118.6277704, 34.4579016], [-118.6281208, 34.457309], [-118.628543, 34.4557609], [-118.6290461, 34.4552943], [-118.629621, 34.4550202], [-118.6307169, 34.4549313], [-118.6323968, 34.4555387], [-118.6329358, 34.4554498], [-118.6336454, 34.4550573], [-118.6352714, 34.4563017], [-118.6363494, 34.4568202], [-118.6379663, 34.4572572], [-118.6410296, 34.457235], [-118.6417392, 34.4567461], [-118.6445779, 34.4556276], [-118.6449373, 34.4553165], [-118.6458625, 34.4536499], [-118.6465363, 34.4530202], [-118.6469405, 34.4527462], [-118.6481622, 34.4525462], [-118.6494019, 34.4520647], [-118.6503002, 34.4510869], [-118.6508841, 34.4517462], [-118.6514141, 34.4520647], [-118.6517195, 34.452198], [-118.6524651, 34.4520721], [-118.6531029, 34.4523832], [-118.653076, 34.4531091], [-118.6536868, 34.4535536], [-118.6545762, 34.4533091], [-118.6556631, 34.4536943], [-118.6556721, 34.4544128], [-118.6558697, 34.4546869], [-118.6557709, 34.4554869], [-118.6562381, 34.4557239], [-118.6570196, 34.4556202], [-118.6577562, 34.4557239], [-118.6574238, 34.4562276], [-118.6582593, 34.4565091], [-118.6588701, 34.4560572], [-118.6595079, 34.4601163], [-118.6601637, 34.4600052], [-118.6725065, 34.4600348], [-118.673351, 34.4666562], [-118.6720394, 34.4665081], [-118.6713208, 34.4669376], [-118.6704943, 34.4668932], [-118.669057, 34.4672191], [-118.669084, 34.4690336], [-118.671213, 34.4689817], [-118.6712309, 34.4708184], [-118.6776988, 34.4707591], [-118.6776359, 34.4743583], [-118.6860262, 34.4744546], [-118.6860082, 34.4788533], [-118.6869784, 34.4788459], [-118.6873287, 34.4789718], [-118.6881821, 34.4794606], [-118.6888469, 34.4802603], [-118.6890086, 34.4801862], [-118.6890984, 34.4797864], [-118.6895117, 34.479468], [-118.6902213, 34.4794309], [-118.6904639, 34.4792754], [-118.690392, 34.4788385], [-118.6908681, 34.4784238], [-118.6918203, 34.4782165], [-118.6926917, 34.4784164], [-118.6935451, 34.4781128], [-118.6945512, 34.4774982], [-118.6945332, 34.4773649], [-118.6940661, 34.4772464], [-118.6944883, 34.4767947], [-118.6950273, 34.4767058], [-118.6959616, 34.4760245], [-118.6966533, 34.4758024], [-118.6977223, 34.4752321], [-118.6995548, 34.4751211], [-118.6999141, 34.4752914], [-118.700507, 34.4753062], [-118.7019533, 34.4747434], [-118.7022767, 34.4740695], [-118.702654, 34.4738547], [-118.7030223, 34.4738547], [-118.7036242, 34.474188], [-118.7041452, 34.4743139], [-118.7091219, 34.4727809], [-118.7094902, 34.4725735], [-118.7101549, 34.4726032], [-118.7114844, 34.4723143], [-118.7129577, 34.4729883], [-118.7148621, 34.4729957], [-118.7157065, 34.4731512], [-118.7170091, 34.4744101], [-118.7184554, 34.47481], [-118.7196591, 34.4757801], [-118.7203598, 34.4761652], [-118.7227134, 34.4762023], [-118.7246807, 34.4749804], [-118.7259833, 34.4744842], [-118.7265672, 34.4745064], [-118.7419014, 34.5058036], [-118.7461594, 34.5140573], [-118.7758308, 34.5745615], [-118.7966897, 34.6165563], [-118.7435274, 34.6164306], [-118.7146914, 34.6165341], [-118.6976234, 34.6163715], [-118.6462218, 34.6163271], [-118.6246713, 34.6154917], [-118.5972726, 34.6162828], [-118.5604866, 34.6162606], [-118.5604148, 34.6158614], [-118.5610795, 34.6149077], [-118.5611514, 34.6141536], [-118.5609987, 34.6138874], [-118.560298, 34.6134143], [-118.5601902, 34.613089], [-118.560819, 34.6122092], [-118.5625617, 34.6107527], [-118.5627773, 34.6103239], [-118.5626875, 34.6098876], [-118.5620766, 34.6092592], [-118.560837, 34.6086825], [-118.5605675, 34.6084459], [-118.5604687, 34.6077139], [-118.560819, 34.6066492], [-118.5602441, 34.606176], [-118.5602171, 34.6059986], [-118.5607651, 34.6047046], [-118.56081, 34.6040466], [-118.5605495, 34.6037582], [-118.5601093, 34.6037065], [-118.5593368, 34.6042314], [-118.5589415, 34.6047416], [-118.5585193, 34.60503], [-118.5574144, 34.6053775], [-118.5569024, 34.6053701], [-118.5567496, 34.6049856], [-118.5572707, 34.6043276], [-118.5570461, 34.6032998], [-118.557612, 34.6027896], [-118.5579534, 34.601747], [-118.5588247, 34.6011777], [-118.5592739, 34.6006083], [-118.5599836, 34.599159], [-118.5615826, 34.5977245], [-118.5626875, 34.596423], [-118.5639002, 34.5943229], [-118.5638823, 34.5940123], [-118.5636846, 34.5937239], [-118.5631636, 34.5934651], [-118.5617173, 34.5933838], [-118.5615377, 34.5932359], [-118.5615736, 34.5919343], [-118.5621305, 34.591217], [-118.5623282, 34.590618], [-118.5618161, 34.5900634], [-118.561331, 34.5892055], [-118.561376, 34.5881036], [-118.5612322, 34.5876673], [-118.5614299, 34.586521], [-118.5610526, 34.5863139], [-118.5601453, 34.5862473], [-118.55975, 34.5860255], [-118.5604687, 34.585138], [-118.560307, 34.5843097], [-118.5588068, 34.5834739], [-118.5584385, 34.5828675], [-118.5580252, 34.5826308], [-118.5578636, 34.5824015], [-118.5577198, 34.5814474], [-118.5574234, 34.5809445], [-118.5566149, 34.5803528], [-118.555492, 34.5800718], [-118.5552315, 34.5798055], [-118.5554381, 34.5790659], [-118.5567227, 34.5774387], [-118.5566688, 34.5769284], [-118.5561927, 34.5757301], [-118.5562376, 34.5749609], [-118.5572257, 34.5737626], [-118.5575671, 34.5723351], [-118.5584564, 34.5712255], [-118.5586451, 34.5706486], [-118.5584385, 34.5698201], [-118.5575402, 34.5678599], [-118.5571269, 34.5672681], [-118.5558064, 34.5661363], [-118.555474, 34.5653374], [-118.5554471, 34.56479], [-118.5556627, 34.5638727], [-118.5562286, 34.5632217], [-118.5586181, 34.5615868], [-118.5609627, 34.5609876], [-118.5615287, 34.5603587], [-118.5616185, 34.5595894], [-118.5612143, 34.5589087], [-118.5605405, 34.5585684], [-118.5599566, 34.5584945], [-118.558699, 34.5586054], [-118.5578276, 34.5589161], [-118.5564532, 34.5599667], [-118.5527881, 34.5614314], [-118.5515574, 34.5614536], [-118.5508208, 34.5611429], [-118.5496979, 34.56027], [-118.5489343, 34.5600998], [-118.5479282, 34.5603292], [-118.5463651, 34.5613057], [-118.5454039, 34.5614536], [-118.5445326, 34.5613575], [-118.5437331, 34.5610098], [-118.5428797, 34.560085], [-118.5418286, 34.5572812], [-118.5402296, 34.5546252], [-118.5401578, 34.5539297], [-118.5404183, 34.5532787], [-118.5467424, 34.5483807], [-118.5494643, 34.5473226], [-118.5551956, 34.5442594], [-118.5581959, 34.5440966], [-118.5589864, 34.5439042], [-118.5597859, 34.5434825], [-118.565086, 34.5378587], [-118.5669725, 34.5335815], [-118.5703322, 34.5302217], [-118.5713922, 34.5279867], [-118.5719671, 34.527476], [-118.5744105, 34.5259145], [-118.5777792, 34.5217698], [-118.5788212, 34.5200083], [-118.5810042, 34.5175362], [-118.5817138, 34.516981], [-118.582711, 34.5165295], [-118.5839776, 34.5163815], [-118.5931494, 34.5190165], [-118.5942543, 34.5190017], [-118.5953233, 34.5184984], [-118.5958892, 34.5177138], [-118.5968774, 34.5131098], [-118.5974074, 34.5118145], [-118.5983057, 34.5108226], [-118.6018451, 34.5083724], [-118.602411, 34.5077283], [-118.6036866, 34.5022355], [-118.6039381, 34.501695], [-118.6044142, 34.5011694], [-118.6068128, 34.4997332], [-118.6080165, 34.4982081], [-118.6089867, 34.4974826], [-118.6098401, 34.4972012], [-118.6105677, 34.4971346], [-118.6163978, 34.4973863], [-118.6162361, 34.5006808], [-118.6167391, 34.5020134], [-118.6162451, 34.5024205], [-118.6160834, 34.5028721], [-118.6162181, 34.5051522], [-118.6166044, 34.5059443], [-118.6183741, 34.5067512], [-118.6192005, 34.5076913], [-118.6207636, 34.5077876], [-118.6215631, 34.5080466], [-118.6215541, 34.5083205], [-118.6223536, 34.5085574], [-118.6230543, 34.5090164], [-118.6236741, 34.5099935], [-118.6255606, 34.5106153], [-118.6258391, 34.5106153], [-118.6249767, 34.5072102], [-118.6289472, 34.5071954], [-118.6294054, 34.507832], [-118.6312918, 34.5090312], [-118.6314446, 34.5095271], [-118.6321542, 34.5092681], [-118.6332681, 34.5094531], [-118.6336364, 34.50969], [-118.6343641, 34.5105339], [-118.6350827, 34.5104376], [-118.6352714, 34.5108151], [-118.6357744, 34.5108596], [-118.6362056, 34.5115036], [-118.63599, 34.5116294], [-118.636538, 34.5124806], [-118.6364302, 34.5125621], [-118.6379933, 34.5149529], [-118.6384424, 34.5149159], [-118.6389185, 34.5153526], [-118.639188, 34.5152638], [-118.6417931, 34.5165295], [-118.6428891, 34.5158708], [-118.6426645, 34.5152342], [-118.643473, 34.5150862], [-118.6403648, 34.5092458], [-118.6408769, 34.508587], [-118.6407691, 34.5081947], [-118.6400414, 34.5077505], [-118.6395563, 34.5077579], [-118.639206, 34.5078986], [-118.6390443, 34.5077283], [-118.6390443, 34.5075507], [-118.6395114, 34.5071361]]]}}, {"type": "Feature", "properties": {"FID": 4, "ID": 10, "AREA": 19.915806, "DISTRICT": "E", "MEMBERS": 1, "LOCKED": " ", "NAME": "E - Burk - 2022", "POPULATION": 4656, "HISPANIC_O": 2017, "NH_WHT": 2104, "NH_DOJ_BLK": 178, "NH_DOJ_IND": 29, "NH_DOJ_ASN": 265, "NH_DOJ_HWN": 10, "NH_DOJ_OTH": 14, "NH_DOJ_OT1": 39, "F18_POP": 3308, "H18_POP": 1308, "NH18_WHT": 1606, "NH18_DOJ_B": 130, "NH18_DOJ_I": 20, "NH18_DOJ_A": 203, "NH18_DOJ_H": 9, "NH18_DOJ_O": 7, "NH18_DOJ_1": 25, "G08_VOTE_T": 1641, "G08_VOTE_L": 446.384378, "G08_VOTE_A": 39, "G08_VOTE_F": 31, "G08_VOTE_S": 401, "G10_VOTE_T": 1204, "G10_VOTE_L": 279.407678, "G10_VOTE_A": 28, "G10_VOTE_F": 22, "G10_VOTE_S": 251, "G12_REG_TO": 2271.000688, "G12_REG_LA": 692.323152, "G12_REG_AS": 64.521191, "G12_REG_FI": 38.319887, "G12_REG_OT": 1405.517392, "G12_REG_O1": 61.766096, "G12_REG_SS": 621.933916, "G12_VOT_TO": 1569.05775, "G12_VOT_LA": 436.493445, "G12_VOT_AS": 43.851762, "G12_VOT_FI": 25.59194, "G12_VOT_OT": 1012.518797, "G12_VOT_O1": 43.960791, "G12_VOT_SS": 392.114689, "G14_REG_TO": 2417.000002, "G14_REG_LA": 761.303604, "G14_REG_AS": 63.302563, "G14_REG_FI": 42.334999, "G14_REG_OT": 1470.367183, "G14_REG_O1": 66.198105, "G14_REG_SS": 683.90105, "G14_VOTE_T": 839.348484, "G14_VOTE_L": 166.17247, "G14_VOTE_A": 22.551039, "G14_VOTE_F": 13.845648, "G14_VOTE_O": 604.790196, "G14_VOTE_1": 26.722417, "G14_VOTE_S": 149.277537, "ST1014_M2_": 2892.361861, "ST1014_M21": 1139.117747, "ST1014_M22": 1393.072226, "ST1014_M23": 102.332169, "ST1014_M24": 178.196861, "ST1014_M25": 40, "ST1014_M26": 9.642858, "ST1014_M27": 30, "BLK_TOTPOP": 4701.943276, "BLK_AGE0_1": 1626.614817, "BLK_AGE20_": 2623.77573, "BLK_AGE60P": 451.552678, "BLK_AGE65P": 243.357789, "BLK_CHINA": 13.392027, "BLK_FILIP": 114.221772, "BLK_JAPAN": 0.475803, "BLK_KOREA": 34.369759, "BLK_VIET": 14.754311, "BLK_MEX": 1672.979912, "BLK_ARAB": 13.904686, "BLK_BORNUS": 3689.623469, "BLK_IMMIGR": 1012.319782, "BLK_CIT": 525.329979, "BLK_NONCIT": 486.989803, "BLK_POP5PL": 4494.350246, "BLK_ENGLIS": 2684.759311, "BLK_SPANIS": 1566.135772, "BLK_ASIAN_": 150.880797, "BLK_OTHER_": 92.574401, "BLK_ENG_LV": 623.666328, "BLK_POP25P": 2760.364355, "BLK_NOHSDE": 511.841218, "BLK_HS_GRA": 1574.240839, "BLK_BACHEL": 486.366018, "BLK_GRADDE": 187.91625, "BLK_POP16P": 3594.468571, "BLK_EMPLOY": 2226.040772, "BLK_VETERA": 179.281741, "BLK_DRIVEA": 1717.098404, "BLK_CARPOO": 278.118922, "BLK_PUBTRA": 52.330081, "BLK_WALK": 4.31998, "BLK_WORKAT": 88.9668, "BLK_WORKPR": 7.235625, "BLK_WORKCO": 146.633942, "BLK_WORKMA": 327.395136, "BLK_WORKWH": 69.591849, "BLK_WORKRE": 237.245695, "BLK_WORKTR": 152.252059, "BLK_WORKIN": 99.010609, "BLK_WORKFI": 121.999995, "BLK_WORKP1": 228.433854, "BLK_WORKED": 441.383918, "BLK_WORKAR": 224.814242, "BLK_WORKOT": 79.775207, "BLK_WORKGO": 90.268674, "BLK_HHS": 1348.763818, "BLK_CHILD": 663.482203, "BLK_HHINC0": 166.788997, "BLK_HHINC2": 199.197393, "BLK_HHINC5": 187.636114, "BLK_HHINC7": 701.402103, "BLK_HHINC1": 93.739225, "BLK_HOUSIN": 1413.357292, "BLK_SINGLE": 1392.253872, "BLK_MULTIF": 21.103436, "BLK_VACANT": 64.593455, "BLK_OCCUPI": 1348.763818, "BLK_RENTED": 294.773258, "BLK_OWNED": 1053.990565, "DEVIATION": -44, "F_DEVIATIO": -0.009362, "F_HISPANIC": 0.433204, "F_NH_WHT": 0.45189, "F_NH_DOJ_B": 0.03823, "F_NH_DOJ_I": 0.006229, "F_NH_DOJ_A": 0.056916, "F_NH_DOJ_H": 0.002148, "F_NH_DOJ_O": 0.003007, "F_NH_DOJ_1": 0.008376, "F_18_POP": 0.710481, "F_BLK_TOTP": 1.009868, "F_BLK_AGE0": 0.345945, "F_BLK_AGE2": 0.558019, "F_BLK_AGE6": 0.096035, "F_BLK_AGE1": 0.051757, "F_BLK_CHIN": 0.002848, "F_BLK_FILI": 0.024292, "F_BLK_JAPA": 0.000101, "F_BLK_KORE": 0.00731, "F_BLK_VIET": 0.003138, "F_BLK_MEX": 0.355806, "F_BLK_ARAB": 0.002957, "F_BLK_BORN": 0.784702, "F_BLK_IMMI": 0.215298, "F_BLK_CIT": 0.111726, "F_BLK_NONC": 0.103572, "F_BLK_POP5": 0.95585, "F_BLK_ENGL": 0.597363, "F_BLK_SPAN": 0.348468, "F_BLK_ASIA": 0.033571, "F_BLK_OTHE": 0.020598, "F_BLK_ENG_": 0.138767, "F_BLK_POP2": 0.587069, "F_BLK_NOHS": 0.185425, "F_BLK_HS_G": 0.570302, "F_BLK_BACH": 0.176196, "F_BLK_GRAD": 0.068077, "F_BLK_POP1": 0.764464, "F_BLK_EMPL": 0.619296, "F_BLK_VETE": 0.049877, "F_BLK_DRIV": 0.771369, "F_BLK_CARP": 0.124939, "F_BLK_PUBT": 0.023508, "F_BLK_WALK": 0.001941, "F_BLK_WORK": 0.039966, "F_BLK_WOR1": 0.00325, "F_BLK_WOR2": 0.065872, "F_BLK_WOR3": 0.147075, "F_BLK_WOR4": 0.031263, "F_BLK_WOR5": 0.106577, "F_BLK_WOR6": 0.068396, "F_BLK_WOR7": 0.044478, "F_BLK_WOR8": 0.054806, "F_BLK_WOR9": 0.102619, "F_BLK_WO10": 0.198282, "F_BLK_WO11": 0.100993, "F_BLK_WO12": 0.035837, "F_BLK_WO13": 0.040551, "F_BLK_CHIL": 0.491919, "F_BLK_HHIN": 0.123661, "F_BLK_HHI1": 0.147689, "F_BLK_HHI2": 0.139117, "F_BLK_HHI3": 0.520033, "F_BLK_HHI4": 0.0695, "F_BLK_SING": 0.985069, "F_BLK_MULT": 0.014931, "F_BLK_VACA": 0.045702, "F_BLK_OCCU": 0.954298, "F_BLK_RENT": 0.218551, "F_BLK_OWNE": 0.781449, "F_H18_POP": 0.395405, "F_NH18_WHT": 0.48549, "F_NH18_DOJ": 0.039299, "F_NH18_DO1": 0.006046, "F_NH18_DO2": 0.061366, "F_NH18_DO3": 0.002721, "F_NH18_DO4": 0.002116, "F_NH18_DO5": 0.007557, "F_G08_VOTE": 0.27202, "F_G08_VOT1": 0.023766, "F_G08_VOT2": 0.018891, "F_G08_VOT3": 0.244363, "F_G10_VOTE": 0.232066, "F_G10_VOT1": 0.023256, "F_G10_VOT2": 0.018272, "F_G10_VOT3": 0.208472, "F_G12_REG_": 0.304854, "F_G12_REG1": 0.028411, "F_G12_REG2": 0.016874, "F_G12_REG3": 0.618898, "F_G12_REG4": 0.027198, "F_G12_REG5": 0.273859, "F_G12_VOT_": 0.69091, "F_G12_VOT1": 0.278188, "F_G12_VOT2": 0.027948, "F_G12_VOT3": 0.01631, "F_G12_VOT4": 0.645304, "F_G12_VOT5": 0.028017, "F_G12_VOT6": 0.249905, "F_G14_REG_": 0.314979, "F_G14_REG1": 0.026191, "F_G14_REG2": 0.017516, "F_G14_REG3": 0.608344, "F_G14_REG4": 0.027389, "F_G14_REG5": 0.282955, "F_G14_VOTE": 0.347269, "F_G14_VOT1": 0.197978, "F_G14_VOT2": 0.026867, "F_G14_VOT3": 0.016496, "F_G14_VOT4": 0.720547, "F_G14_VOT5": 0.031837, "F_G14_VOT6": 0.177849, "F_ST1014_M": 0.874354, "F_ST1014_1": 0.393837, "F_ST1014_2": 0.481638, "F_ST1014_3": 0.03538, "F_ST1014_4": 0.061609, "F_ST1014_5": 0.01383, "F_ST1014_6": 0.003334, "F_ST1014_7": 0.010372, "IDEAL_VALU": 4700}, "geometry": {"type": "Polygon", "coordinates": [[[-118.6171434, 34.4297651], [-118.61788, 34.4291279], [-118.6186256, 34.4286981], [-118.6188681, 34.4274163], [-118.6195598, 34.426579], [-118.6200539, 34.4263196], [-118.6205749, 34.4263419], [-118.6209702, 34.4261122], [-118.62212, 34.4250229], [-118.6230453, 34.4242745], [-118.6233418, 34.424193], [-118.6236651, 34.423741], [-118.6244107, 34.4231185], [-118.6245545, 34.4226147], [-118.6250216, 34.4221997], [-118.6260547, 34.4205694], [-118.6270069, 34.4199396], [-118.6281208, 34.419532], [-118.6292437, 34.4186946], [-118.6311032, 34.4179091], [-118.6316242, 34.4181166], [-118.6319117, 34.4185094], [-118.6321991, 34.4186057], [-118.6345617, 34.4187168], [-118.6350917, 34.4188651], [-118.6359271, 34.4187909], [-118.6396282, 34.4188947], [-118.6405714, 34.4192356], [-118.641344, 34.4191763], [-118.6421615, 34.4192874], [-118.6426196, 34.419243], [-118.6430688, 34.4189984], [-118.6438593, 34.4187984], [-118.645045, 34.4186279], [-118.646114, 34.4181388], [-118.6475603, 34.4179832], [-118.6487192, 34.4181018], [-118.6493749, 34.4179906], [-118.6503631, 34.4175312], [-118.6513422, 34.4165456], [-118.6519172, 34.4163158], [-118.6526448, 34.4163158], [-118.6563279, 34.4146929], [-118.6569208, 34.4141519], [-118.6575496, 34.4138999], [-118.6582593, 34.4130773], [-118.6606039, 34.4119508], [-118.6614303, 34.4112986], [-118.6623017, 34.4110911], [-118.6635863, 34.4100165], [-118.6644756, 34.4096756], [-118.6650865, 34.409053], [-118.6654368, 34.4082304], [-118.6656075, 34.4080822], [-118.666389, 34.4080599], [-118.6667304, 34.4079339], [-118.6672424, 34.4074448], [-118.6676107, 34.4066666], [-118.6689852, 34.4063108], [-118.6696679, 34.4059032], [-118.6706021, 34.4060959], [-118.6717789, 34.4059476], [-118.6729018, 34.4053621], [-118.6743301, 34.4052732], [-118.6752823, 34.4054214], [-118.6774922, 34.4050138], [-118.6778066, 34.4048137], [-118.6792259, 34.4044579], [-118.6799176, 34.4041095], [-118.680286, 34.403739], [-118.6809956, 34.4035463], [-118.6814448, 34.4035685], [-118.6821095, 34.4039094], [-118.682918, 34.4039835], [-118.6859094, 34.4034054], [-118.6877599, 34.4027235], [-118.6900956, 34.4029459], [-118.6906525, 34.4031164], [-118.6913981, 34.4030348], [-118.7265672, 34.4745064], [-118.7259833, 34.4744842], [-118.7246807, 34.4749804], [-118.7227134, 34.4762023], [-118.7203598, 34.4761652], [-118.7196591, 34.4757801], [-118.7184554, 34.47481], [-118.7170091, 34.4744101], [-118.7157065, 34.4731512], [-118.7148621, 34.4729957], [-118.7129577, 34.4729883], [-118.7114844, 34.4723143], [-118.7101549, 34.4726032], [-118.7094902, 34.4725735], [-118.7091219, 34.4727809], [-118.7041452, 34.4743139], [-118.7036242, 34.474188], [-118.7030223, 34.4738547], [-118.702654, 34.4738547], [-118.7022767, 34.4740695], [-118.7019533, 34.4747434], [-118.700507, 34.4753062], [-118.6999141, 34.4752914], [-118.6995548, 34.4751211], [-118.6977223, 34.4752321], [-118.6966533, 34.4758024], [-118.6959616, 34.4760245], [-118.6950273, 34.4767058], [-118.6944883, 34.4767947], [-118.6940661, 34.4772464], [-118.6945332, 34.4773649], [-118.6945512, 34.4774982], [-118.6935451, 34.4781128], [-118.6926917, 34.4784164], [-118.6918203, 34.4782165], [-118.6908681, 34.4784238], [-118.690392, 34.4788385], [-118.6904639, 34.4792754], [-118.6902213, 34.4794309], [-118.6895117, 34.479468], [-118.6890984, 34.4797864], [-118.6890086, 34.4801862], [-118.6888469, 34.4802603], [-118.6881821, 34.4794606], [-118.6873287, 34.4789718], [-118.6869784, 34.4788459], [-118.6860082, 34.4788533], [-118.6860262, 34.4744546], [-118.6776359, 34.4743583], [-118.6776988, 34.4707591], [-118.6712309, 34.4708184], [-118.671213, 34.4689817], [-118.669084, 34.4690336], [-118.669057, 34.4672191], [-118.6704943, 34.4668932], [-118.6713208, 34.4669376], [-118.6720394, 34.4665081], [-118.673351, 34.4666562], [-118.6725065, 34.4600348], [-118.6601637, 34.4600052], [-118.6595079, 34.4601163], [-118.6588701, 34.4560572], [-118.6582593, 34.4565091], [-118.6574238, 34.4562276], [-118.6577562, 34.4557239], [-118.6570196, 34.4556202], [-118.6562381, 34.4557239], [-118.6557709, 34.4554869], [-118.6558697, 34.4546869], [-118.6556721, 34.4544128], [-118.6556631, 34.4536943], [-118.6545762, 34.4533091], [-118.6536868, 34.4535536], [-118.653076, 34.4531091], [-118.6531029, 34.4523832], [-118.6524651, 34.4520721], [-118.6517195, 34.452198], [-118.6514141, 34.4520647], [-118.6508841, 34.4517462], [-118.6503002, 34.4510869], [-118.6494019, 34.4520647], [-118.6481622, 34.4525462], [-118.6469405, 34.4527462], [-118.6465363, 34.4530202], [-118.6458625, 34.4536499], [-118.6449373, 34.4553165], [-118.6445779, 34.4556276], [-118.6417392, 34.4567461], [-118.6410296, 34.457235], [-118.6379663, 34.4572572], [-118.6357744, 34.456598], [-118.6337263, 34.4550795], [-118.6335286, 34.4550721], [-118.6329358, 34.4554498], [-118.6323339, 34.4555387], [-118.6308607, 34.4549684], [-118.6302139, 34.4549017], [-118.6302857, 34.4547758], [-118.630654, 34.4547017], [-118.6303396, 34.4541758], [-118.6291269, 34.4531758], [-118.6281567, 34.452798], [-118.627501, 34.4528573], [-118.6262164, 34.4535239], [-118.6249947, 34.4537536], [-118.6242041, 34.4541684], [-118.6236562, 34.4546647], [-118.623225, 34.4558943], [-118.6219224, 34.4554276], [-118.6211409, 34.4548869], [-118.6197754, 34.4555091], [-118.6181854, 34.4558943], [-118.6158768, 34.4561017], [-118.6157061, 34.4542054], [-118.6149515, 34.4521758], [-118.6139364, 34.4506276], [-118.610406, 34.4462644], [-118.6085555, 34.4449532], [-118.598126, 34.439508], [-118.5963025, 34.4382411], [-118.5874361, 34.4306246], [-118.5863312, 34.4292539], [-118.5841393, 34.4251489], [-118.5847681, 34.4253341], [-118.5854688, 34.4262604], [-118.5868702, 34.4265345], [-118.5879032, 34.4270606], [-118.589071, 34.4274089], [-118.5918917, 34.4285722], [-118.5921972, 34.4294465], [-118.5931673, 34.4312989], [-118.5948292, 34.4325881], [-118.5975781, 34.4333068], [-118.6002371, 34.433492], [-118.603471, 34.4342181], [-118.6045849, 34.434996], [-118.6052856, 34.435322], [-118.6070912, 34.4353146], [-118.6081423, 34.4350701], [-118.6100467, 34.4353665], [-118.6115738, 34.4350924], [-118.6120769, 34.4352554], [-118.6133435, 34.4348405], [-118.6140801, 34.4338032], [-118.6165864, 34.4312915], [-118.6171434, 34.4297651]]]}}]}