{"type":"FeatureCollection","metadata":{"title":"Santa Clarita Valley community boundaries","description":"Los Angeles County Countywide Statistical Area (CSA) polygons, filtered to the communities that match SCVHistory.com Community terms. properties.slug matches the Craft category slug in the neighborhood group.","source":"Los Angeles County Enterprise GIS (eGIS), eGISBOS Countywide Statistical Areas","source_item":"https://www.arcgis.com/home/item.html?id=3abf2449cc054d72ab80e8f1968e5d94","source_service":"https://services.arcgis.com/RmCCgQtiZLDCtblq/arcgis/rest/services/eGISBOS_Countywide_Statistical_Areas/FeatureServer/0","attribution":"Los Angeles County Enterprise GIS (eGIS), egis@isd.lacounty.gov","license":"NEEDS_VERIFICATION. The ArcGIS item carries no licenseInfo statement. Published as LA County open data; confirm the portal terms of use before public launch.","retrieved":"2026-09-17","query":"outSR=4326, maxAllowableOffset=0.0002, geometryPrecision=5, where COMMUNITY IN (14 names) OR LCITY='Santa Clarita'","caveats":["Newhall, Saugus, Valencia and Canyon Country CSAs cover only the unincorporated remnants of those communities. The bulk of each lies inside the City of Santa Clarita polygon.","san-francisquito-canyon uses the combined \"San Francisquito Canyon/Bouquet Canyon\" CSA, which overlaps the separate bouquet-canyon polygon.","Communities with no LA County CSA polygon are absent from this file by design. They are the canyons and historic townsites with no official boundary, and the Ventura and Kern county communities that this LA County dataset does not cover."],"neighbors_method":"properties.neighbors is derived from these simplified polygons: two communities are listed as neighbours when any boundary vertex of one lies within 250 m of a boundary segment of the other. It is a proximity test on generalised geometry, not a topological adjacency computation, so it can miss a narrow touch or include a near miss."},"features":[{"type":"Feature","properties":{"slug":"acton","name":"Acton","source_name":"Acton","city_type":"Unincorporated","neighbors":["agua-dulce"]},"geometry":{"type":"Polygon","coordinates":[[[-118.18378,34.55825],[-118.15319,34.52634],[-118.15216,34.52625],[-118.15157,34.52585],[-118.14784,34.5222],[-118.14562,34.52132],[-118.14534,34.51998],[-118.14305,34.51973],[-118.14256,34.5183],[-118.14463,34.51778],[-118.14525,34.51691],[-118.14634,34.51691],[-118.1463,34.51333],[-118.14486,34.51115],[-118.14306,34.50936],[-118.14012,34.50882],[-118.13637,34.50595],[-118.12771,34.50572],[-118.12456,34.50405],[-118.12116,34.50324],[-118.11938,34.50223],[-118.11913,34.50257],[-118.11864,34.50219],[-118.11404,34.50608],[-118.11148,34.50923],[-118.11083,34.50899],[-118.11058,34.5081],[-118.11079,34.50699],[-118.11348,34.50321],[-118.11401,34.5],[-118.11514,34.49689],[-118.11498,34.49302],[-118.1183,34.47831],[-118.11795,34.47676],[-118.11637,34.47485],[-118.11541,34.47297],[-118.11368,34.46622],[-118.14847,34.46627],[-118.14913,34.45196],[-118.15444,34.45194],[-118.18476,34.4537],[-118.1849,34.4405],[-118.1842,34.42804],[-118.19876,34.42856],[-118.21445,34.42328],[-118.25359,34.42303],[-118.25376,34.43748],[-118.26505,34.43761],[-118.26929,34.43852],[-118.27291,34.43744],[-118.27608,34.43727],[-118.29319,34.43741],[-118.29972,34.43793],[-118.30638,34.43772],[-118.30651,34.44033],[-118.30792,34.44068],[-118.31089,34.44015],[-118.31333,34.43861],[-118.31498,34.43809],[-118.3169,34.43804],[-118.32024,34.43642],[-118.32217,34.43666],[-118.32318,34.43815],[-118.32394,34.43857],[-118.32396,34.43783],[-118.33536,34.43563],[-118.34015,34.43596],[-118.33832,34.43712],[-118.33571,34.43763],[-118.33617,34.4379],[-118.33455,34.43823],[-118.33349,34.43908],[-118.33336,34.44024],[-118.33372,34.44168],[-118.33337,34.44395],[-118.33418,34.44513],[-118.33435,34.44632],[-118.33392,34.4472],[-118.33418,34.44869],[-118.33309,34.45055],[-118.33381,34.45218],[-118.33421,34.45456],[-118.33392,34.45514],[-118.33191,34.4567],[-118.33041,34.45835],[-118.3301,34.46005],[-118.32856,34.46112],[-118.32972,34.46652],[-118.32572,34.4667],[-118.32458,34.46702],[-118.32253,34.468],[-118.31916,34.47064],[-118.31742,34.47157],[-118.3108,34.47305],[-118.29731,34.4796],[-118.29185,34.4804],[-118.28995,34.48104],[-118.28867,34.48189],[-118.28728,34.48356],[-118.28669,34.4855],[-118.28661,34.4881],[-118.28608,34.48966],[-118.28405,34.49176],[-118.27139,34.49685],[-118.26178,34.49819],[-118.25978,34.49872],[-118.25729,34.50023],[-118.2532,34.50396],[-118.25167,34.50473],[-118.2482,34.50512],[-118.22808,34.50047],[-118.22893,34.50292],[-118.2399,34.51693],[-118.24635,34.52155],[-118.24778,34.52211],[-118.24692,34.52434],[-118.24691,34.52567],[-118.24795,34.52674],[-118.2494,34.5273],[-118.24879,34.52764],[-118.24864,34.52838],[-118.2474,34.52809],[-118.24697,34.5285],[-118.24799,34.52888],[-118.24878,34.53022],[-118.24974,34.5309],[-118.24887,34.53101],[-118.248,34.53185],[-118.24831,34.53222],[-118.2492,34.53157],[-118.25132,34.53234],[-118.25173,34.53485],[-118.25122,34.53609],[-118.25248,34.53668],[-118.25495,34.5365],[-118.25579,34.53731],[-118.25543,34.53777],[-118.25617,34.5385],[-118.25541,34.5393],[-118.23789,34.53895],[-118.22026,34.53909],[-118.22019,34.54276],[-118.19824,34.54256],[-118.19824,34.54627],[-118.1939,34.54616],[-118.19396,34.55736],[-118.20003,34.55736],[-118.20003,34.55832],[-118.18378,34.55825]]]}},{"type":"Feature","properties":{"slug":"agua-dulce","name":"Agua Dulce","source_name":"Agua Dulce","city_type":"Unincorporated","neighbors":["acton","canyon-country","san-francisquito-canyon","santa-clarita"]},"geometry":{"type":"Polygon","coordinates":[[[-118.28763,34.55818],[-118.25469,34.55831],[-118.25541,34.5393],[-118.25617,34.5385],[-118.25543,34.53777],[-118.25579,34.53731],[-118.25471,34.5364],[-118.25248,34.53668],[-118.25131,34.5362],[-118.25129,34.53553],[-118.25173,34.53485],[-118.25122,34.53226],[-118.2492,34.53157],[-118.24817,34.53213],[-118.24797,34.53173],[-118.24864,34.53114],[-118.24974,34.5309],[-118.24878,34.53022],[-118.24799,34.52888],[-118.24697,34.5285],[-118.2474,34.52809],[-118.24864,34.52838],[-118.24879,34.52764],[-118.2494,34.5273],[-118.24795,34.52674],[-118.24691,34.52567],[-118.24692,34.52434],[-118.24778,34.52211],[-118.24635,34.52155],[-118.2399,34.51693],[-118.22893,34.50292],[-118.22808,34.50047],[-118.2482,34.50512],[-118.25167,34.50473],[-118.2532,34.50396],[-118.25729,34.50023],[-118.25978,34.49872],[-118.26178,34.49819],[-118.27139,34.49685],[-118.28405,34.49176],[-118.28608,34.48966],[-118.28661,34.4881],[-118.28669,34.4855],[-118.28728,34.48356],[-118.28867,34.48189],[-118.28995,34.48104],[-118.29185,34.4804],[-118.29731,34.4796],[-118.3108,34.47305],[-118.31742,34.47157],[-118.31916,34.47064],[-118.32253,34.468],[-118.32458,34.46702],[-118.32572,34.4667],[-118.32972,34.46652],[-118.32856,34.46112],[-118.3301,34.46005],[-118.33041,34.45835],[-118.33191,34.4567],[-118.33392,34.45514],[-118.33421,34.45456],[-118.33381,34.45218],[-118.33309,34.45055],[-118.33418,34.44869],[-118.33392,34.4472],[-118.33435,34.44632],[-118.33418,34.44513],[-118.33337,34.44395],[-118.33372,34.44168],[-118.33336,34.44024],[-118.33349,34.43908],[-118.33455,34.43823],[-118.33617,34.4379],[-118.33571,34.43763],[-118.33873,34.43693],[-118.34196,34.43492],[-118.34214,34.42862],[-118.34936,34.42943],[-118.35219,34.42946],[-118.35374,34.43004],[-118.3562,34.42993],[-118.35638,34.4304],[-118.35971,34.43077],[-118.37848,34.431],[-118.37876,34.43128],[-118.37991,34.43102],[-118.38206,34.43191],[-118.38239,34.43231],[-118.38335,34.43239],[-118.38523,34.43328],[-118.38686,34.43451],[-118.38603,34.43476],[-118.38435,34.4344],[-118.38207,34.43512],[-118.38208,34.43709],[-118.38247,34.43768],[-118.3811,34.43831],[-118.38032,34.43834],[-118.37965,34.43797],[-118.37896,34.4369],[-118.37872,34.44924],[-118.3877,34.44945],[-118.38771,34.44692],[-118.38922,34.44751],[-118.38841,34.44849],[-118.38888,34.44868],[-118.38878,34.44938],[-118.38908,34.44947],[-118.38886,34.45316],[-118.38771,34.45313],[-118.38801,34.46035],[-118.39247,34.46038],[-118.39235,34.45681],[-118.39267,34.45682],[-118.39277,34.45575],[-118.39407,34.45614],[-118.39431,34.4558],[-118.39394,34.45562],[-118.39406,34.4549],[-118.39239,34.45498],[-118.39227,34.45474],[-118.39354,34.45393],[-118.39387,34.45409],[-118.39416,34.45369],[-118.39354,34.45328],[-118.39733,34.45337],[-118.39736,34.44968],[-118.39562,34.44964],[-118.3946,34.44675],[-118.39631,34.44607],[-118.39747,34.44665],[-118.3981,34.44746],[-118.39732,34.44848],[-118.39738,34.44907],[-118.39962,34.44872],[-118.39989,34.44961],[-118.40043,34.4496],[-118.40001,34.44965],[-118.40027,34.45137],[-118.39936,34.45187],[-118.39934,34.45236],[-118.40035,34.45343],[-118.40264,34.45422],[-118.40281,34.45593],[-118.40445,34.45593],[-118.4067,34.45539],[-118.40982,34.4533],[-118.41231,34.45297],[-118.41331,34.45322],[-118.41389,34.45419],[-118.41689,34.45448],[-118.41936,34.45568],[-118.41419,34.46143],[-118.41067,34.46434],[-118.40634,34.46552],[-118.39779,34.46886],[-118.39183,34.47352],[-118.38953,34.47689],[-118.38828,34.48125],[-118.38716,34.48151],[-118.3875,34.49032],[-118.38734,34.49614],[-118.37847,34.49621],[-118.37827,34.50238],[-118.38011,34.5037],[-118.37725,34.50455],[-118.37687,34.50832],[-118.37731,34.50862],[-118.37741,34.51076],[-118.36183,34.51117],[-118.36173,34.52124],[-118.36238,34.52179],[-118.3617,34.52247],[-118.36166,34.52569],[-118.34408,34.52566],[-118.34328,34.53992],[-118.30832,34.54024],[-118.30698,34.55831],[-118.28763,34.55818]]]}},{"type":"Feature","properties":{"slug":"bouquet-canyon","name":"Bouquet Canyon","source_name":"Bouquet Canyon","city_type":"Unincorporated","neighbors":["castaic","lake-hughes","san-francisquito-canyon"]},"geometry":{"type":"Polygon","coordinates":[[[-118.28774,34.58141],[-118.28765,34.56327],[-118.28904,34.56393],[-118.28996,34.56391],[-118.29193,34.56313],[-118.29315,34.56422],[-118.29444,34.56438],[-118.29678,34.56415],[-118.2983,34.56353],[-118.30345,34.56359],[-118.30396,34.56319],[-118.30775,34.56267],[-118.31113,34.5614],[-118.314,34.56167],[-118.31564,34.56263],[-118.32131,34.5639],[-118.32521,34.56319],[-118.32731,34.56339],[-118.32894,34.56395],[-118.33276,34.56329],[-118.33374,34.56383],[-118.33641,34.56401],[-118.33762,34.5624],[-118.33887,34.56195],[-118.34008,34.56204],[-118.34125,34.56151],[-118.34277,34.56187],[-118.34359,34.56153],[-118.34498,34.56208],[-118.34574,34.56165],[-118.34628,34.56192],[-118.34722,34.56079],[-118.34787,34.56132],[-118.34854,34.56109],[-118.34927,34.56161],[-118.34984,34.56138],[-118.35032,34.56166],[-118.35256,34.56073],[-118.35322,34.56125],[-118.35465,34.56151],[-118.35488,34.56198],[-118.35585,34.56244],[-118.35732,34.5626],[-118.35848,34.56234],[-118.35918,34.56307],[-118.3591,34.56372],[-118.35962,34.56388],[-118.36008,34.56377],[-118.36105,34.56269],[-118.36183,34.56277],[-118.36234,34.56334],[-118.36359,34.56295],[-118.36484,34.56304],[-118.3658,34.56215],[-118.36744,34.56209],[-118.36835,34.56164],[-118.36892,34.56185],[-118.37038,34.56159],[-118.37183,34.56252],[-118.37361,34.56225],[-118.37625,34.56097],[-118.37793,34.55945],[-118.39093,34.57012],[-118.39048,34.5712],[-118.38794,34.57438],[-118.38745,34.57634],[-118.38896,34.57658],[-118.39013,34.57753],[-118.39247,34.58064],[-118.39316,34.58066],[-118.39356,34.58104],[-118.39471,34.58117],[-118.39512,34.5807],[-118.39595,34.58073],[-118.39622,34.58022],[-118.39706,34.58061],[-118.39761,34.58029],[-118.39823,34.58078],[-118.39892,34.58049],[-118.39932,34.58072],[-118.3993,34.58112],[-118.40003,34.58123],[-118.40004,34.58184],[-118.40058,34.58213],[-118.39931,34.58297],[-118.40198,34.58445],[-118.40172,34.58483],[-118.39956,34.58518],[-118.40029,34.58601],[-118.40024,34.58641],[-118.39826,34.58628],[-118.39488,34.58703],[-118.39397,34.58813],[-118.39343,34.588],[-118.39342,34.58834],[-118.39414,34.58851],[-118.39516,34.5882],[-118.39568,34.58865],[-118.3995,34.58997],[-118.40195,34.59048],[-118.40336,34.591],[-118.4031,34.59142],[-118.40352,34.59191],[-118.40453,34.59162],[-118.40521,34.59212],[-118.40675,34.59231],[-118.40859,34.59379],[-118.41021,34.59395],[-118.4116,34.59452],[-118.4144,34.59456],[-118.41656,34.59381],[-118.42393,34.59432],[-118.42541,34.59374],[-118.42694,34.59387],[-118.42906,34.59332],[-118.43014,34.59348],[-118.43272,34.59475],[-118.43341,34.59448],[-118.43394,34.59328],[-118.43482,34.59295],[-118.43602,34.59305],[-118.4376,34.59259],[-118.4407,34.59292],[-118.44197,34.59252],[-118.44291,34.59142],[-118.44189,34.59058],[-118.44216,34.59031],[-118.44622,34.59361],[-118.44623,34.59274],[-118.44678,34.59187],[-118.44906,34.59129],[-118.44925,34.59105],[-118.449,34.59063],[-118.45044,34.59018],[-118.45144,34.5895],[-118.45215,34.59006],[-118.45094,34.59109],[-118.45076,34.5917],[-118.45137,34.59247],[-118.45179,34.59209],[-118.45299,34.59265],[-118.45432,34.59262],[-118.4525,34.59344],[-118.45064,34.5937],[-118.44988,34.59423],[-118.44843,34.59735],[-118.44851,34.59921],[-118.44801,34.60177],[-118.44571,34.60725],[-118.44429,34.60867],[-118.44102,34.61021],[-118.43885,34.61087],[-118.43711,34.61199],[-118.43336,34.61362],[-118.43197,34.61397],[-118.42847,34.61376],[-118.4262,34.61471],[-118.42488,34.61575],[-118.42129,34.61714],[-118.41956,34.61853],[-118.41507,34.62118],[-118.40923,34.62579],[-118.40401,34.62849],[-118.40028,34.62934],[-118.39525,34.63129],[-118.38878,34.63537],[-118.37899,34.6405],[-118.3778,34.64198],[-118.37837,34.64364],[-118.3782,34.64483],[-118.37632,34.64486],[-118.37613,34.63086],[-118.35768,34.63071],[-118.35743,34.62369],[-118.34079,34.62344],[-118.34071,34.61575],[-118.33975,34.61775],[-118.33972,34.61641],[-118.33111,34.61635],[-118.32226,34.61708],[-118.32139,34.60946],[-118.32226,34.60238],[-118.31982,34.60188],[-118.30493,34.60197],[-118.30493,34.58721],[-118.30402,34.58752],[-118.29671,34.58763],[-118.29387,34.58723],[-118.29126,34.5877],[-118.28895,34.58898],[-118.28655,34.58968],[-118.28857,34.5885],[-118.2891,34.58749],[-118.28888,34.58316],[-118.28774,34.58141]]]}},{"type":"Feature","properties":{"slug":"canyon-country","name":"Canyon Country","source_name":"Canyon Country","city_type":"Unincorporated","note":"CSA covers the unincorporated portion only. Most of Canyon Country lies inside the City of Santa Clarita.","neighbors":["agua-dulce","santa-clarita","saugus"]},"geometry":{"type":"MultiPolygon","coordinates":[[[[-118.4462,34.47393],[-118.44341,34.47387],[-118.4407,34.47295],[-118.4384,34.47361],[-118.43751,34.47357],[-118.43474,34.47135],[-118.42997,34.47047],[-118.42593,34.46838],[-118.42253,34.46437],[-118.42149,34.46258],[-118.421,34.45978],[-118.42155,34.45598],[-118.42121,34.4551],[-118.42028,34.45433],[-118.41936,34.45568],[-118.41689,34.45448],[-118.41389,34.45419],[-118.41297,34.45298],[-118.41075,34.45302],[-118.40957,34.45344],[-118.4069,34.45533],[-118.40445,34.45593],[-118.40281,34.45593],[-118.40264,34.45422],[-118.40035,34.45343],[-118.39934,34.45236],[-118.39936,34.45187],[-118.40027,34.45137],[-118.40001,34.44965],[-118.40283,34.44952],[-118.4024,34.44725],[-118.4029,34.44641],[-118.40347,34.44667],[-118.40498,34.44581],[-118.40549,34.44654],[-118.40623,34.44666],[-118.40624,34.44578],[-118.41508,34.44557],[-118.4152,34.4401],[-118.42389,34.44002],[-118.42391,34.4391],[-118.42825,34.43905],[-118.42826,34.4373],[-118.43058,34.43796],[-118.4326,34.43811],[-118.4325,34.44644],[-118.43348,34.44684],[-118.43346,34.44886],[-118.43412,34.44913],[-118.43414,34.44977],[-118.43515,34.44977],[-118.43516,34.44888],[-118.43665,34.44888],[-118.43628,34.45075],[-118.43686,34.45075],[-118.43686,34.45255],[-118.44127,34.4525],[-118.44128,34.45608],[-118.44348,34.45605],[-118.44349,34.45964],[-118.46145,34.45949],[-118.46787,34.45347],[-118.47209,34.45392],[-118.47209,34.4559],[-118.48101,34.45601],[-118.48082,34.45962],[-118.48586,34.45968],[-118.48424,34.4608],[-118.48292,34.46299],[-118.48221,34.4636],[-118.47713,34.46584],[-118.47398,34.46652],[-118.47232,34.46768],[-118.47116,34.46903],[-118.46893,34.47072],[-118.46762,34.47382],[-118.45498,34.47388],[-118.44834,34.47483],[-118.4462,34.47393]]],[[[-118.387,34.43451],[-118.38464,34.43295],[-118.38239,34.43231],[-118.38206,34.43191],[-118.37991,34.43102],[-118.37868,34.43128],[-118.37619,34.42393],[-118.39764,34.42416],[-118.3976,34.42701],[-118.40029,34.4268],[-118.40266,34.42565],[-118.40422,34.42563],[-118.40422,34.42653],[-118.40356,34.42653],[-118.40355,34.42708],[-118.40422,34.42708],[-118.40421,34.42848],[-118.39248,34.43349],[-118.39003,34.43396],[-118.38705,34.4337],[-118.387,34.43451]]]]}},{"type":"Feature","properties":{"slug":"castaic","name":"Castaic","source_name":"Castaic","city_type":"Unincorporated","neighbors":["bouquet-canyon","lake-hughes","san-francisquito-canyon","santa-clarita","val-verde","valencia"]},"geometry":{"type":"Polygon","coordinates":[[[-118.43641,34.68842],[-118.43485,34.68659],[-118.43466,34.68254],[-118.43535,34.68108],[-118.43633,34.68145],[-118.43815,34.68156],[-118.43863,34.68227],[-118.43985,34.68231],[-118.44082,34.68355],[-118.44163,34.68281],[-118.44256,34.68284],[-118.44258,34.68026],[-118.44444,34.68048],[-118.44458,34.67925],[-118.44495,34.67895],[-118.44638,34.67893],[-118.44644,34.6779],[-118.44713,34.67781],[-118.44711,34.67737],[-118.44942,34.67771],[-118.45213,34.67901],[-118.45261,34.6775],[-118.45411,34.6778],[-118.45531,34.67758],[-118.45595,34.67607],[-118.45819,34.67808],[-118.45874,34.67734],[-118.45893,34.67624],[-118.45829,34.67604],[-118.45777,34.67478],[-118.45791,34.67428],[-118.45742,34.67357],[-118.45858,34.67191],[-118.45914,34.67201],[-118.4588,34.67091],[-118.45761,34.67072],[-118.45743,34.67033],[-118.45794,34.66973],[-118.45744,34.66858],[-118.45771,34.66744],[-118.45863,34.66838],[-118.45953,34.66847],[-118.45933,34.6676],[-118.45986,34.66687],[-118.46128,34.66676],[-118.45895,34.66155],[-118.4605,34.65962],[-118.46285,34.6581],[-118.46281,34.65689],[-118.46366,34.6554],[-118.46501,34.65455],[-118.46665,34.65505],[-118.47286,34.65373],[-118.47667,34.65415],[-118.47942,34.65385],[-118.48127,34.65237],[-118.48039,34.65125],[-118.48053,34.65058],[-118.47973,34.65125],[-118.47837,34.65098],[-118.47745,34.65172],[-118.47765,34.65132],[-118.47696,34.64986],[-118.47114,34.6482],[-118.46926,34.64857],[-118.45964,34.64576],[-118.45774,34.64628],[-118.45407,34.64557],[-118.45208,34.64577],[-118.44962,34.64554],[-118.44208,34.64306],[-118.44131,34.64325],[-118.4411,34.64382],[-118.44045,34.64428],[-118.43914,34.64426],[-118.43833,34.6446],[-118.4372,34.64426],[-118.435,34.6444],[-118.43503,34.64517],[-118.43477,34.6454],[-118.43164,34.64658],[-118.43135,34.64701],[-118.43048,34.64667],[-118.42965,34.64749],[-118.42929,34.64718],[-118.4289,34.64729],[-118.42818,34.64797],[-118.4261,34.64703],[-118.42574,34.64752],[-118.42263,34.649],[-118.41997,34.64863],[-118.41908,34.64811],[-118.4179,34.64795],[-118.41719,34.64844],[-118.41676,34.64822],[-118.41534,34.64836],[-118.41431,34.64703],[-118.41422,34.64798],[-118.4138,34.64831],[-118.4126,34.64829],[-118.41162,34.64764],[-118.41121,34.64817],[-118.40906,34.64798],[-118.40859,34.64717],[-118.40749,34.64704],[-118.40736,34.64648],[-118.40792,34.64615],[-118.40761,34.64583],[-118.40788,34.64519],[-118.4059,34.64558],[-118.40606,34.64479],[-118.40662,34.64424],[-118.40565,34.6439],[-118.40561,34.64247],[-118.40455,34.64233],[-118.40385,34.64287],[-118.4041,34.64175],[-118.40363,34.64142],[-118.40275,34.64118],[-118.4021,34.64158],[-118.40187,34.641],[-118.40104,34.64113],[-118.39939,34.64009],[-118.39794,34.64017],[-118.39725,34.63943],[-118.39446,34.63903],[-118.39388,34.63972],[-118.39293,34.63966],[-118.39279,34.63926],[-118.39199,34.63936],[-118.39167,34.63908],[-118.39105,34.63959],[-118.39111,34.63999],[-118.39054,34.64023],[-118.38845,34.63935],[-118.38788,34.63965],[-118.38616,34.63915],[-118.3854,34.63971],[-118.38468,34.63949],[-118.384,34.63967],[-118.38347,34.6393],[-118.38287,34.63931],[-118.38236,34.6398],[-118.38185,34.63941],[-118.3808,34.63955],[-118.38878,34.63537],[-118.39217,34.63301],[-118.39581,34.63101],[-118.40028,34.62934],[-118.40401,34.62849],[-118.40923,34.62579],[-118.4156,34.62082],[-118.41956,34.61853],[-118.42129,34.61714],[-118.42488,34.61575],[-118.4262,34.61471],[-118.42872,34.61373],[-118.43266,34.61386],[-118.43711,34.61199],[-118.43885,34.61087],[-118.44102,34.61021],[-118.44429,34.60867],[-118.44571,34.60725],[-118.44801,34.60177],[-118.44851,34.59921],[-118.44843,34.59735],[-118.44988,34.59423],[-118.45064,34.5937],[-118.4525,34.59344],[-118.45432,34.59262],[-118.45299,34.59265],[-118.45179,34.59209],[-118.45137,34.59247],[-118.45076,34.5917],[-118.45103,34.59087],[-118.45215,34.59006],[-118.45161,34.58952],[-118.449,34.59063],[-118.44924,34.59112],[-118.44886,34.59138],[-118.44862,34.5913],[-118.44875,34.59057],[-118.4506,34.58898],[-118.45124,34.58746],[-118.45465,34.58654],[-118.45389,34.58471],[-118.45379,34.58362],[-118.45591,34.58285],[-118.45635,34.58192],[-118.45747,34.58163],[-118.45878,34.58039],[-118.45908,34.58044],[-118.45974,34.57917],[-118.45976,34.57712],[-118.46011,34.576],[-118.46176,34.57361],[-118.46366,34.57218],[-118.465,34.56944],[-118.46897,34.56814],[-118.47184,34.56778],[-118.47604,34.56664],[-118.48884,34.56173],[-118.49183,34.56021],[-118.495,34.55772],[-118.49813,34.55591],[-118.51067,34.55129],[-118.5117,34.54931],[-118.51266,34.54823],[-118.513,34.54719],[-118.51458,34.54623],[-118.51705,34.54558],[-118.51763,34.54506],[-118.51994,34.54153],[-118.52258,34.53911],[-118.52281,34.53801],[-118.5238,34.5366],[-118.52445,34.53655],[-118.52549,34.53754],[-118.52697,34.53646],[-118.52716,34.53621],[-118.5269,34.53572],[-118.52568,34.53506],[-118.52577,34.53416],[-118.52655,34.53342],[-118.52814,34.53345],[-118.52891,34.53259],[-118.52816,34.53152],[-118.52841,34.53],[-118.52809,34.5289],[-118.52844,34.52777],[-118.52905,34.52748],[-118.53137,34.52791],[-118.53176,34.52761],[-118.53172,34.5258],[-118.53239,34.52504],[-118.53151,34.52345],[-118.53248,34.5225],[-118.53268,34.52154],[-118.53347,34.52109],[-118.53396,34.52022],[-118.53345,34.51736],[-118.53425,34.51561],[-118.53452,34.51259],[-118.53734,34.50663],[-118.53725,34.50507],[-118.53861,34.50269],[-118.53974,34.4982],[-118.54152,34.49599],[-118.54202,34.49487],[-118.54255,34.4849],[-118.54156,34.4811],[-118.54379,34.47662],[-118.54441,34.47426],[-118.54673,34.47123],[-118.54744,34.46782],[-118.55083,34.46955],[-118.55282,34.46888],[-118.55262,34.46943],[-118.55351,34.47026],[-118.55393,34.47119],[-118.55706,34.47324],[-118.55769,34.47412],[-118.55787,34.47525],[-118.55859,34.47568],[-118.55965,34.476],[-118.56107,34.47563],[-118.56065,34.47519],[-118.56107,34.47513],[-118.56119,34.47442],[-118.5624,34.47596],[-118.56316,34.47637],[-118.56443,34.4764],[-118.56574,34.47753],[-118.56681,34.47752],[-118.56839,34.47648],[-118.56838,34.47495],[-118.56898,34.47459],[-118.56933,34.47312],[-118.56983,34.47294],[-118.5708,34.47068],[-118.57238,34.47023],[-118.57498,34.46804],[-118.57359,34.46789],[-118.57355,34.46407],[-118.57497,34.46275],[-118.57453,34.46132],[-118.57755,34.46098],[-118.5813,34.46101],[-118.58686,34.45572],[-118.58436,34.45399],[-118.58298,34.45028],[-118.58135,34.44745],[-118.58793,34.44732],[-118.5898,34.44803],[-118.59639,34.4466],[-118.59762,34.44778],[-118.59857,34.44816],[-118.59917,34.44775],[-118.59989,34.44792],[-118.60083,34.44724],[-118.60368,34.44707],[-118.60593,34.44946],[-118.60729,34.44905],[-118.60864,34.4491],[-118.6089,34.44965],[-118.61059,34.45053],[-118.61322,34.4497],[-118.61465,34.45164],[-118.61548,34.45345],[-118.61671,34.45314],[-118.61686,34.45122],[-118.61864,34.44901],[-118.61894,34.44586],[-118.61831,34.44474],[-118.6226,34.44672],[-118.62364,34.4478],[-118.62397,34.44876],[-118.62927,34.45054],[-118.63082,34.45135],[-118.63294,34.45266],[-118.6352,34.45506],[-118.63878,34.45685],[-118.64289,34.45731],[-118.64862,34.45933],[-118.65131,34.45938],[-118.65802,34.46103],[-118.65933,34.46188],[-118.66137,34.46455],[-118.66702,34.46752],[-118.67072,34.47242],[-118.67352,34.47462],[-118.67767,34.47599],[-118.68058,34.47607],[-118.68169,34.4764],[-118.68406,34.47818],[-118.68586,34.47885],[-118.68719,34.4789],[-118.68819,34.47946],[-118.68886,34.48026],[-118.68952,34.47947],[-118.69048,34.47928],[-118.6904,34.47885],[-118.69088,34.47843],[-118.69183,34.47823],[-118.69271,34.47842],[-118.69356,34.47812],[-118.69456,34.4775],[-118.69408,34.47725],[-118.6945,34.4768],[-118.69773,34.47524],[-118.70052,34.47531],[-118.70196,34.47475],[-118.70266,34.47386],[-118.70415,34.47432],[-118.70951,34.47258],[-118.71149,34.47232],[-118.71297,34.47299],[-118.71572,34.47315],[-118.71703,34.47441],[-118.71847,34.47482],[-118.72037,34.47617],[-118.72256,34.47625],[-118.72536,34.4747],[-118.72658,34.47451],[-118.82093,34.66586],[-118.81981,34.66624],[-118.81822,34.66586],[-118.81869,34.66432],[-118.81761,34.66342],[-118.81752,34.6614],[-118.81553,34.66131],[-118.81333,34.6605],[-118.81106,34.66086],[-118.80921,34.66187],[-118.80808,34.66157],[-118.80765,34.66042],[-118.80673,34.65938],[-118.80702,34.65892],[-118.80583,34.65753],[-118.80428,34.65683],[-118.80202,34.65701],[-118.80068,34.65754],[-118.80023,34.65816],[-118.79893,34.65723],[-118.79878,34.65786],[-118.79939,34.65851],[-118.79922,34.65909],[-118.79882,34.65916],[-118.7974,34.65857],[-118.79505,34.65919],[-118.79119,34.65903],[-118.79,34.65931],[-118.78977,34.65857],[-118.78931,34.65825],[-118.78897,34.65664],[-118.78588,34.65671],[-118.78562,34.65744],[-118.78526,34.65656],[-118.78573,34.6553],[-118.78504,34.65532],[-118.78437,34.65446],[-118.78446,34.65351],[-118.78481,34.6531],[-118.78465,34.6522],[-118.78308,34.65245],[-118.78298,34.65273],[-118.78012,34.65239],[-118.77997,34.65184],[-118.77941,34.65165],[-118.77902,34.65086],[-118.77842,34.65079],[-118.77843,34.65013],[-118.77775,34.64944],[-118.77708,34.64943],[-118.77724,34.64898],[-118.77663,34.6485],[-118.77694,34.64827],[-118.77623,34.64824],[-118.77547,34.64895],[-118.77471,34.64894],[-118.77431,34.64887],[-118.77406,34.64821],[-118.77093,34.64799],[-118.77128,34.647],[-118.7706,34.64623],[-118.77236,34.645],[-118.77193,34.64471],[-118.77067,34.64484],[-118.77044,34.64383],[-118.76908,34.64334],[-118.76668,34.64356],[-118.76555,34.64424],[-118.7624,34.64412],[-118.76244,34.64452],[-118.76096,34.64498],[-118.76071,34.64553],[-118.761,34.64599],[-118.76074,34.64625],[-118.75986,34.64643],[-118.75886,34.64611],[-118.75857,34.64665],[-118.75712,34.64696],[-118.75659,34.64796],[-118.75298,34.6493],[-118.75426,34.65233],[-118.75462,34.6578],[-118.75549,34.65988],[-118.75666,34.66139],[-118.7619,34.66528],[-118.76476,34.66976],[-118.76602,34.67109],[-118.76878,34.67269],[-118.77435,34.67443],[-118.77701,34.67625],[-118.77812,34.67764],[-118.77956,34.68035],[-118.78692,34.68876],[-118.79213,34.69825],[-118.79367,34.7027],[-118.79797,34.71253],[-118.79899,34.72406],[-118.79896,34.72704],[-118.79548,34.74851],[-118.79379,34.75157],[-118.79174,34.75268],[-118.7917,34.7535],[-118.7903,34.75378],[-118.78609,34.75118],[-118.77893,34.75737],[-118.77968,34.75824],[-118.76592,34.75362],[-118.76593,34.74727],[-118.76227,34.74748],[-118.757,34.74729],[-118.7571,34.73968],[-118.74748,34.73918],[-118.74715,34.73157],[-118.7294,34.73164],[-118.71221,34.72966],[-118.71251,34.7311],[-118.71238,34.74461],[-118.71204,34.74433],[-118.7112,34.74484],[-118.71055,34.74446],[-118.70869,34.74524],[-118.7082,34.74459],[-118.70741,34.74483],[-118.70459,34.74436],[-118.70419,34.74454],[-118.70416,34.74524],[-118.6735,34.74387],[-118.64253,34.73462],[-118.64197,34.72932],[-118.6251,34.72932],[-118.62427,34.72944],[-118.62427,34.73074],[-118.60411,34.73085],[-118.60313,34.72924],[-118.60194,34.72818],[-118.60213,34.72757],[-118.60436,34.72483],[-118.60191,34.72467],[-118.60389,34.72192],[-118.60298,34.72186],[-118.60622,34.71741],[-118.58707,34.71684],[-118.58693,34.71551],[-118.56975,34.71516],[-118.56145,34.7161],[-118.56201,34.71333],[-118.56193,34.71001],[-118.55714,34.71065],[-118.54459,34.709],[-118.53977,34.70984],[-118.53921,34.71076],[-118.53863,34.71007],[-118.52835,34.71008],[-118.52776,34.70321],[-118.51814,34.7029],[-118.44743,34.70302],[-118.44725,34.70229],[-118.43843,34.70244],[-118.43816,34.68839],[-118.43641,34.68842]]]}},{"type":"Feature","properties":{"slug":"lake-hughes","name":"Lake Hughes","source_name":"Lake Hughes","city_type":"Unincorporated","neighbors":["bouquet-canyon","castaic"]},"geometry":{"type":"Polygon","coordinates":[[[-118.3782,34.64483],[-118.37844,34.64417],[-118.37787,34.64181],[-118.37856,34.64083],[-118.38041,34.63969],[-118.38178,34.6394],[-118.38236,34.6398],[-118.38291,34.6393],[-118.3854,34.63971],[-118.38616,34.63915],[-118.38788,34.63965],[-118.38845,34.63935],[-118.39054,34.64023],[-118.39111,34.63999],[-118.39105,34.63959],[-118.39167,34.63908],[-118.39199,34.63936],[-118.39279,34.63926],[-118.39293,34.63966],[-118.39388,34.63972],[-118.39434,34.63908],[-118.39498,34.63903],[-118.39725,34.63943],[-118.39814,34.64023],[-118.39947,34.64011],[-118.40104,34.64113],[-118.40187,34.641],[-118.4021,34.64158],[-118.40275,34.64118],[-118.40363,34.64142],[-118.4041,34.64175],[-118.40385,34.64287],[-118.40455,34.64233],[-118.40561,34.64247],[-118.40565,34.6439],[-118.40662,34.64424],[-118.40606,34.64479],[-118.4059,34.64558],[-118.40788,34.64519],[-118.40761,34.64583],[-118.40792,34.64615],[-118.40736,34.64648],[-118.40749,34.64704],[-118.40859,34.64717],[-118.40906,34.64798],[-118.41121,34.64817],[-118.41162,34.64764],[-118.4126,34.64829],[-118.4138,34.64831],[-118.41422,34.64798],[-118.41431,34.64703],[-118.41534,34.64836],[-118.41676,34.64822],[-118.41719,34.64844],[-118.4179,34.64795],[-118.41908,34.64811],[-118.41997,34.64863],[-118.42263,34.649],[-118.42574,34.64752],[-118.4261,34.64703],[-118.42818,34.64797],[-118.4289,34.64729],[-118.42929,34.64718],[-118.42965,34.64749],[-118.43048,34.64667],[-118.43135,34.64701],[-118.43164,34.64658],[-118.43477,34.6454],[-118.43503,34.64517],[-118.435,34.6444],[-118.4372,34.64426],[-118.43833,34.6446],[-118.43914,34.64426],[-118.44045,34.64428],[-118.4411,34.64382],[-118.44131,34.64325],[-118.44208,34.64306],[-118.44962,34.64554],[-118.45208,34.64577],[-118.45407,34.64557],[-118.45774,34.64628],[-118.45964,34.64576],[-118.46926,34.64857],[-118.47114,34.6482],[-118.47696,34.64986],[-118.47765,34.65132],[-118.47745,34.65172],[-118.47837,34.65098],[-118.47988,34.65121],[-118.48048,34.65056],[-118.4804,34.65129],[-118.48127,34.65237],[-118.48022,34.65341],[-118.47908,34.65392],[-118.47667,34.65415],[-118.47286,34.65373],[-118.46665,34.65505],[-118.46501,34.65455],[-118.46349,34.65557],[-118.46278,34.657],[-118.46285,34.6581],[-118.4605,34.65962],[-118.45895,34.66155],[-118.46128,34.66676],[-118.45986,34.66687],[-118.45933,34.6676],[-118.45953,34.66847],[-118.45863,34.66838],[-118.45771,34.66744],[-118.45744,34.66858],[-118.45794,34.66973],[-118.45743,34.67033],[-118.45761,34.67072],[-118.4588,34.67091],[-118.45914,34.67201],[-118.45858,34.67191],[-118.45742,34.67357],[-118.45791,34.67428],[-118.45777,34.67478],[-118.45829,34.67604],[-118.45893,34.67624],[-118.45874,34.67734],[-118.45819,34.67808],[-118.45595,34.67607],[-118.45531,34.67758],[-118.45411,34.6778],[-118.45261,34.6775],[-118.45213,34.67901],[-118.44942,34.67771],[-118.44711,34.67737],[-118.44713,34.67781],[-118.44644,34.6779],[-118.44638,34.67893],[-118.44495,34.67895],[-118.44458,34.67925],[-118.44444,34.68048],[-118.44258,34.68026],[-118.44256,34.68284],[-118.44163,34.68281],[-118.44082,34.68355],[-118.43985,34.68231],[-118.43863,34.68227],[-118.43815,34.68156],[-118.43633,34.68145],[-118.43535,34.68108],[-118.43466,34.68254],[-118.43485,34.68659],[-118.43641,34.68842],[-118.42954,34.68838],[-118.42954,34.68794],[-118.41215,34.68807],[-118.4118,34.67419],[-118.40227,34.67399],[-118.40222,34.65932],[-118.39433,34.65934],[-118.39367,34.65899],[-118.39389,34.65775],[-118.39364,34.65774],[-118.39362,34.64634],[-118.39388,34.64507],[-118.3782,34.64483]]]}},{"type":"Feature","properties":{"slug":"newhall","name":"Newhall","source_name":"Newhall","city_type":"Unincorporated","note":"CSA covers the unincorporated portion only. Most of historic Newhall lies inside the City of Santa Clarita.","neighbors":["santa-clarita","stevenson-ranch"]},"geometry":{"type":"Polygon","coordinates":[[[-118.50946,34.34144],[-118.50868,34.33959],[-118.50513,34.33807],[-118.50402,34.33716],[-118.50836,34.3339],[-118.51299,34.33724],[-118.51956,34.34043],[-118.52637,34.34173],[-118.52806,34.3424],[-118.5295,34.34319],[-118.53205,34.34567],[-118.53435,34.34723],[-118.54687,34.3523],[-118.5514,34.35618],[-118.53341,34.35619],[-118.53329,34.35245],[-118.52403,34.35248],[-118.51973,34.35078],[-118.51975,34.34714],[-118.51511,34.34689],[-118.51524,34.34514],[-118.51057,34.34489],[-118.51088,34.3415],[-118.50946,34.34144]]]}},{"type":"Feature","properties":{"slug":"placerita-canyon","name":"Placerita Canyon","source_name":"Placerita Canyon","city_type":"Unincorporated","neighbors":["santa-clarita"]},"geometry":{"type":"Polygon","coordinates":[[[-118.4441,34.37817],[-118.4579,34.37881],[-118.46493,34.38053],[-118.46572,34.38028],[-118.4675,34.37884],[-118.46979,34.378],[-118.47199,34.37627],[-118.47914,34.37343],[-118.48062,34.37382],[-118.4821,34.37521],[-118.48328,34.37575],[-118.48834,34.375],[-118.48988,34.37512],[-118.49362,34.37763],[-118.48717,34.3831],[-118.47492,34.39151],[-118.47301,34.39254],[-118.47166,34.39163],[-118.47162,34.39119],[-118.46283,34.39123],[-118.46251,34.38461],[-118.44887,34.38469],[-118.44847,34.38074],[-118.4441,34.38079],[-118.4441,34.37817]]]}},{"type":"Feature","properties":{"slug":"san-francisquito-canyon","name":"San Francisquito Canyon","source_name":"San Francisquito Canyon/Bouquet Canyon","city_type":"Unincorporated","note":"Source polygon is the combined CSA \"San Francisquito Canyon/Bouquet Canyon\". It also covers Bouquet Canyon, which has its own separate CSA polygon in this file.","neighbors":["agua-dulce","bouquet-canyon","castaic","santa-clarita","saugus","valencia"]},"geometry":{"type":"Polygon","coordinates":[[[-118.28765,34.56327],[-118.28763,34.55818],[-118.30698,34.55831],[-118.30832,34.54024],[-118.34328,34.53992],[-118.34408,34.52566],[-118.36166,34.52569],[-118.3617,34.52247],[-118.36238,34.52179],[-118.36173,34.52124],[-118.36183,34.51117],[-118.37741,34.51076],[-118.37731,34.50862],[-118.37687,34.50832],[-118.37725,34.50455],[-118.38011,34.5037],[-118.37827,34.50238],[-118.37847,34.49621],[-118.38734,34.49614],[-118.3875,34.49032],[-118.38716,34.48151],[-118.38828,34.48125],[-118.39715,34.48151],[-118.44035,34.48128],[-118.44011,34.49594],[-118.44145,34.49594],[-118.458,34.49594],[-118.45845,34.49344],[-118.46037,34.4923],[-118.46223,34.49402],[-118.46326,34.49425],[-118.46547,34.4959],[-118.46613,34.49589],[-118.46616,34.48825],[-118.46712,34.48847],[-118.46715,34.48784],[-118.46787,34.48717],[-118.46934,34.48802],[-118.47491,34.48893],[-118.47515,34.48786],[-118.47517,34.48119],[-118.496,34.48158],[-118.5025,34.4824],[-118.50251,34.4853],[-118.49824,34.48521],[-118.49822,34.48888],[-118.49392,34.48879],[-118.49382,34.49614],[-118.51134,34.49628],[-118.51136,34.48896],[-118.52015,34.48894],[-118.52021,34.48166],[-118.53782,34.48171],[-118.53778,34.47684],[-118.53634,34.47628],[-118.53726,34.4762],[-118.53682,34.47574],[-118.53683,34.47525],[-118.53736,34.47436],[-118.53776,34.47455],[-118.53769,34.46309],[-118.54043,34.46644],[-118.54135,34.46657],[-118.54135,34.46579],[-118.54106,34.46555],[-118.54179,34.46486],[-118.54344,34.46495],[-118.54445,34.46677],[-118.54675,34.46681],[-118.54741,34.46774],[-118.54673,34.47123],[-118.54441,34.47426],[-118.54379,34.47662],[-118.54156,34.4811],[-118.54255,34.4849],[-118.54202,34.49487],[-118.54152,34.49599],[-118.53974,34.4982],[-118.53861,34.50269],[-118.53725,34.50507],[-118.53734,34.50663],[-118.53452,34.51259],[-118.53425,34.51561],[-118.53345,34.51736],[-118.53396,34.52022],[-118.53347,34.52109],[-118.53268,34.52154],[-118.53248,34.5225],[-118.53151,34.52345],[-118.53239,34.52504],[-118.53172,34.5258],[-118.53176,34.52761],[-118.53137,34.52791],[-118.52905,34.52748],[-118.52844,34.52777],[-118.52809,34.5289],[-118.52841,34.53],[-118.52816,34.53152],[-118.52891,34.53259],[-118.52814,34.53345],[-118.52655,34.53342],[-118.52577,34.53416],[-118.52568,34.53506],[-118.5269,34.53572],[-118.52716,34.53621],[-118.52697,34.53646],[-118.52549,34.53754],[-118.52445,34.53655],[-118.5238,34.5366],[-118.52281,34.53801],[-118.52258,34.53911],[-118.51994,34.54153],[-118.51763,34.54506],[-118.51705,34.54558],[-118.51458,34.54623],[-118.513,34.54719],[-118.51266,34.54823],[-118.5117,34.54931],[-118.51067,34.55129],[-118.49813,34.55591],[-118.495,34.55772],[-118.49183,34.56021],[-118.48884,34.56173],[-118.47604,34.56664],[-118.47184,34.56778],[-118.46897,34.56814],[-118.465,34.56944],[-118.46366,34.57218],[-118.46176,34.57361],[-118.46011,34.576],[-118.45976,34.57712],[-118.45974,34.57917],[-118.45908,34.58044],[-118.45878,34.58039],[-118.45747,34.58163],[-118.45635,34.58192],[-118.45591,34.58285],[-118.45379,34.58362],[-118.45389,34.58471],[-118.45465,34.58654],[-118.45112,34.58756],[-118.45071,34.58884],[-118.44885,34.59045],[-118.44862,34.5913],[-118.44797,34.59171],[-118.44678,34.59187],[-118.44623,34.59274],[-118.44622,34.59361],[-118.44216,34.59031],[-118.44189,34.59058],[-118.44291,34.59142],[-118.44197,34.59252],[-118.4407,34.59292],[-118.4376,34.59259],[-118.43602,34.59305],[-118.43482,34.59295],[-118.43394,34.59328],[-118.43341,34.59448],[-118.43272,34.59475],[-118.43014,34.59348],[-118.42906,34.59332],[-118.42694,34.59387],[-118.42541,34.59374],[-118.42393,34.59432],[-118.41656,34.59381],[-118.4144,34.59456],[-118.4116,34.59452],[-118.41021,34.59395],[-118.40859,34.59379],[-118.40675,34.59231],[-118.40521,34.59212],[-118.40453,34.59162],[-118.40352,34.59191],[-118.4031,34.59142],[-118.40336,34.591],[-118.40195,34.59048],[-118.3995,34.58997],[-118.39568,34.58865],[-118.39516,34.5882],[-118.39414,34.58851],[-118.39342,34.58834],[-118.39343,34.588],[-118.39397,34.58813],[-118.39488,34.58703],[-118.39826,34.58628],[-118.40024,34.58641],[-118.40029,34.58601],[-118.39956,34.58518],[-118.40172,34.58483],[-118.40198,34.58445],[-118.39931,34.58297],[-118.40058,34.58213],[-118.40004,34.58184],[-118.40003,34.58123],[-118.3993,34.58112],[-118.39932,34.58072],[-118.39892,34.58049],[-118.39823,34.58078],[-118.39761,34.58029],[-118.39706,34.58061],[-118.39622,34.58022],[-118.39595,34.58073],[-118.39512,34.5807],[-118.39471,34.58117],[-118.39356,34.58104],[-118.39316,34.58066],[-118.39247,34.58064],[-118.39013,34.57753],[-118.38896,34.57658],[-118.38745,34.57634],[-118.38794,34.57438],[-118.39048,34.5712],[-118.39093,34.57012],[-118.37793,34.55945],[-118.37625,34.56097],[-118.37361,34.56225],[-118.37183,34.56252],[-118.37038,34.56159],[-118.36892,34.56185],[-118.36835,34.56164],[-118.36744,34.56209],[-118.3658,34.56215],[-118.36484,34.56304],[-118.36359,34.56295],[-118.36234,34.56334],[-118.36183,34.56277],[-118.36105,34.56269],[-118.36008,34.56377],[-118.35962,34.56388],[-118.3591,34.56372],[-118.35918,34.56307],[-118.35848,34.56234],[-118.35732,34.5626],[-118.35585,34.56244],[-118.35488,34.56198],[-118.35465,34.56151],[-118.35322,34.56125],[-118.35256,34.56073],[-118.35032,34.56166],[-118.34984,34.56138],[-118.34927,34.56161],[-118.34854,34.56109],[-118.34787,34.56132],[-118.34722,34.56079],[-118.34628,34.56192],[-118.34574,34.56165],[-118.34498,34.56208],[-118.34359,34.56153],[-118.34277,34.56187],[-118.34125,34.56151],[-118.34008,34.56204],[-118.33887,34.56195],[-118.33762,34.5624],[-118.33641,34.56401],[-118.33374,34.56383],[-118.33276,34.56329],[-118.32894,34.56395],[-118.32731,34.56339],[-118.32521,34.56319],[-118.32131,34.5639],[-118.31564,34.56263],[-118.314,34.56167],[-118.31113,34.5614],[-118.30775,34.56267],[-118.30396,34.56319],[-118.30345,34.56359],[-118.2983,34.56353],[-118.29678,34.56415],[-118.29444,34.56438],[-118.29315,34.56422],[-118.29193,34.56313],[-118.28996,34.56391],[-118.28904,34.56393],[-118.28765,34.56327]]]}},{"type":"Feature","properties":{"slug":"sand-canyon","name":"Sand Canyon","source_name":"Sand Canyon","city_type":"Unincorporated","neighbors":["santa-clarita"]},"geometry":{"type":"Polygon","coordinates":[[[-118.39787,34.3991],[-118.39793,34.39405],[-118.39793,34.39442],[-118.40385,34.39457],[-118.40385,34.39764],[-118.40324,34.39853],[-118.40435,34.3987],[-118.40411,34.39913],[-118.40349,34.39903],[-118.40307,34.39936],[-118.40385,34.39966],[-118.40367,34.40046],[-118.40568,34.4007],[-118.40732,34.40273],[-118.4086,34.40352],[-118.40812,34.40515],[-118.40743,34.40572],[-118.40394,34.40649],[-118.40089,34.40366],[-118.40136,34.40334],[-118.40075,34.40274],[-118.40084,34.40171],[-118.39976,34.40016],[-118.39787,34.3991]]]}},{"type":"Feature","properties":{"slug":"santa-clarita","name":"Santa Clarita","source_name":"Santa Clarita (incorporated city)","city_type":"City","note":"City of Santa Clarita boundary. Incorporated 1987; it contains Newhall, Saugus, Valencia and Canyon Country.","neighbors":["agua-dulce","canyon-country","castaic","newhall","placerita-canyon","san-francisquito-canyon","sand-canyon","saugus","stevenson-ranch","val-verde","valencia"]},"geometry":{"type":"MultiPolygon","coordinates":[[[[-118.4939,34.49065],[-118.49392,34.48879],[-118.49822,34.48888],[-118.49824,34.48521],[-118.50251,34.4853],[-118.50253,34.4779],[-118.4983,34.47782],[-118.49834,34.47411],[-118.49411,34.47405],[-118.49412,34.4736],[-118.49149,34.47485],[-118.4897,34.47278],[-118.48971,34.47215],[-118.48529,34.4721],[-118.48527,34.47393],[-118.48085,34.47391],[-118.48089,34.46822],[-118.48532,34.46824],[-118.48508,34.46022],[-118.48588,34.45968],[-118.48082,34.45962],[-118.48101,34.45601],[-118.47209,34.4559],[-118.47209,34.45392],[-118.46787,34.45347],[-118.46145,34.45949],[-118.44349,34.45964],[-118.44348,34.45605],[-118.44128,34.45608],[-118.44127,34.4525],[-118.43686,34.45255],[-118.43686,34.45075],[-118.43628,34.45075],[-118.43665,34.44888],[-118.43516,34.44888],[-118.43515,34.44977],[-118.43414,34.44977],[-118.43412,34.44913],[-118.43346,34.44886],[-118.43348,34.44684],[-118.4325,34.44644],[-118.4326,34.43811],[-118.43058,34.43796],[-118.42826,34.4373],[-118.42825,34.43905],[-118.42391,34.4391],[-118.42389,34.44002],[-118.4152,34.4401],[-118.41508,34.44557],[-118.40624,34.44578],[-118.40623,34.44666],[-118.40549,34.44654],[-118.40498,34.44581],[-118.40347,34.44667],[-118.4029,34.44641],[-118.4024,34.44725],[-118.40283,34.44952],[-118.39989,34.44961],[-118.39962,34.44872],[-118.39738,34.44907],[-118.39732,34.44848],[-118.3981,34.44746],[-118.39767,34.44681],[-118.39631,34.44607],[-118.3946,34.44675],[-118.39562,34.44964],[-118.39736,34.44968],[-118.39733,34.45337],[-118.39354,34.45328],[-118.39416,34.45369],[-118.39387,34.45409],[-118.39354,34.45393],[-118.39227,34.45474],[-118.39239,34.45498],[-118.39406,34.4549],[-118.39394,34.45562],[-118.39431,34.4558],[-118.39407,34.45614],[-118.39277,34.45575],[-118.39267,34.45682],[-118.39235,34.45681],[-118.39247,34.46038],[-118.38801,34.46035],[-118.38771,34.45313],[-118.38886,34.45316],[-118.38908,34.44947],[-118.38878,34.44938],[-118.38888,34.44868],[-118.38841,34.44849],[-118.38922,34.44751],[-118.38771,34.44692],[-118.3877,34.44945],[-118.37872,34.44924],[-118.37896,34.4369],[-118.37988,34.43816],[-118.38115,34.4383],[-118.38247,34.43768],[-118.38208,34.43709],[-118.38207,34.43512],[-118.38435,34.4344],[-118.38602,34.43476],[-118.38711,34.43452],[-118.38705,34.4337],[-118.38983,34.43396],[-118.39201,34.43365],[-118.40421,34.42848],[-118.40422,34.42708],[-118.40355,34.42708],[-118.40356,34.42653],[-118.40422,34.42653],[-118.40422,34.42563],[-118.40266,34.42565],[-118.40029,34.4268],[-118.3976,34.42701],[-118.39787,34.3991],[-118.39976,34.40016],[-118.40084,34.40171],[-118.40075,34.40274],[-118.40136,34.40334],[-118.40089,34.40366],[-118.40394,34.40649],[-118.40743,34.40572],[-118.40812,34.40515],[-118.4086,34.40352],[-118.40732,34.40273],[-118.40568,34.4007],[-118.40367,34.40046],[-118.40385,34.39966],[-118.40307,34.39936],[-118.40349,34.39903],[-118.40411,34.39913],[-118.40435,34.3987],[-118.40324,34.39853],[-118.40385,34.39764],[-118.40385,34.39457],[-118.39793,34.39442],[-118.39801,34.3845],[-118.39806,34.38179],[-118.4056,34.38149],[-118.40561,34.35956],[-118.40957,34.3595],[-118.40945,34.37061],[-118.41322,34.37054],[-118.41326,34.36684],[-118.41549,34.36687],[-118.41553,34.36315],[-118.42,34.36319],[-118.41996,34.36692],[-118.41885,34.36691],[-118.4188,34.37061],[-118.42657,34.3707],[-118.42663,34.36699],[-118.43113,34.36702],[-118.43088,34.37447],[-118.43311,34.37448],[-118.4331,34.37537],[-118.43421,34.37538],[-118.43421,34.37628],[-118.43643,34.3763],[-118.43643,34.3772],[-118.43977,34.37722],[-118.4398,34.37452],[-118.44196,34.37454],[-118.44193,34.37816],[-118.4441,34.37816],[-118.4441,34.38079],[-118.44847,34.38074],[-118.44887,34.38469],[-118.46251,34.38461],[-118.46283,34.39123],[-118.47162,34.39119],[-118.47166,34.39163],[-118.47301,34.39254],[-118.47492,34.39151],[-118.48717,34.3831],[-118.49893,34.37287],[-118.50051,34.37056],[-118.49682,34.37053],[-118.49646,34.3669],[-118.49166,34.36684],[-118.49162,34.36959],[-118.48911,34.36957],[-118.4891,34.37043],[-118.48471,34.37038],[-118.48479,34.36675],[-118.47592,34.36628],[-118.47586,34.3591],[-118.48494,34.35959],[-118.48507,34.3516],[-118.48866,34.35163],[-118.48896,34.34447],[-118.50468,34.34457],[-118.50604,34.34131],[-118.51088,34.3415],[-118.51057,34.34489],[-118.51524,34.34514],[-118.51511,34.34689],[-118.51975,34.34714],[-118.51973,34.35078],[-118.52403,34.35248],[-118.53329,34.35245],[-118.53333,34.35616],[-118.5517,34.35618],[-118.5535,34.35808],[-118.55642,34.36525],[-118.56053,34.37084],[-118.56682,34.3807],[-118.57018,34.3893],[-118.57263,34.39985],[-118.57959,34.41606],[-118.58657,34.42935],[-118.58806,34.43107],[-118.59718,34.43873],[-118.60984,34.44564],[-118.61336,34.44969],[-118.61059,34.45053],[-118.6089,34.44965],[-118.60864,34.4491],[-118.60729,34.44905],[-118.60593,34.44946],[-118.60368,34.44707],[-118.60083,34.44724],[-118.59989,34.44792],[-118.59917,34.44775],[-118.59857,34.44816],[-118.59762,34.44778],[-118.59639,34.4466],[-118.5898,34.44803],[-118.58793,34.44732],[-118.58135,34.44745],[-118.58298,34.45028],[-118.58436,34.45399],[-118.58686,34.45572],[-118.5813,34.46101],[-118.57755,34.46098],[-118.57453,34.46132],[-118.57497,34.46275],[-118.57355,34.46407],[-118.57359,34.46789],[-118.57498,34.46804],[-118.57238,34.47023],[-118.57082,34.47068],[-118.56848,34.47036],[-118.56864,34.46977],[-118.56827,34.46899],[-118.56694,34.46968],[-118.56573,34.46738],[-118.56465,34.46634],[-118.56421,34.46647],[-118.5632,34.46517],[-118.5626,34.46495],[-118.55997,34.4623],[-118.5578,34.46309],[-118.5556,34.46315],[-118.55387,34.4669],[-118.54863,34.46619],[-118.54697,34.46681],[-118.54458,34.46682],[-118.54344,34.46495],[-118.54192,34.46484],[-118.54106,34.46555],[-118.54135,34.46579],[-118.54135,34.46657],[-118.54043,34.46644],[-118.53769,34.46309],[-118.53776,34.47455],[-118.53736,34.47436],[-118.53683,34.47525],[-118.53682,34.47574],[-118.53726,34.4762],[-118.53634,34.47628],[-118.53778,34.47684],[-118.53782,34.48171],[-118.52021,34.48166],[-118.52015,34.48894],[-118.51136,34.48896],[-118.51134,34.49628],[-118.49382,34.49614],[-118.4939,34.49065]]],[[[-118.55835,34.35987],[-118.556,34.35987],[-118.55546,34.35877],[-118.55603,34.35805],[-118.55795,34.35696],[-118.5584,34.35617],[-118.55893,34.35664],[-118.56053,34.3567],[-118.56095,34.35805],[-118.56596,34.35766],[-118.56554,34.35926],[-118.56481,34.3597],[-118.56344,34.35923],[-118.56175,34.35933],[-118.56135,34.35976],[-118.56061,34.35923],[-118.55953,34.35953],[-118.55912,34.35806],[-118.55912,34.35899],[-118.55836,34.35939],[-118.55835,34.35987]]],[[[-118.55593,34.35797],[-118.55557,34.35842],[-118.55488,34.35694],[-118.55572,34.35671],[-118.5571,34.35689],[-118.55801,34.35649],[-118.55784,34.35689],[-118.55593,34.35797]]],[[[-118.55557,34.35842],[-118.55556,34.35844],[-118.55556,34.35843],[-118.55557,34.35842]]]]}},{"type":"Feature","properties":{"slug":"saugus","name":"Saugus","source_name":"Saugus","city_type":"Unincorporated","note":"CSA covers the unincorporated portion only. Most of historic Saugus lies inside the City of Santa Clarita.","neighbors":["canyon-country","san-francisquito-canyon","santa-clarita"]},"geometry":{"type":"Polygon","coordinates":[[[-118.46037,34.4923],[-118.46448,34.4857],[-118.46513,34.48303],[-118.46616,34.4813],[-118.46559,34.47938],[-118.46615,34.47614],[-118.46734,34.4745],[-118.46893,34.47072],[-118.47398,34.46652],[-118.47713,34.46584],[-118.48221,34.4636],[-118.48292,34.46299],[-118.48424,34.4608],[-118.48586,34.45968],[-118.48508,34.46022],[-118.48532,34.46824],[-118.48089,34.46822],[-118.48085,34.47391],[-118.48527,34.47393],[-118.48529,34.4721],[-118.48971,34.47215],[-118.4897,34.47278],[-118.49149,34.47485],[-118.49412,34.4736],[-118.49411,34.47405],[-118.49834,34.47411],[-118.4983,34.47782],[-118.50253,34.4779],[-118.5025,34.4824],[-118.496,34.48158],[-118.47517,34.48119],[-118.47515,34.48786],[-118.47491,34.48893],[-118.46934,34.48802],[-118.46787,34.48717],[-118.46715,34.48784],[-118.46712,34.48847],[-118.46616,34.48825],[-118.46613,34.49589],[-118.46547,34.4959],[-118.46326,34.49425],[-118.46223,34.49402],[-118.46037,34.4923]]]}},{"type":"Feature","properties":{"slug":"stevenson-ranch","name":"Stevenson Ranch","source_name":"Stevenson Ranch","city_type":"Unincorporated","neighbors":["newhall","santa-clarita","val-verde"]},"geometry":{"type":"Polygon","coordinates":[[[-118.55275,34.35717],[-118.54687,34.3523],[-118.53435,34.34723],[-118.53205,34.34567],[-118.5295,34.34319],[-118.52806,34.3424],[-118.52637,34.34173],[-118.51956,34.34043],[-118.51299,34.33724],[-118.50836,34.3339],[-118.53403,34.31454],[-118.54345,34.31669],[-118.54309,34.31829],[-118.54361,34.3192],[-118.54375,34.32041],[-118.54422,34.32081],[-118.54398,34.32163],[-118.54439,34.32231],[-118.54592,34.32319],[-118.54737,34.32468],[-118.54883,34.32447],[-118.55144,34.32192],[-118.55489,34.32162],[-118.55556,34.32079],[-118.55701,34.32126],[-118.55808,34.32113],[-118.56052,34.32244],[-118.56367,34.32306],[-118.56514,34.32183],[-118.56609,34.32167],[-118.56824,34.32027],[-118.56855,34.3195],[-118.56974,34.31936],[-118.57161,34.31999],[-118.57266,34.32057],[-118.57292,34.32116],[-118.57461,34.322],[-118.57552,34.32337],[-118.57559,34.32432],[-118.57625,34.3254],[-118.57709,34.32577],[-118.57908,34.32493],[-118.58105,34.32524],[-118.58326,34.32437],[-118.58401,34.32438],[-118.58645,34.32583],[-118.58622,34.32653],[-118.58716,34.32698],[-118.58741,34.32753],[-118.59024,34.32779],[-118.59129,34.32746],[-118.59209,34.32775],[-118.59322,34.32994],[-118.59513,34.32889],[-118.59663,34.32902],[-118.5982,34.32981],[-118.59934,34.33065],[-118.59936,34.33116],[-118.60073,34.33198],[-118.60082,34.3336],[-118.60298,34.33555],[-118.60493,34.33659],[-118.60639,34.33683],[-118.60747,34.33761],[-118.60994,34.33832],[-118.61026,34.33983],[-118.61146,34.34067],[-118.61261,34.34284],[-118.61421,34.34393],[-118.61518,34.34538],[-118.61736,34.34619],[-118.6179,34.3468],[-118.61996,34.34746],[-118.62264,34.349],[-118.62451,34.34859],[-118.62562,34.34965],[-118.62692,34.3501],[-118.62912,34.3497],[-118.63257,34.35001],[-118.63301,34.35058],[-118.63565,34.35129],[-118.63653,34.35166],[-118.63678,34.3521],[-118.63937,34.35224],[-118.64034,34.35266],[-118.64187,34.35166],[-118.64275,34.3519],[-118.64436,34.35153],[-118.64636,34.35248],[-118.64745,34.35266],[-118.64929,34.35176],[-118.65021,34.3522],[-118.6517,34.35206],[-118.65335,34.35276],[-118.65367,34.35261],[-118.65373,34.35167],[-118.65558,34.35164],[-118.65838,34.35208],[-118.65917,34.35284],[-118.66067,34.35304],[-118.6607,34.35433],[-118.66188,34.35476],[-118.6623,34.35559],[-118.66219,34.35674],[-118.66552,34.35691],[-118.66646,34.35946],[-118.66775,34.36015],[-118.66967,34.36029],[-118.6706,34.3607],[-118.69291,34.40609],[-118.68813,34.40665],[-118.68355,34.40783],[-118.67932,34.40786],[-118.67313,34.4103],[-118.66825,34.41115],[-118.65934,34.41708],[-118.65594,34.42068],[-118.65393,34.42208],[-118.64744,34.42435],[-118.64316,34.42433],[-118.64108,34.42467],[-118.63071,34.42754],[-118.62596,34.42928],[-118.62407,34.43039],[-118.61835,34.43528],[-118.61447,34.43721],[-118.60708,34.44228],[-118.60535,34.44316],[-118.59696,34.43857],[-118.58806,34.43107],[-118.58642,34.42912],[-118.57959,34.41606],[-118.57263,34.39985],[-118.57018,34.3893],[-118.56682,34.3807],[-118.56053,34.37084],[-118.55642,34.36525],[-118.55385,34.35867],[-118.55275,34.35717]],[[-118.55557,34.35842],[-118.55784,34.35689],[-118.55801,34.35649],[-118.5571,34.35689],[-118.55572,34.35671],[-118.55488,34.35694],[-118.55557,34.35842]],[[-118.55795,34.35696],[-118.55603,34.35805],[-118.55546,34.35877],[-118.556,34.35987],[-118.55835,34.35987],[-118.55836,34.35939],[-118.55912,34.35899],[-118.55912,34.35806],[-118.55953,34.35953],[-118.56061,34.35923],[-118.56135,34.35976],[-118.56175,34.35933],[-118.56344,34.35923],[-118.56481,34.3597],[-118.56554,34.35926],[-118.56566,34.35838],[-118.56596,34.35818],[-118.56596,34.35766],[-118.56527,34.35754],[-118.56095,34.35805],[-118.56053,34.3567],[-118.55893,34.35664],[-118.5584,34.35617],[-118.55795,34.35696]]]}},{"type":"Feature","properties":{"slug":"val-verde","name":"Val Verde","source_name":"Val Verde","city_type":"Unincorporated","neighbors":["castaic","santa-clarita","stevenson-ranch"]},"geometry":{"type":"Polygon","coordinates":[[[-118.61322,34.4497],[-118.61015,34.44589],[-118.60535,34.44316],[-118.60708,34.44228],[-118.61447,34.43721],[-118.61835,34.43528],[-118.62502,34.42977],[-118.63071,34.42754],[-118.64108,34.42467],[-118.64316,34.42433],[-118.64744,34.42435],[-118.6532,34.42243],[-118.65594,34.42068],[-118.65934,34.41708],[-118.66855,34.41105],[-118.67313,34.4103],[-118.67932,34.40786],[-118.68355,34.40783],[-118.68813,34.40665],[-118.69291,34.40609],[-118.72658,34.47451],[-118.72536,34.4747],[-118.72256,34.47625],[-118.72037,34.47617],[-118.71847,34.47482],[-118.71703,34.47441],[-118.71572,34.47315],[-118.71297,34.47299],[-118.71149,34.47232],[-118.70951,34.47258],[-118.70415,34.47432],[-118.70266,34.47386],[-118.70196,34.47475],[-118.70052,34.47531],[-118.69773,34.47524],[-118.6945,34.4768],[-118.69408,34.47725],[-118.69456,34.4775],[-118.69356,34.47812],[-118.69271,34.47842],[-118.69183,34.47823],[-118.69088,34.47843],[-118.6904,34.47885],[-118.69048,34.47928],[-118.68952,34.47947],[-118.68886,34.48026],[-118.68819,34.47946],[-118.68719,34.4789],[-118.68586,34.47885],[-118.68406,34.47818],[-118.68169,34.4764],[-118.68058,34.47607],[-118.67767,34.47599],[-118.67352,34.47462],[-118.67072,34.47242],[-118.66702,34.46752],[-118.66137,34.46455],[-118.65933,34.46188],[-118.65802,34.46103],[-118.65131,34.45938],[-118.64862,34.45933],[-118.64289,34.45731],[-118.63878,34.45685],[-118.6352,34.45506],[-118.63294,34.45266],[-118.63082,34.45135],[-118.62927,34.45054],[-118.62397,34.44876],[-118.62364,34.4478],[-118.6226,34.44672],[-118.61831,34.44474],[-118.61894,34.44586],[-118.61869,34.44884],[-118.61686,34.45122],[-118.61671,34.45314],[-118.61548,34.45345],[-118.61465,34.45164],[-118.61322,34.4497]]]}},{"type":"Feature","properties":{"slug":"valencia","name":"Valencia","source_name":"Valencia","city_type":"Unincorporated","note":"CSA covers the unincorporated portion only. Most of Valencia lies inside the City of Santa Clarita.","neighbors":["castaic","san-francisquito-canyon","santa-clarita"]},"geometry":{"type":"Polygon","coordinates":[[[-118.54744,34.46782],[-118.54675,34.46681],[-118.54863,34.46619],[-118.55387,34.4669],[-118.5556,34.46315],[-118.5578,34.46309],[-118.55997,34.4623],[-118.5626,34.46495],[-118.5632,34.46517],[-118.56421,34.46647],[-118.56465,34.46634],[-118.56573,34.46738],[-118.56694,34.46968],[-118.56827,34.46899],[-118.56864,34.46977],[-118.56848,34.47036],[-118.5708,34.47068],[-118.56983,34.47294],[-118.56933,34.47312],[-118.56898,34.47459],[-118.56838,34.47495],[-118.56839,34.47648],[-118.56681,34.47752],[-118.56574,34.47753],[-118.56443,34.4764],[-118.56316,34.47637],[-118.5624,34.47596],[-118.56119,34.47442],[-118.56107,34.47513],[-118.56065,34.47519],[-118.56107,34.47563],[-118.55965,34.476],[-118.55859,34.47568],[-118.55787,34.47525],[-118.55769,34.47412],[-118.55706,34.47324],[-118.55393,34.47119],[-118.55351,34.47026],[-118.55262,34.46943],[-118.55282,34.46888],[-118.55083,34.46955],[-118.54744,34.46782]]]}}]}