{"type":"FeatureCollection","meta":{"built":"2026-09-29","by":"scripts/import/build_school_map.py","latestYear":2024,"note":"Schools from 1987 on (NCES). Earlier schools are not in the federal directory; the archive holds Felton School (1885-1932), not yet located.","dropped":["NEWHALL ELEMENTARY SCHOOL","SULPHUR SPRINGS UNION ELEM","WILLIAM S HART UNION HIGH"],"unplaced":["HONBY ELEMENTARY","SOLEDAD CANYON COMMUNITY ELEME","PASSPORT ACADEMY"]},"features":[{"type":"Feature","geometry":{"type":"Polygon","coordinates":[[[-118.79666,34.61657],[-118.65118,34.32114],[-118.60625,34.32143],[-118.6063,34.3239],[-118.6049,34.32398],[-118.52181,34.32373],[-118.50736,34.33462],[-118.50848,34.33564],[-118.50947,34.33811],[-118.51983,34.33816],[-118.51972,34.35078],[-118.50627,34.34558],[-118.50484,34.34455],[-118.50428,34.34559],[-118.50383,34.3482],[-118.50463,34.35152],[-118.44911,34.35173],[-118.43234,34.35224],[-118.42552,34.352],[-118.39762,34.35235],[-118.39714,34.33724],[-118.3648,34.3371],[-118.3608,34.33713],[-118.36081,34.35163],[-118.34829,34.35206],[-118.3483,34.35167],[-118.32602,34.35153],[-118.32501,34.43761],[-118.33535,34.43562],[-118.35151,34.43693],[-118.36054,34.43813],[-118.36045,34.44563],[-118.3613,34.45283],[-118.36111,34.46749],[-118.37954,34.46764],[-118.3791,34.47912],[-118.37908,34.4865],[-118.37942,34.48736],[-118.37905,34.48759],[-118.37896,34.49619],[-118.37938,34.50194],[-118.3797,34.50211],[-118.37948,34.50266],[-118.37943,34.5112],[-118.37815,34.53976],[-118.3775,34.53902],[-118.37734,34.54415],[-118.37795,34.54415],[-118.37721,34.55864],[-118.37591,34.55863],[-118.37563,34.57318],[-118.38298,34.57318],[-118.38298,34.58049],[-118.39315,34.58054],[-118.39318,34.6019],[-118.4583,34.60178],[-118.51888,34.60249],[-118.51895,34.6169],[-118.54972,34.61698],[-118.55823,34.61736],[-118.55832,34.61714],[-118.56088,34.61714],[-118.71416,34.61811],[-118.71535,34.6178],[-118.74604,34.61779],[-118.79666,34.61657]]]},"properties":{"kind":"district","leaid":"0642510","slug":"william-s-hart-union-high-school-district","title":"William S. Hart Union High School District","role":"high","censusName":"William S. Hart Union High School District","censusGrades":"7-12","source":"U.S. Census Bureau, TIGERweb, school districts, GEOID 0642510"}},{"type":"Feature","geometry":{"type":"Polygon","coordinates":[[[-118.69135,34.40304],[-118.65118,34.32114],[-118.60625,34.32143],[-118.6063,34.3239],[-118.6049,34.32398],[-118.52181,34.32373],[-118.50736,34.33462],[-118.50848,34.33564],[-118.50947,34.33811],[-118.51983,34.33816],[-118.51972,34.35078],[-118.50627,34.34558],[-118.50484,34.34455],[-118.50428,34.34559],[-118.50383,34.3482],[-118.50463,34.35152],[-118.44911,34.35173],[-118.44839,34.37849],[-118.45349,34.37841],[-118.45788,34.3788],[-118.46473,34.38055],[-118.46571,34.38028],[-118.46749,34.37883],[-118.46978,34.37799],[-118.47198,34.37626],[-118.47565,34.37501],[-118.47846,34.3735],[-118.48022,34.37363],[-118.48231,34.37537],[-118.48326,34.37575],[-118.48867,34.37497],[-118.49048,34.37538],[-118.49429,34.37814],[-118.49309,34.37982],[-118.49059,34.38508],[-118.48894,34.38986],[-118.48729,34.39302],[-118.48607,34.39456],[-118.49117,34.39461],[-118.50139,34.39409],[-118.51202,34.39416],[-118.51152,34.40903],[-118.53719,34.4092],[-118.5406,34.40886],[-118.54129,34.41126],[-118.54292,34.41356],[-118.54379,34.41423],[-118.54965,34.41594],[-118.55074,34.41418],[-118.55276,34.41314],[-118.56109,34.41311],[-118.5625,34.41281],[-118.56397,34.4119],[-118.56582,34.40953],[-118.56718,34.40878],[-118.56903,34.40858],[-118.57147,34.40913],[-118.57338,34.40916],[-118.57644,34.40829],[-118.58094,34.41837],[-118.59465,34.40894],[-118.60778,34.40906],[-118.60763,34.43517],[-118.61207,34.43526],[-118.61343,34.4348],[-118.61658,34.43129],[-118.61715,34.42977],[-118.61863,34.4287],[-118.61887,34.42742],[-118.61956,34.42658],[-118.62097,34.42611],[-118.62334,34.42419],[-118.62441,34.42312],[-118.62606,34.42057],[-118.63111,34.41791],[-118.6322,34.4186],[-118.63963,34.41889],[-118.64216,34.41928],[-118.64611,34.41814],[-118.64937,34.41799],[-118.65036,34.41753],[-118.65134,34.41655],[-118.65264,34.41632],[-118.65633,34.41469],[-118.65826,34.41308],[-118.66447,34.40967],[-118.66544,34.40823],[-118.66673,34.40793],[-118.66761,34.40667],[-118.66967,34.4059],[-118.6706,34.4061],[-118.67178,34.40595],[-118.67291,34.40536],[-118.67528,34.40542],[-118.67749,34.40501],[-118.68099,34.40355],[-118.68292,34.40399],[-118.68776,34.40273],[-118.69135,34.40304]]]},"properties":{"kind":"district","leaid":"0627180","slug":"newhall-school-district","title":"Newhall School District","role":"elementary","censusName":"Newhall Elementary School District","censusGrades":"K-6","source":"U.S. Census Bureau, TIGERweb, school districts, GEOID 0627180"}},{"type":"Feature","geometry":{"type":"Polygon","coordinates":[[[-118.60778,34.40914],[-118.59465,34.40894],[-118.58094,34.41837],[-118.57644,34.40829],[-118.57338,34.40916],[-118.57147,34.40913],[-118.56903,34.40858],[-118.56718,34.40878],[-118.56582,34.40953],[-118.56397,34.4119],[-118.5625,34.41281],[-118.56109,34.41311],[-118.55276,34.41314],[-118.55074,34.41418],[-118.54965,34.41594],[-118.54379,34.41423],[-118.54292,34.41356],[-118.54129,34.41126],[-118.5406,34.40886],[-118.53719,34.4092],[-118.51152,34.40903],[-118.51202,34.39416],[-118.50139,34.39409],[-118.49117,34.39461],[-118.48607,34.39456],[-118.4849,34.39554],[-118.48494,34.40069],[-118.48598,34.40073],[-118.48598,34.40182],[-118.48749,34.40179],[-118.48751,34.40263],[-118.48892,34.40225],[-118.48874,34.40332],[-118.48807,34.4035],[-118.48779,34.404],[-118.48818,34.40433],[-118.48817,34.40542],[-118.4849,34.40546],[-118.48455,34.40484],[-118.48319,34.40535],[-118.48274,34.40452],[-118.48099,34.40473],[-118.48011,34.40394],[-118.47947,34.40437],[-118.47832,34.40322],[-118.47778,34.40315],[-118.47785,34.40456],[-118.47652,34.40472],[-118.47618,34.40536],[-118.47609,34.4098],[-118.47616,34.41059],[-118.47652,34.41059],[-118.47653,34.41087],[-118.47615,34.41088],[-118.47616,34.41162],[-118.47715,34.41269],[-118.47834,34.41269],[-118.4784,34.41376],[-118.47878,34.41411],[-118.48121,34.4143],[-118.48216,34.4147],[-118.48288,34.41543],[-118.48326,34.41669],[-118.48279,34.4167],[-118.48263,34.41606],[-118.48087,34.41677],[-118.47798,34.41489],[-118.4771,34.41465],[-118.47531,34.41503],[-118.47265,34.41384],[-118.47219,34.41536],[-118.472,34.42376],[-118.47055,34.42572],[-118.46831,34.42716],[-118.4675,34.42716],[-118.46741,34.42761],[-118.46787,34.42772],[-118.46757,34.42876],[-118.46786,34.42991],[-118.46754,34.42995],[-118.46758,34.43797],[-118.45,34.43803],[-118.45004,34.46658],[-118.44008,34.46679],[-118.43912,34.46762],[-118.43841,34.46686],[-118.43499,34.46695],[-118.4346,34.46636],[-118.43395,34.46695],[-118.43257,34.46698],[-118.4326,34.46976],[-118.43226,34.46987],[-118.43251,34.47054],[-118.432,34.48078],[-118.43163,34.50465],[-118.43054,34.53993],[-118.38367,34.53989],[-118.37816,34.53977],[-118.3775,34.53902],[-118.37734,34.54415],[-118.37795,34.54415],[-118.37721,34.55864],[-118.37591,34.55863],[-118.37563,34.57318],[-118.38298,34.57318],[-118.38298,34.58049],[-118.39315,34.58054],[-118.39318,34.6019],[-118.4583,34.60178],[-118.46529,34.60206],[-118.51891,34.60244],[-118.51847,34.57345],[-118.51962,34.55903],[-118.52816,34.55899],[-118.52851,34.54015],[-118.53748,34.54016],[-118.53768,34.5181],[-118.54669,34.5181],[-118.54679,34.50361],[-118.55542,34.50367],[-118.55545,34.4963],[-118.5736,34.49638],[-118.57298,34.47096],[-118.57259,34.47091],[-118.57259,34.46337],[-118.57185,34.46325],[-118.57177,34.46244],[-118.57284,34.4619],[-118.57232,34.46149],[-118.57274,34.46123],[-118.57235,34.46094],[-118.57284,34.46023],[-118.57235,34.46003],[-118.57269,34.45933],[-118.57258,34.45462],[-118.57315,34.45486],[-118.57368,34.45437],[-118.57319,34.4533],[-118.57385,34.45219],[-118.57397,34.45116],[-118.57258,34.45137],[-118.57258,34.44967],[-118.57196,34.4495],[-118.57273,34.44866],[-118.57158,34.44769],[-118.5712,34.44666],[-118.57267,34.44616],[-118.57257,34.42622],[-118.57355,34.42633],[-118.57452,34.4272],[-118.57581,34.42632],[-118.57962,34.4259],[-118.58116,34.42525],[-118.58392,34.42497],[-118.58477,34.42533],[-118.58547,34.42626],[-118.58687,34.42653],[-118.59189,34.42857],[-118.59317,34.4313],[-118.59483,34.43259],[-118.60347,34.43422],[-118.60515,34.4353],[-118.60764,34.43619],[-118.60778,34.40914]]]},"properties":{"kind":"district","leaid":"0635970","slug":"saugus-union-school-district","title":"Saugus Union School District","role":"elementary","censusName":"Saugus Union Elementary School District","censusGrades":"K-6","source":"U.S. Census Bureau, TIGERweb, school districts, GEOID 0635970"}},{"type":"Feature","geometry":{"type":"Polygon","coordinates":[[[-118.49423,34.37819],[-118.48986,34.37512],[-118.48833,34.375],[-118.48326,34.37575],[-118.48209,34.37521],[-118.48061,34.37381],[-118.47913,34.37342],[-118.47198,34.37626],[-118.46978,34.37799],[-118.46749,34.37883],[-118.46571,34.38028],[-118.46492,34.38053],[-118.45788,34.3788],[-118.45349,34.37841],[-118.44839,34.37849],[-118.44911,34.35173],[-118.43234,34.35224],[-118.42552,34.352],[-118.39762,34.35235],[-118.39714,34.33724],[-118.3608,34.33713],[-118.36081,34.35163],[-118.34829,34.35206],[-118.3483,34.35167],[-118.32602,34.35153],[-118.32501,34.43761],[-118.33535,34.43562],[-118.35151,34.43693],[-118.36054,34.43813],[-118.36045,34.44563],[-118.3613,34.45283],[-118.36111,34.46749],[-118.37954,34.46764],[-118.3791,34.47912],[-118.37908,34.4865],[-118.37942,34.48736],[-118.37905,34.48759],[-118.37896,34.49619],[-118.37938,34.50194],[-118.3797,34.50211],[-118.37816,34.53977],[-118.43054,34.53993],[-118.43163,34.50465],[-118.432,34.48078],[-118.43251,34.47054],[-118.43226,34.46987],[-118.4326,34.46976],[-118.43257,34.46698],[-118.43395,34.46695],[-118.4346,34.46636],[-118.43499,34.46695],[-118.43841,34.46686],[-118.43912,34.46762],[-118.44008,34.46679],[-118.45004,34.46658],[-118.45,34.43803],[-118.46758,34.43797],[-118.46754,34.42995],[-118.46786,34.42991],[-118.46757,34.42876],[-118.46787,34.42772],[-118.46741,34.42761],[-118.4675,34.42716],[-118.46831,34.42716],[-118.47055,34.42572],[-118.472,34.42376],[-118.47219,34.41536],[-118.47265,34.41384],[-118.47531,34.41503],[-118.4771,34.41465],[-118.47798,34.41489],[-118.48087,34.41677],[-118.48263,34.41606],[-118.48279,34.4167],[-118.48326,34.41669],[-118.48288,34.41543],[-118.48216,34.4147],[-118.48121,34.4143],[-118.47878,34.41411],[-118.4784,34.41376],[-118.47834,34.41269],[-118.47715,34.41269],[-118.47638,34.41198],[-118.47615,34.41088],[-118.47653,34.41087],[-118.47652,34.41059],[-118.47616,34.41059],[-118.47609,34.4098],[-118.47618,34.40536],[-118.47652,34.40472],[-118.47785,34.40456],[-118.47778,34.40315],[-118.47832,34.40322],[-118.47947,34.40437],[-118.48011,34.40394],[-118.48099,34.40473],[-118.48274,34.40452],[-118.48319,34.40535],[-118.48455,34.40484],[-118.4849,34.40546],[-118.48817,34.40542],[-118.48818,34.40433],[-118.48779,34.404],[-118.48807,34.4035],[-118.48874,34.40332],[-118.48892,34.40225],[-118.48751,34.40263],[-118.48749,34.40179],[-118.48598,34.40182],[-118.48598,34.40073],[-118.48494,34.40069],[-118.4849,34.39554],[-118.48658,34.39399],[-118.48761,34.39247],[-118.48923,34.38918],[-118.491,34.38418],[-118.49333,34.37938],[-118.49423,34.37819]]]},"properties":{"kind":"district","leaid":"0638220","slug":"sulphur-springs-union-school-district","title":"Sulphur Springs Union School District","role":"elementary","censusName":"Sulphur Springs Union Elementary School District","censusGrades":"K-6","source":"U.S. Census Bureau, TIGERweb, school districts, GEOID 0638220"}},{"type":"Feature","geometry":{"type":"Polygon","coordinates":[[[-118.79666,34.61657],[-118.6914,34.40303],[-118.68776,34.40273],[-118.68292,34.40399],[-118.68099,34.40355],[-118.67749,34.40501],[-118.67528,34.40542],[-118.67291,34.40536],[-118.67178,34.40595],[-118.6706,34.4061],[-118.66967,34.4059],[-118.66761,34.40667],[-118.66673,34.40793],[-118.66544,34.40823],[-118.66447,34.40967],[-118.65826,34.41308],[-118.65633,34.41469],[-118.65264,34.41632],[-118.65134,34.41655],[-118.65036,34.41753],[-118.64937,34.41799],[-118.64611,34.41814],[-118.64216,34.41928],[-118.63963,34.41889],[-118.6322,34.4186],[-118.63111,34.41791],[-118.62606,34.42057],[-118.62441,34.42312],[-118.62334,34.42419],[-118.62097,34.42611],[-118.61956,34.42658],[-118.61887,34.42742],[-118.61863,34.4287],[-118.61715,34.42977],[-118.61658,34.43129],[-118.61343,34.4348],[-118.61207,34.43526],[-118.61004,34.43536],[-118.60796,34.43508],[-118.60763,34.43517],[-118.60764,34.43619],[-118.60515,34.4353],[-118.60347,34.43422],[-118.59483,34.43259],[-118.59317,34.4313],[-118.59189,34.42857],[-118.58687,34.42653],[-118.58547,34.42626],[-118.58477,34.42533],[-118.58392,34.42497],[-118.58116,34.42525],[-118.57962,34.4259],[-118.57581,34.42632],[-118.57452,34.4272],[-118.57355,34.42633],[-118.57257,34.42622],[-118.57267,34.44616],[-118.5712,34.44666],[-118.57158,34.44769],[-118.57273,34.44866],[-118.57196,34.4495],[-118.57258,34.44967],[-118.57258,34.45137],[-118.57397,34.45116],[-118.57385,34.45219],[-118.57319,34.4533],[-118.57368,34.45437],[-118.57315,34.45486],[-118.57258,34.45462],[-118.57269,34.45933],[-118.57235,34.46003],[-118.57284,34.46023],[-118.57235,34.46094],[-118.57274,34.46123],[-118.57232,34.46149],[-118.57284,34.4619],[-118.57177,34.46244],[-118.57185,34.46325],[-118.57259,34.46337],[-118.57259,34.47091],[-118.57298,34.47096],[-118.5736,34.49638],[-118.55545,34.4963],[-118.55542,34.50367],[-118.54679,34.50361],[-118.54669,34.5181],[-118.53768,34.5181],[-118.53748,34.54016],[-118.52851,34.54015],[-118.52816,34.55899],[-118.51962,34.55903],[-118.51847,34.57345],[-118.51891,34.60244],[-118.5185,34.60247],[-118.51888,34.60249],[-118.51895,34.6169],[-118.54972,34.61698],[-118.55823,34.61736],[-118.55832,34.61714],[-118.56088,34.61714],[-118.71416,34.61811],[-118.71535,34.6178],[-118.74604,34.61779],[-118.79666,34.61657]]]},"properties":{"kind":"district","leaid":"0607740","slug":"castaic-union-school-district","title":"Castaic Union School District","role":"elementary","censusName":"Castaic Union School District","censusGrades":"K-6","source":"U.S. Census Bureau, TIGERweb, school districts, GEOID 0607740"}},{"type":"Feature","geometry":{"type":"Point","coordinates":[-118.63094,34.47176]},"properties":{"kind":"school","status":"open","leaid":"0607740","name":"Castaic Elementary","nces":"060774000738","grades":"K-6","opened":1987,"lastListed":2024,"charter":false,"city":"Castaic","source":"NCES Common Core of Data, school directory 2024, NCES school ID 060774000738"}},{"type":"Feature","geometry":{"type":"Point","coordinates":[-118.64092,34.47097]},"properties":{"kind":"school","status":"open","leaid":"0607740","name":"Castaic Middle","nces":"060774009121","grades":"7-8","opened":1987,"lastListed":2024,"charter":false,"city":"Castaic","source":"NCES Common Core of Data, school directory 2024, NCES school ID 060774009121"}},{"type":"Feature","geometry":{"type":"Point","coordinates":[-118.62018,34.45052]},"properties":{"kind":"school","status":"open","leaid":"0607740","name":"Live Oak Elementary","nces":"060774009341","grades":"K-6","opened":1988,"lastListed":2024,"charter":false,"city":"Castaic","source":"NCES Common Core of Data, school directory 2024, NCES school ID 060774009341"}},{"type":"Feature","geometry":{"type":"Point","coordinates":[-118.64092,34.47097]},"properties":{"kind":"school","status":"open","leaid":"0607740","name":"Non-RIS Preschool CMS","nces":"060774013468","grades":"","opened":2012,"lastListed":2024,"charter":false,"city":"Castaic","source":"NCES Common Core of Data, school directory 2024, NCES school ID 060774013468"}},{"type":"Feature","geometry":{"type":"Point","coordinates":[-118.62799,34.51103]},"properties":{"kind":"school","status":"open","leaid":"0607740","name":"Northlake Hills Elementary","nces":"060774011330","grades":"K-7","opened":2003,"lastListed":2024,"charter":false,"city":"Castaic","source":"NCES Common Core of Data, school directory 2024, NCES school ID 060774011330"}},{"type":"Feature","geometry":{"type":"Point","coordinates":[-118.5138,34.376]},"properties":{"kind":"school","status":"open","leaid":"0627180","name":"Dr. J. Michael McGrath Elementary","nces":"062718011317","grades":"K-6","opened":2003,"lastListed":2024,"charter":false,"city":"Newhall","source":"NCES Common Core of Data, school directory 2024, NCES school ID 062718011317"}},{"type":"Feature","geometry":{"type":"Point","coordinates":[-118.5549,34.3915]},"properties":{"kind":"school","status":"open","leaid":"0627180","name":"Meadows Elementary","nces":"062718004094","grades":"K-6","opened":1987,"lastListed":2024,"charter":false,"city":"Valencia","source":"NCES Common Core of Data, school directory 2024, NCES school ID 062718004094"}},{"type":"Feature","geometry":{"type":"Point","coordinates":[-118.5321,34.3818]},"properties":{"kind":"school","status":"open","leaid":"0627180","name":"Newhall Elementary","nces":"062718004095","grades":"K-6","opened":1987,"lastListed":2024,"charter":false,"city":"Newhall","source":"NCES Common Core of Data, school directory 2024, NCES school ID 062718004095"}},{"type":"Feature","geometry":{"type":"Point","coordinates":[-118.5921,34.4046]},"properties":{"kind":"school","status":"open","leaid":"0627180","name":"Oak Hills Elementary","nces":"062718010904","grades":"K-6","opened":2004,"lastListed":2024,"charter":false,"city":"Valencia","source":"NCES Common Core of Data, school directory 2024, NCES school ID 062718010904"}},{"type":"Feature","geometry":{"type":"Point","coordinates":[-118.5478,34.3813]},"properties":{"kind":"school","status":"open","leaid":"0627180","name":"Old Orchard Elementary","nces":"062718004096","grades":"K-6","opened":1987,"lastListed":2024,"charter":false,"city":"Valencia","source":"NCES Common Core of Data, school directory 2024, NCES school ID 062718004096"}},{"type":"Feature","geometry":{"type":"Point","coordinates":[-118.5454,34.3753]},"properties":{"kind":"school","status":"open","leaid":"0627180","name":"Peachland Avenue Elementary","nces":"062718004097","grades":"K-6","opened":1987,"lastListed":2024,"charter":false,"city":"Newhall","source":"NCES Common Core of Data, school directory 2024, NCES school ID 062718004097"}},{"type":"Feature","geometry":{"type":"Point","coordinates":[-118.579,34.3821]},"properties":{"kind":"school","status":"open","leaid":"0627180","name":"Pico Canyon Elementary","nces":"062718011329","grades":"K-6","opened":2003,"lastListed":2024,"charter":false,"city":"Stevenson Ranch","source":"NCES Common Core of Data, school directory 2024, NCES school ID 062718011329"}},{"type":"Feature","geometry":{"type":"Point","coordinates":[-118.596,34.391]},"properties":{"kind":"school","status":"open","leaid":"0627180","name":"Stevenson Ranch Elementary","nces":"062718004595","grades":"K-6","opened":1995,"lastListed":2024,"charter":false,"city":"Stevenson Ranch","source":"NCES Common Core of Data, school directory 2024, NCES school ID 062718004595"}},{"type":"Feature","geometry":{"type":"Point","coordinates":[-118.5472,34.4085]},"properties":{"kind":"school","status":"open","leaid":"0627180","name":"Valencia Valley Elementary","nces":"062718009410","grades":"K-6","opened":1988,"lastListed":2024,"charter":false,"city":"Valencia","source":"NCES Common Core of Data, school directory 2024, NCES school ID 062718009410"}},{"type":"Feature","geometry":{"type":"Point","coordinates":[-118.5588,34.376]},"properties":{"kind":"school","status":"open","leaid":"0627180","name":"Wiley Canyon Elementary","nces":"062718004098","grades":"K-6","opened":1987,"lastListed":2024,"charter":false,"city":"Newhall","source":"NCES Common Core of Data, school directory 2024, NCES school ID 062718004098"}},{"type":"Feature","geometry":{"type":"Point","coordinates":[-118.50354,34.45291]},"properties":{"kind":"school","status":"closed","leaid":"0635970","name":"BOUQUET CANYON ELEMENTARY","nces":"063597009638","grades":"K-6","opened":1989,"lastListed":2010,"charter":false,"city":"SAUGUS","source":"NCES Common Core of Data, school directory 2010, NCES school ID 063597009638"}},{"type":"Feature","geometry":{"type":"Point","coordinates":[-118.50332,34.45271]},"properties":{"kind":"school","status":"open","leaid":"0635970","name":"Bouquet Canyon Early Learning Academy","nces":"063597014722","grades":"","opened":2023,"lastListed":2024,"charter":false,"city":"Saugus","source":"NCES Common Core of Data, school directory 2024, NCES school ID 063597014722"}},{"type":"Feature","geometry":{"type":"Point","coordinates":[-118.55027,34.42681]},"properties":{"kind":"school","status":"open","leaid":"0635970","name":"Bridgeport Elementary","nces":"063597010535","grades":"K-6","opened":2002,"lastListed":2024,"charter":false,"city":"Valencia","source":"NCES Common Core of Data, school directory 2024, NCES school ID 063597010535"}},{"type":"Feature","geometry":{"type":"Point","coordinates":[-118.47582,34.42611]},"properties":{"kind":"school","status":"open","leaid":"0635970","name":"Cedarcreek Elementary","nces":"063597006153","grades":"K-6","opened":1987,"lastListed":2024,"charter":false,"city":"Canyon Country","source":"NCES Common Core of Data, school directory 2024, NCES school ID 063597006153"}},{"type":"Feature","geometry":{"type":"Point","coordinates":[-118.55207,34.43713]},"properties":{"kind":"school","status":"open","leaid":"0635970","name":"Charles Helmers Elementary","nces":"063597009193","grades":"K-6","opened":1987,"lastListed":2024,"charter":false,"city":"Valencia","source":"NCES Common Core of Data, school directory 2024, NCES school ID 063597009193"}},{"type":"Feature","geometry":{"type":"Point","coordinates":[-118.53237,34.42953]},"properties":{"kind":"school","status":"open","leaid":"0635970","name":"Emblem Academy","nces":"063597006154","grades":"K-6","opened":1987,"lastListed":2024,"charter":false,"city":"Saugus","source":"NCES Common Core of Data, school directory 2024, NCES school ID 063597006154"}},{"type":"Feature","geometry":{"type":"Point","coordinates":[-118.52316,34.44048]},"properties":{"kind":"school","status":"open","leaid":"0635970","name":"Highlands Elementary","nces":"063597006155","grades":"K-6","opened":1987,"lastListed":2024,"charter":false,"city":"Saugus","source":"NCES Common Core of Data, school directory 2024, NCES school ID 063597006155"}},{"type":"Feature","geometry":{"type":"Point","coordinates":[-118.52868,34.45125]},"properties":{"kind":"school","status":"open","leaid":"0635970","name":"James Foster Elementary","nces":"063597009637","grades":"K-6","opened":1989,"lastListed":2024,"charter":false,"city":"Saugus","source":"NCES Common Core of Data, school directory 2024, NCES school ID 063597009637"}},{"type":"Feature","geometry":{"type":"Point","coordinates":[-118.52318,34.47215]},"properties":{"kind":"school","status":"open","leaid":"0635970","name":"Mountainview Elementary","nces":"063597003259","grades":"K-6","opened":1994,"lastListed":2024,"charter":false,"city":"Saugus","source":"NCES Common Core of Data, school directory 2024, NCES school ID 063597003259"}},{"type":"Feature","geometry":{"type":"Point","coordinates":[-118.54533,34.45542]},"properties":{"kind":"school","status":"open","leaid":"0635970","name":"North Park Elementary","nces":"063597008063","grades":"K-6","opened":1999,"lastListed":2024,"charter":false,"city":"Valencia","source":"NCES Common Core of Data, school directory 2024, NCES school ID 063597008063"}},{"type":"Feature","geometry":{"type":"Point","coordinates":[-118.48447,34.44778]},"properties":{"kind":"school","status":"open","leaid":"0635970","name":"Plum Canyon Elementary","nces":"063597007532","grades":"K-6","opened":1998,"lastListed":2024,"charter":false,"city":"Saugus","source":"NCES Common Core of Data, school directory 2024, NCES school ID 063597007532"}},{"type":"Feature","geometry":{"type":"Point","coordinates":[-118.49273,34.42576]},"properties":{"kind":"school","status":"open","leaid":"0635970","name":"Rio Vista Elementary","nces":"063597006157","grades":"K-6","opened":1987,"lastListed":2024,"charter":false,"city":"Canyon Country","source":"NCES Common Core of Data, school directory 2024, NCES school ID 063597006157"}},{"type":"Feature","geometry":{"type":"Point","coordinates":[-118.50692,34.44693]},"properties":{"kind":"school","status":"open","leaid":"0635970","name":"Rosedell Elementary","nces":"063597006158","grades":"K-6","opened":1987,"lastListed":2024,"charter":false,"city":"Saugus","source":"NCES Common Core of Data, school directory 2024, NCES school ID 063597006158"}},{"type":"Feature","geometry":{"type":"Point","coordinates":[-118.53515,34.44363]},"properties":{"kind":"school","status":"closed","leaid":"0635970","name":"Santa Clarita Elementary","nces":"063597006159","grades":"","opened":1987,"lastListed":2024,"charter":false,"city":"Saugus","source":"NCES Common Core of Data, school directory 2024, NCES school ID 063597006159"}},{"type":"Feature","geometry":{"type":"Point","coordinates":[-118.48216,34.4339]},"properties":{"kind":"school","status":"open","leaid":"0635970","name":"Skyblue Mesa Elementary","nces":"063597006160","grades":"K-6","opened":1987,"lastListed":2024,"charter":false,"city":"Canyon Country","source":"NCES Common Core of Data, school directory 2024, NCES school ID 063597006160"}},{"type":"Feature","geometry":{"type":"Point","coordinates":[-118.55836,34.46878]},"properties":{"kind":"school","status":"open","leaid":"0635970","name":"Tesoro del Valle Elementary","nces":"063597010910","grades":"K-6","opened":2004,"lastListed":2024,"charter":false,"city":"Valencia","source":"NCES Common Core of Data, school directory 2024, NCES school ID 063597010910"}},{"type":"Feature","geometry":{"type":"Point","coordinates":[-118.56879,34.45825]},"properties":{"kind":"school","status":"open","leaid":"0635970","name":"West Creek Academy","nces":"063597012401","grades":"K-6","opened":2008,"lastListed":2024,"charter":false,"city":"Valencia","source":"NCES Common Core of Data, school directory 2024, NCES school ID 063597012401"}},{"type":"Feature","geometry":{"type":"Point","coordinates":[-118.4686,34.4199]},"properties":{"kind":"school","status":"open","leaid":"0638220","name":"Canyon Springs Community Elementary","nces":"063822010249","grades":"K-6","opened":1991,"lastListed":2024,"charter":false,"city":"Canyon Country","source":"NCES Common Core of Data, school directory 2024, NCES school ID 063822010249"}},{"type":"Feature","geometry":{"type":"Point","coordinates":[-118.4479,34.404]},"properties":{"kind":"school","status":"open","leaid":"0638220","name":"Fair Oaks Ranch Community","nces":"063822010536","grades":"K-6","opened":2002,"lastListed":2024,"charter":false,"city":"Santa Clarita","source":"NCES Common Core of Data, school directory 2024, NCES school ID 063822010536"}},{"type":"Feature","geometry":{"type":"Point","coordinates":[-118.4556,34.3923]},"properties":{"kind":"school","status":"open","leaid":"0638220","name":"Golden Oak Community","nces":"063822012288","grades":"K-6","opened":2008,"lastListed":2024,"charter":false,"city":"Santa Clarita","source":"NCES Common Core of Data, school directory 2024, NCES school ID 063822012288"}},{"type":"Feature","geometry":{"type":"Point","coordinates":[-118.4614,34.4272]},"properties":{"kind":"school","status":"open","leaid":"0638220","name":"Leona H. Cox Community Elementary","nces":"063822006446","grades":"K-6","opened":1987,"lastListed":2024,"charter":false,"city":"Canyon Country","source":"NCES Common Core of Data, school directory 2024, NCES school ID 063822006446"}},{"type":"Feature","geometry":{"type":"Point","coordinates":[-118.4205,34.4515]},"properties":{"kind":"school","status":"open","leaid":"0638220","name":"Mint Canyon Community Elementary","nces":"063822006447","grades":"K-6","opened":1987,"lastListed":2024,"charter":false,"city":"Canyon Country","source":"NCES Common Core of Data, school directory 2024, NCES school ID 063822006447"}},{"type":"Feature","geometry":{"type":"Point","coordinates":[-118.42961,34.42888]},"properties":{"kind":"school","status":"open","leaid":"0638220","name":"Mitchell Community Elementary","nces":"063822006448","grades":"K-6","opened":1987,"lastListed":2024,"charter":false,"city":"Canyon Country","source":"NCES Common Core of Data, school directory 2024, NCES school ID 063822006448"}},{"type":"Feature","geometry":{"type":"Point","coordinates":[-118.4025,34.4354]},"properties":{"kind":"school","status":"open","leaid":"0638220","name":"Pinetree Community Elementary","nces":"063822009448","grades":"K-6","opened":1988,"lastListed":2024,"charter":false,"city":"Canyon Country","source":"NCES Common Core of Data, school directory 2024, NCES school ID 063822009448"}},{"type":"Feature","geometry":{"type":"Point","coordinates":[-118.4265,34.4192]},"properties":{"kind":"school","status":"open","leaid":"0638220","name":"Sulphur Springs Community Elementary","nces":"063822006450","grades":"K-6","opened":1987,"lastListed":2024,"charter":false,"city":"Canyon Country","source":"NCES Common Core of Data, school directory 2024, NCES school ID 063822006450"}},{"type":"Feature","geometry":{"type":"Point","coordinates":[-118.46707,34.40792]},"properties":{"kind":"school","status":"open","leaid":"0638220","name":"Sulphur Springs Special Education Consortia","nces":"063822014133","grades":"K-6","opened":2017,"lastListed":2024,"charter":false,"city":"Santa Clarita","source":"NCES Common Core of Data, school directory 2024, NCES school ID 063822014133"}},{"type":"Feature","geometry":{"type":"Point","coordinates":[-118.475,34.3973]},"properties":{"kind":"school","status":"open","leaid":"0638220","name":"Valley View Community Elementary","nces":"063822007883","grades":"K-6","opened":1987,"lastListed":2024,"charter":false,"city":"Newhall","source":"NCES Common Core of Data, school directory 2024, NCES school ID 063822007883"}},{"type":"Feature","geometry":{"type":"Point","coordinates":[-118.43418,34.43528]},"properties":{"kind":"school","status":"closed","leaid":"0642510","name":"SANTA CLARITA VALLEY EARLY COLLEGE HIGH","nces":"064251012145","grades":"9-10","opened":2007,"lastListed":2009,"charter":false,"city":"CANYON COUNTRY","source":"NCES Common Core of Data, school directory 2009, NCES school ID 064251012145"}},{"type":"Feature","geometry":{"type":"Point","coordinates":[-118.53928,34.38771]},"properties":{"kind":"school","status":"closed","leaid":"0642510","name":"Transitional Learning Center Charter","nces":"064251010915","grades":"9-12","opened":2004,"lastListed":2014,"charter":true,"city":"SANTA CLARITA","source":"NCES Common Core of Data, school directory 2014, NCES school ID 064251010915"}},{"type":"Feature","geometry":{"type":"Point","coordinates":[-118.58054,34.44687]},"properties":{"kind":"school","status":"closed","leaid":"0642510","name":"Albert Einstein Academy for Letters Arts and Sciences","nces":"064251012655","grades":"","opened":2010,"lastListed":2017,"charter":true,"city":"Santa Clarita","source":"NCES Common Core of Data, school directory 2017, NCES school ID 064251012655"}},{"type":"Feature","geometry":{"type":"Point","coordinates":[-118.55278,34.41583]},"properties":{"kind":"school","status":"closed","leaid":"0642510","name":"Mission View Public","nces":"064251011906","grades":"K-12","opened":2006,"lastListed":2017,"charter":true,"city":"Santa Clarita","source":"NCES Common Core of Data, school directory 2017, NCES school ID 064251011906"}},{"type":"Feature","geometry":{"type":"Point","coordinates":[-118.5638,34.43835]},"properties":{"kind":"school","status":"closed","leaid":"0642510","name":"Opportunities for Learning - Santa Clarita","nces":"064251008070","grades":"7-12","opened":1999,"lastListed":2017,"charter":true,"city":"Valencia","source":"NCES Common Core of Data, school directory 2017, NCES school ID 064251008070"}},{"type":"Feature","geometry":{"type":"Point","coordinates":[-118.62462,34.45049]},"properties":{"kind":"school","status":"closed","leaid":"0642510","name":"Santa Clarita Valley International","nces":"064251012191","grades":"K-12","opened":2008,"lastListed":2017,"charter":true,"city":"Castaic","source":"NCES Common Core of Data, school directory 2017, NCES school ID 064251012191"}},{"type":"Feature","geometry":{"type":"Point","coordinates":[-118.65402,34.49421]},"properties":{"kind":"school","status":"closed","leaid":"0642510","name":"Sequoia","nces":"064251011675","grades":"","opened":2005,"lastListed":2020,"charter":false,"city":"Santa Clarita","source":"NCES Common Core of Data, school directory 2020, NCES school ID 064251011675"}},{"type":"Feature","geometry":{"type":"Point","coordinates":[-118.57096,34.39967]},"properties":{"kind":"school","status":"open","leaid":"0642510","name":"Academy of the Canyons","nces":"064251008517","grades":"9-12","opened":2000,"lastListed":2024,"charter":false,"city":"Santa Clarita","source":"NCES Common Core of Data, school directory 2024, NCES school ID 064251008517"}},{"type":"Feature","geometry":{"type":"Point","coordinates":[-118.53709,34.44161]},"properties":{"kind":"school","status":"open","leaid":"0642510","name":"Arroyo Seco Junior High","nces":"064251006956","grades":"7-8","opened":1987,"lastListed":2024,"charter":false,"city":"Valencia","source":"NCES Common Core of Data, school directory 2024, NCES school ID 064251006956"}},{"type":"Feature","geometry":{"type":"Point","coordinates":[-118.51436,34.41139]},"properties":{"kind":"school","status":"open","leaid":"0642510","name":"Bowman (Jereann) High (Continuation)","nces":"064251006957","grades":"9-12","opened":1987,"lastListed":2024,"charter":false,"city":"Santa Clarita","source":"NCES Common Core of Data, school directory 2024, NCES school ID 064251006957"}},{"type":"Feature","geometry":{"type":"Point","coordinates":[-118.47359,34.42923]},"properties":{"kind":"school","status":"open","leaid":"0642510","name":"Canyon High","nces":"064251006958","grades":"9-12","opened":1987,"lastListed":2024,"charter":false,"city":"Canyon Country","source":"NCES Common Core of Data, school directory 2024, NCES school ID 064251006958"}},{"type":"Feature","geometry":{"type":"Point","coordinates":[-118.65402,34.49421]},"properties":{"kind":"school","status":"open","leaid":"0642510","name":"Castaic High","nces":"064251014393","grades":"9-12","opened":2018,"lastListed":2024,"charter":false,"city":"Castaic","source":"NCES Common Core of Data, school directory 2024, NCES school ID 064251014393"}},{"type":"Feature","geometry":{"type":"Point","coordinates":[-118.49341,34.39985]},"properties":{"kind":"school","status":"open","leaid":"0642510","name":"Golden Valley High","nces":"064251010912","grades":"9-12","opened":2004,"lastListed":2024,"charter":false,"city":"Santa Clarita","source":"NCES Common Core of Data, school directory 2024, NCES school ID 064251010912"}},{"type":"Feature","geometry":{"type":"Point","coordinates":[-118.48311,34.40782]},"properties":{"kind":"school","status":"open","leaid":"0642510","name":"La Mesa Junior High","nces":"064251003268","grades":"7-8","opened":1994,"lastListed":2024,"charter":false,"city":"Santa Clarita","source":"NCES Common Core of Data, school directory 2024, NCES school ID 064251003268"}},{"type":"Feature","geometry":{"type":"Point","coordinates":[-118.53626,34.38344]},"properties":{"kind":"school","status":"open","leaid":"0642510","name":"Learning Post Academy (Alternative)","nces":"064251007369","grades":"7-12","opened":1987,"lastListed":2024,"charter":false,"city":"Santa Clarita","source":"NCES Common Core of Data, school directory 2024, NCES school ID 064251007369"}},{"type":"Feature","geometry":{"type":"Point","coordinates":[-118.5412,34.38772]},"properties":{"kind":"school","status":"open","leaid":"0642510","name":"Placerita Junior High","nces":"064251006960","grades":"7-8","opened":1987,"lastListed":2024,"charter":false,"city":"Newhall","source":"NCES Common Core of Data, school directory 2024, NCES school ID 064251006960"}},{"type":"Feature","geometry":{"type":"Point","coordinates":[-118.5936,34.4014]},"properties":{"kind":"school","status":"open","leaid":"0642510","name":"Rancho Pico Junior High","nces":"064251010913","grades":"7-8","opened":2004,"lastListed":2024,"charter":false,"city":"Stevenson Ranch","source":"NCES Common Core of Data, school directory 2024, NCES school ID 064251010913"}},{"type":"Feature","geometry":{"type":"Point","coordinates":[-118.55923,34.45972]},"properties":{"kind":"school","status":"open","leaid":"0642510","name":"Rio Norte Junior High","nces":"064251011320","grades":"7-8","opened":2003,"lastListed":2024,"charter":false,"city":"Santa Clarita","source":"NCES Common Core of Data, school directory 2024, NCES school ID 064251011320"}},{"type":"Feature","geometry":{"type":"Point","coordinates":[-118.51813,34.44192]},"properties":{"kind":"school","status":"open","leaid":"0642510","name":"Saugus High","nces":"064251006961","grades":"9-12","opened":1987,"lastListed":2024,"charter":false,"city":"Saugus","source":"NCES Common Core of Data, school directory 2024, NCES school ID 064251006961"}},{"type":"Feature","geometry":{"type":"Point","coordinates":[-118.47459,34.41902]},"properties":{"kind":"school","status":"open","leaid":"0642510","name":"Sierra Vista Junior High","nces":"064251006962","grades":"7-8","opened":1987,"lastListed":2024,"charter":false,"city":"Canyon Country","source":"NCES Common Core of Data, school directory 2024, NCES school ID 064251006962"}},{"type":"Feature","geometry":{"type":"Point","coordinates":[-118.56259,34.44173]},"properties":{"kind":"school","status":"open","leaid":"0642510","name":"Valencia High","nces":"064251003264","grades":"9-12","opened":1994,"lastListed":2024,"charter":false,"city":"Valencia","source":"NCES Common Core of Data, school directory 2024, NCES school ID 064251003264"}},{"type":"Feature","geometry":{"type":"Point","coordinates":[-118.59656,34.4032]},"properties":{"kind":"school","status":"open","leaid":"0642510","name":"West Ranch High","nces":"064251010914","grades":"9-12","opened":2004,"lastListed":2024,"charter":false,"city":"Valencia","source":"NCES Common Core of Data, school directory 2024, NCES school ID 064251010914"}},{"type":"Feature","geometry":{"type":"Point","coordinates":[-118.53767,34.38423]},"properties":{"kind":"school","status":"open","leaid":"0642510","name":"William S. Hart High","nces":"064251006959","grades":"9-12","opened":1987,"lastListed":2024,"charter":false,"city":"Newhall","source":"NCES Common Core of Data, school directory 2024, NCES school ID 064251006959"}}]}