{"type":"FeatureCollection","name":"assembly-2011","properties":{"chamber":"assembly","plan":"2011","planNote":"2011 plan (Citizens Redistricting Commission; elections 2012 to 2020)","populationBasis":"2010 Census","valleyPop":271619},"features":[{"type":"Feature","properties":{"district":38,"label":"38th Assembly District","pop":252560,"share":93.0,"main":true},"geometry":{"type":"Polygon","coordinates":[[[-118.41171,34.37924],[-118.40667,34.38082],[-118.39724,34.38119],[-118.39707,34.39803],[-118.39715,34.40103],[-118.39782,34.40152],[-118.39786,34.41652],[-118.40202,34.4164],[-118.40203,34.42299],[-118.40411,34.42238],[-118.40447,34.42322],[-118.40385,34.42364],[-118.40507,34.42363],[-118.40422,34.42415],[-118.40421,34.42531],[-118.41522,34.42527],[-118.41521,34.42761],[-118.40936,34.42754],[-118.40487,34.4282],[-118.39068,34.43381],[-118.3856,34.43358],[-118.38333,34.43238],[-118.38221,34.43234],[-118.37835,34.43523],[-118.36672,34.43876],[-118.36526,34.43862],[-118.3642,34.43772],[-118.36291,34.43328],[-118.36035,34.43349],[-118.35874,34.4331],[-118.35532,34.43108],[-118.34957,34.43205],[-118.34554,34.435],[-118.34095,34.43603],[-118.3399,34.43732],[-118.33851,34.43799],[-118.33432,34.43832],[-118.33333,34.43984],[-118.33371,34.44167],[-118.33336,34.44394],[-118.33429,34.44569],[-118.33391,34.4472],[-118.3342,34.44847],[-118.33308,34.45055],[-118.3342,34.45456],[-118.3304,34.45835],[-118.33009,34.46005],[-118.32855,34.46111],[-118.32971,34.46652],[-118.32457,34.46701],[-118.31741,34.47157],[-118.31078,34.47305],[-118.2973,34.47959],[-118.28994,34.48103],[-118.28726,34.48356],[-118.28607,34.48966],[-118.28403,34.49175],[-118.27138,34.49685],[-118.26491,34.4978],[-118.25949,34.4991],[-118.25562,34.50217],[-118.25567,34.51441],[-118.25569,34.51989],[-118.25561,34.51989],[-118.25534,34.54306],[-118.25624,34.54381],[-118.2593,34.54328],[-118.26073,34.54397],[-118.26324,34.54401],[-118.26536,34.54491],[-118.26663,34.54485],[-118.2682,34.54287],[-118.26968,34.54202],[-118.27034,34.54107],[-118.2701,34.5399],[-118.27432,34.53488],[-118.27723,34.53401],[-118.27934,34.5338],[-118.28124,34.53631],[-118.28115,34.53741],[-118.28356,34.5379],[-118.28957,34.53622],[-118.28953,34.53784],[-118.2907,34.53788],[-118.29187,34.53679],[-118.29288,34.53713],[-118.294,34.53673],[-118.29609,34.53506],[-118.29633,34.53598],[-118.29685,34.53617],[-118.2985,34.53487],[-118.30082,34.53463],[-118.30218,34.53372],[-118.3054,34.5355],[-118.31062,34.53661],[-118.31519,34.53246],[-118.31711,34.53171],[-118.31923,34.52917],[-118.32377,34.52742],[-118.32513,34.5255],[-118.34936,34.52523],[-118.35573,34.52364],[-118.35854,34.52571],[-118.35917,34.52457],[-118.36033,34.5241],[-118.36086,34.52299],[-118.36169,34.52247],[-118.36172,34.52123],[-118.36051,34.51956],[-118.36174,34.51794],[-118.36181,34.51117],[-118.36155,34.50299],[-118.36253,34.50517],[-118.36353,34.5059],[-118.36674,34.50546],[-118.36801,34.5064],[-118.36821,34.50581],[-118.36877,34.50592],[-118.36907,34.50719],[-118.36949,34.5071],[-118.37578,34.50368],[-118.37597,34.50268],[-118.37688,34.50254],[-118.3767,34.50301],[-118.37826,34.50238],[-118.37845,34.4962],[-118.38458,34.4961],[-118.38505,34.49551],[-118.38696,34.49123],[-118.38732,34.48823],[-118.38714,34.48185],[-118.38585,34.48174],[-118.38652,34.48044],[-118.38716,34.48093],[-118.38714,34.48151],[-118.38827,34.48124],[-118.38952,34.47688],[-118.39202,34.4733],[-118.39092,34.47197],[-118.39068,34.47015],[-118.39178,34.46973],[-118.39189,34.47153],[-118.39283,34.47261],[-118.39476,34.47109],[-118.39522,34.46911],[-118.39751,34.46724],[-118.39989,34.46676],[-118.40073,34.46766],[-118.40691,34.46537],[-118.40747,34.46628],[-118.40773,34.4652],[-118.41066,34.46433],[-118.41418,34.46143],[-118.41937,34.45565],[-118.42173,34.45217],[-118.42046,34.45121],[-118.42079,34.45075],[-118.42144,34.45091],[-118.42122,34.45019],[-118.42345,34.44996],[-118.42694,34.44631],[-118.43185,34.4381],[-118.43698,34.43807],[-118.43693,34.43447],[-118.44565,34.43442],[-118.44562,34.43066],[-118.44745,34.42858],[-118.44712,34.42775],[-118.44769,34.42722],[-118.45652,34.42719],[-118.45656,34.43078],[-118.46312,34.43077],[-118.46311,34.44153],[-118.46772,34.44153],[-118.46758,34.43797],[-118.48079,34.43806],[-118.48088,34.44161],[-118.48968,34.44157],[-118.4896,34.43798],[-118.49762,34.43793],[-118.49368,34.44395],[-118.4919,34.44515],[-118.48961,34.44517],[-118.48977,34.4473],[-118.49139,34.44817],[-118.4913,34.45037],[-118.49063,34.45066],[-118.49143,34.45269],[-118.48978,34.45588],[-118.48964,34.45965],[-118.4922,34.45962],[-118.49219,34.46335],[-118.49753,34.46337],[-118.49773,34.46093],[-118.49874,34.46062],[-118.50078,34.46053],[-118.50291,34.4611],[-118.5033,34.4597],[-118.50269,34.45953],[-118.50257,34.459],[-118.50252,34.45232],[-118.50419,34.45232],[-118.50419,34.45385],[-118.50693,34.45383],[-118.50692,34.4523],[-118.50956,34.45229],[-118.51013,34.45416],[-118.5085,34.46022],[-118.51004,34.45974],[-118.51744,34.45978],[-118.5219,34.45905],[-118.52646,34.46077],[-118.529,34.46065],[-118.529,34.46669],[-118.52481,34.46678],[-118.52499,34.46813],[-118.51392,34.46736],[-118.51374,34.46777],[-118.51414,34.46887],[-118.51608,34.4697],[-118.51806,34.47118],[-118.51852,34.47216],[-118.51956,34.4726],[-118.52067,34.47272],[-118.52098,34.47048],[-118.52211,34.47032],[-118.52294,34.47038],[-118.52253,34.47119],[-118.52338,34.47166],[-118.52529,34.47185],[-118.52534,34.47609],[-118.53049,34.47605],[-118.53044,34.47542],[-118.53107,34.47512],[-118.53194,34.47573],[-118.53338,34.47557],[-118.53337,34.47414],[-118.53653,34.47372],[-118.5364,34.47314],[-118.53772,34.47237],[-118.53768,34.46368],[-118.53812,34.46343],[-118.53797,34.46392],[-118.53846,34.46382],[-118.54041,34.46627],[-118.54133,34.4664],[-118.54134,34.46566],[-118.5419,34.46595],[-118.54214,34.46481],[-118.5433,34.46481],[-118.54425,34.46673],[-118.54683,34.46695],[-118.54743,34.46782],[-118.55019,34.46931],[-118.55099,34.46957],[-118.55281,34.46887],[-118.55261,34.46943],[-118.55392,34.47118],[-118.55704,34.47323],[-118.55786,34.47524],[-118.55858,34.47567],[-118.55964,34.47599],[-118.56106,34.47563],[-118.56064,34.47519],[-118.56106,34.47512],[-118.56117,34.47442],[-118.56239,34.47596],[-118.56441,34.4764],[-118.56573,34.47752],[-118.56679,34.47752],[-118.56586,34.47889],[-118.56652,34.48043],[-118.5662,34.48155],[-118.56538,34.48141],[-118.56434,34.48258],[-118.56356,34.48241],[-118.56368,34.48305],[-118.56223,34.48495],[-118.56251,34.48553],[-118.56178,34.48528],[-118.55866,34.4866],[-118.55898,34.4873],[-118.55758,34.48894],[-118.55772,34.49019],[-118.55519,34.49305],[-118.55397,34.49335],[-118.55197,34.49547],[-118.55178,34.49716],[-118.55122,34.49778],[-118.55182,34.50096],[-118.55125,34.50133],[-118.55167,34.50216],[-118.55095,34.50247],[-118.55168,34.50331],[-118.55176,34.50433],[-118.54978,34.50614],[-118.54966,34.50943],[-118.5483,34.51012],[-118.54717,34.51323],[-118.54535,34.51437],[-118.54544,34.51846],[-118.54364,34.51833],[-118.54409,34.5189],[-118.54239,34.52058],[-118.54304,34.52145],[-118.54145,34.52207],[-118.54152,34.52286],[-118.54261,34.52299],[-118.5437,34.52401],[-118.54357,34.52513],[-118.54411,34.52564],[-118.54354,34.52667],[-118.54263,34.52607],[-118.54147,34.52719],[-118.54048,34.5272],[-118.54052,34.52775],[-118.53967,34.52841],[-118.54208,34.53201],[-118.54196,34.53844],[-118.53822,34.53859],[-118.53794,34.53938],[-118.53712,34.53968],[-118.53742,34.54012],[-118.53678,34.54032],[-118.5369,34.5411],[-118.53621,34.54199],[-118.53946,34.54192],[-118.53751,34.54313],[-118.5381,34.54393],[-118.53707,34.54357],[-118.53477,34.54411],[-118.53365,34.54361],[-118.53287,34.54413],[-118.53326,34.54514],[-118.53223,34.54631],[-118.53278,34.54771],[-118.53097,34.54861],[-118.53138,34.54994],[-118.53024,34.55045],[-118.5298,34.55206],[-118.52829,34.55273],[-118.52825,34.55373],[-118.52548,34.55375],[-118.52632,34.55414],[-118.52717,34.55379],[-118.52754,34.55453],[-118.52793,34.55437],[-118.53034,34.55642],[-118.52911,34.55673],[-118.52876,34.55626],[-118.52509,34.55746],[-118.52318,34.55703],[-118.51993,34.55512],[-118.51648,34.59848],[-118.51647,34.60174],[-118.51724,34.60174],[-118.51736,34.6162],[-118.59727,34.61629],[-118.62467,34.61549],[-118.64622,34.61632],[-118.69763,34.61637],[-118.7001,34.61718],[-118.7006,34.61715],[-118.70047,34.6164],[-118.79669,34.61656],[-118.67059,34.36069],[-118.66644,34.35945],[-118.66551,34.3569],[-118.66218,34.35674],[-118.66229,34.35559],[-118.66187,34.35476],[-118.66069,34.35433],[-118.66073,34.3531],[-118.65915,34.35283],[-118.65766,34.35189],[-118.65378,34.35164],[-118.65334,34.35276],[-118.64927,34.35176],[-118.64758,34.35266],[-118.64418,34.35153],[-118.64186,34.35166],[-118.64033,34.35265],[-118.63676,34.3521],[-118.63564,34.35128],[-118.633,34.35057],[-118.63256,34.35001],[-118.62911,34.34969],[-118.62691,34.35009],[-118.62561,34.34964],[-118.6245,34.34858],[-118.62263,34.34899],[-118.61517,34.34537],[-118.6142,34.34392],[-118.61259,34.34284],[-118.61145,34.34066],[-118.61025,34.33982],[-118.60993,34.33831],[-118.60296,34.33555],[-118.60081,34.3336],[-118.60072,34.33197],[-118.59819,34.3298],[-118.59661,34.32901],[-118.59511,34.32888],[-118.59321,34.32993],[-118.59207,34.32774],[-118.5874,34.32753],[-118.58621,34.32652],[-118.58644,34.32582],[-118.584,34.32437],[-118.58103,34.32524],[-118.57906,34.32492],[-118.57708,34.32576],[-118.57624,34.32539],[-118.5746,34.32199],[-118.57169,34.32003],[-118.56972,34.31935],[-118.56854,34.3195],[-118.56823,34.32026],[-118.56366,34.32305],[-118.55587,34.32079],[-118.55488,34.32162],[-118.55143,34.32192],[-118.54882,34.32446],[-118.54723,34.32475],[-118.5476,34.32738],[-118.54577,34.32864],[-118.54502,34.32993],[-118.53957,34.32797],[-118.53217,34.32832],[-118.53025,34.32999],[-118.53231,34.33192],[-118.53243,34.33331],[-118.53349,34.33525],[-118.53312,34.3358],[-118.53352,34.33698],[-118.53169,34.3371],[-118.53048,34.33769],[-118.52665,34.33747],[-118.52567,34.33787],[-118.52231,34.33674],[-118.52292,34.33725],[-118.52273,34.33823],[-118.52586,34.3394],[-118.52639,34.34052],[-118.52599,34.34044],[-118.52598,34.34164],[-118.51955,34.34042],[-118.51298,34.33724],[-118.50834,34.33389],[-118.50401,34.33716],[-118.50867,34.33959],[-118.50945,34.34144],[-118.50602,34.34131],[-118.50408,34.34635],[-118.50393,34.34933],[-118.50647,34.35777],[-118.50612,34.3602],[-118.50469,34.36304],[-118.4977,34.36262],[-118.49766,34.36152],[-118.48897,34.36142],[-118.48891,34.35963],[-118.47592,34.3591],[-118.47597,34.36628],[-118.48477,34.36675],[-118.48469,34.37021],[-118.48908,34.37026],[-118.4891,34.36939],[-118.49161,34.36942],[-118.49166,34.36668],[-118.49645,34.36674],[-118.49681,34.37047],[-118.50038,34.37046],[-118.49858,34.37308],[-118.49348,34.37754],[-118.48986,34.37512],[-118.48326,34.37575],[-118.48061,34.37381],[-118.47877,34.37345],[-118.47198,34.37626],[-118.46978,34.37799],[-118.46451,34.38055],[-118.45788,34.3788],[-118.44188,34.37814],[-118.44167,34.37436],[-118.43979,34.37436],[-118.43975,34.37705],[-118.43641,34.37704],[-118.43641,34.37613],[-118.4342,34.37611],[-118.4342,34.37521],[-118.43309,34.3752],[-118.4331,34.37431],[-118.43087,34.3743],[-118.43086,34.37653],[-118.42524,34.3767],[-118.41739,34.38106],[-118.41335,34.38118],[-118.41288,34.37957],[-118.41171,34.37924]]]}},{"type":"Feature","properties":{"district":36,"label":"36th Assembly District","pop":19059,"share":7.0,"main":false},"geometry":{"type":"MultiPolygon","coordinates":[[[[-118.6239,34.6817],[-118.62737,34.68395],[-118.62802,34.68581],[-118.62962,34.68698],[-118.63049,34.68882],[-118.63142,34.68923],[-118.63337,34.68984],[-118.63932,34.68965],[-118.64276,34.69029],[-118.64457,34.69144],[-118.64963,34.69259],[-118.65543,34.69517],[-118.66322,34.69768],[-118.66505,34.69944],[-118.6659,34.70251],[-118.66795,34.70373],[-118.67171,34.70502],[-118.67503,34.70718],[-118.67697,34.70877],[-118.68065,34.71486],[-118.68489,34.71745],[-118.68756,34.72003],[-118.69487,34.71995],[-118.69623,34.71821],[-118.70954,34.71789],[-118.70945,34.7184],[-118.71082,34.71945],[-118.71058,34.72077],[-118.7117,34.72083],[-118.71245,34.72171],[-118.71354,34.72644],[-118.71336,34.72732],[-118.70942,34.72879],[-118.71194,34.72984],[-118.71208,34.73096],[-118.7125,34.7311],[-118.7122,34.72965],[-118.72939,34.73164],[-118.74714,34.73157],[-118.74747,34.73917],[-118.75709,34.73968],[-118.75699,34.74728],[-118.76591,34.74726],[-118.7659,34.75362],[-118.77966,34.75823],[-118.77891,34.75737],[-118.78608,34.75118],[-118.79028,34.75378],[-118.79169,34.7535],[-118.79173,34.75267],[-118.79378,34.75157],[-118.79547,34.7485],[-118.79895,34.72704],[-118.79795,34.71252],[-118.79212,34.69825],[-118.78691,34.68875],[-118.77954,34.68034],[-118.77699,34.67625],[-118.77434,34.67443],[-118.76877,34.67268],[-118.766,34.67108],[-118.76189,34.66527],[-118.75665,34.66138],[-118.75461,34.6578],[-118.75424,34.65233],[-118.75297,34.64929],[-118.75658,34.64795],[-118.7571,34.64695],[-118.75856,34.64664],[-118.75885,34.6461],[-118.76073,34.64625],[-118.76094,34.64498],[-118.76242,34.64452],[-118.76239,34.64412],[-118.76554,34.64423],[-118.76667,34.64356],[-118.76907,34.64334],[-118.77043,34.64383],[-118.77066,34.64483],[-118.77235,34.64499],[-118.77059,34.64623],[-118.77126,34.64699],[-118.77092,34.64798],[-118.77404,34.6482],[-118.7747,34.64894],[-118.77693,34.64826],[-118.77661,34.6485],[-118.77722,34.64897],[-118.77706,34.64943],[-118.77774,34.64943],[-118.77841,34.65079],[-118.77901,34.65085],[-118.78011,34.65239],[-118.78297,34.65273],[-118.78463,34.6522],[-118.78436,34.65446],[-118.78503,34.65532],[-118.78572,34.65529],[-118.78524,34.65656],[-118.78561,34.65744],[-118.78587,34.6567],[-118.78896,34.65663],[-118.78999,34.6593],[-118.79504,34.65919],[-118.79739,34.65857],[-118.79881,34.65916],[-118.79937,34.6585],[-118.79876,34.65786],[-118.79891,34.65723],[-118.80022,34.65815],[-118.80172,34.6571],[-118.80426,34.65683],[-118.80582,34.65752],[-118.80701,34.65891],[-118.80672,34.65938],[-118.80806,34.66156],[-118.8092,34.66187],[-118.81105,34.66085],[-118.81332,34.6605],[-118.81552,34.66131],[-118.81751,34.66139],[-118.8176,34.66342],[-118.81868,34.66432],[-118.81821,34.66585],[-118.8198,34.66624],[-118.82091,34.66585],[-118.79669,34.61656],[-118.70047,34.6164],[-118.7006,34.61715],[-118.7001,34.61718],[-118.69763,34.61637],[-118.64622,34.61632],[-118.62467,34.61549],[-118.59727,34.61629],[-118.51736,34.6162],[-118.51724,34.60174],[-118.51647,34.60174],[-118.51648,34.59848],[-118.51993,34.55512],[-118.52318,34.55703],[-118.52509,34.55746],[-118.52876,34.55626],[-118.52911,34.55673],[-118.53034,34.55642],[-118.52793,34.55437],[-118.52754,34.55453],[-118.52717,34.55379],[-118.52632,34.55414],[-118.52548,34.55375],[-118.52825,34.55373],[-118.52829,34.55273],[-118.5298,34.55206],[-118.53024,34.55045],[-118.53138,34.54994],[-118.53097,34.54861],[-118.53278,34.54771],[-118.53223,34.54631],[-118.53326,34.54514],[-118.53287,34.54413],[-118.53365,34.54361],[-118.53477,34.54411],[-118.53707,34.54357],[-118.5381,34.54393],[-118.53751,34.54313],[-118.53946,34.54192],[-118.53621,34.54199],[-118.5369,34.5411],[-118.53678,34.54032],[-118.53742,34.54012],[-118.53712,34.53968],[-118.53794,34.53938],[-118.53822,34.53859],[-118.54196,34.53844],[-118.54208,34.53201],[-118.53967,34.52841],[-118.54052,34.52775],[-118.54048,34.5272],[-118.54147,34.52719],[-118.54263,34.52607],[-118.54354,34.52667],[-118.54411,34.52564],[-118.54357,34.52513],[-118.5437,34.52401],[-118.54261,34.52299],[-118.54152,34.52286],[-118.54145,34.52207],[-118.54304,34.52145],[-118.54239,34.52058],[-118.54409,34.5189],[-118.54364,34.51833],[-118.54544,34.51846],[-118.54535,34.51437],[-118.54717,34.51323],[-118.5483,34.51012],[-118.54966,34.50943],[-118.54978,34.50614],[-118.55176,34.50433],[-118.55168,34.50331],[-118.55095,34.50247],[-118.55167,34.50216],[-118.55125,34.50133],[-118.55182,34.50096],[-118.55122,34.49778],[-118.55178,34.49716],[-118.55197,34.49547],[-118.55397,34.49335],[-118.55519,34.49305],[-118.55772,34.49019],[-118.55758,34.48894],[-118.55898,34.4873],[-118.55866,34.4866],[-118.56178,34.48528],[-118.56251,34.48553],[-118.56223,34.48495],[-118.56368,34.48305],[-118.56356,34.48241],[-118.56434,34.48258],[-118.56538,34.48141],[-118.5662,34.48155],[-118.56652,34.48043],[-118.56586,34.47889],[-118.56679,34.47752],[-118.56573,34.47752],[-118.56441,34.4764],[-118.56239,34.47596],[-118.56117,34.47442],[-118.56106,34.47512],[-118.56064,34.47519],[-118.56106,34.47563],[-118.55964,34.47599],[-118.55858,34.47567],[-118.55786,34.47524],[-118.55704,34.47323],[-118.55392,34.47118],[-118.55261,34.46943],[-118.55281,34.46887],[-118.55099,34.46957],[-118.55019,34.46931],[-118.54743,34.46782],[-118.54683,34.46695],[-118.54425,34.46673],[-118.5433,34.46481],[-118.54214,34.46481],[-118.5419,34.46595],[-118.54134,34.46566],[-118.54133,34.4664],[-118.54041,34.46627],[-118.53846,34.46382],[-118.53797,34.46392],[-118.53812,34.46343],[-118.53768,34.46368],[-118.53772,34.47237],[-118.5364,34.47314],[-118.53653,34.47372],[-118.53337,34.47414],[-118.53338,34.47557],[-118.53194,34.47573],[-118.53107,34.47512],[-118.53044,34.47542],[-118.53049,34.47605],[-118.52534,34.47609],[-118.52529,34.47185],[-118.52338,34.47166],[-118.52253,34.47119],[-118.52294,34.47038],[-118.52211,34.47032],[-118.52098,34.47048],[-118.52067,34.47272],[-118.51956,34.4726],[-118.51852,34.47216],[-118.51806,34.47118],[-118.51608,34.4697],[-118.51414,34.46887],[-118.51374,34.46777],[-118.51392,34.46736],[-118.52499,34.46813],[-118.52481,34.46678],[-118.529,34.46669],[-118.529,34.46065],[-118.52646,34.46077],[-118.5219,34.45905],[-118.51744,34.45978],[-118.51004,34.45974],[-118.5085,34.46022],[-118.51013,34.45416],[-118.50956,34.45229],[-118.50692,34.4523],[-118.50693,34.45383],[-118.50419,34.45385],[-118.50419,34.45232],[-118.50252,34.45232],[-118.50257,34.459],[-118.50269,34.45953],[-118.5033,34.4597],[-118.50291,34.4611],[-118.50078,34.46053],[-118.49874,34.46062],[-118.49773,34.46093],[-118.49753,34.46337],[-118.49219,34.46335],[-118.4922,34.45962],[-118.48964,34.45965],[-118.48978,34.45588],[-118.49143,34.45269],[-118.49063,34.45066],[-118.4913,34.45037],[-118.49139,34.44817],[-118.48977,34.4473],[-118.48961,34.44517],[-118.4919,34.44515],[-118.49368,34.44395],[-118.49762,34.43793],[-118.4896,34.43798],[-118.48968,34.44157],[-118.48088,34.44161],[-118.48079,34.43806],[-118.46758,34.43797],[-118.46772,34.44153],[-118.46311,34.44153],[-118.46312,34.43077],[-118.45656,34.43078],[-118.45652,34.42719],[-118.44769,34.42722],[-118.44712,34.42775],[-118.44745,34.42858],[-118.44562,34.43066],[-118.44565,34.43442],[-118.43693,34.43447],[-118.43698,34.43807],[-118.43185,34.4381],[-118.42694,34.44631],[-118.42345,34.44996],[-118.42122,34.45019],[-118.42144,34.45091],[-118.42079,34.45075],[-118.42046,34.45121],[-118.42173,34.45217],[-118.41937,34.45565],[-118.41418,34.46143],[-118.41066,34.46433],[-118.40773,34.4652],[-118.40747,34.46628],[-118.40691,34.46537],[-118.40073,34.46766],[-118.39989,34.46676],[-118.39751,34.46724],[-118.39522,34.46911],[-118.39476,34.47109],[-118.39283,34.47261],[-118.39189,34.47153],[-118.39178,34.46973],[-118.39068,34.47015],[-118.39092,34.47197],[-118.39202,34.4733],[-118.38952,34.47688],[-118.38827,34.48124],[-118.38714,34.48151],[-118.38716,34.48093],[-118.38652,34.48044],[-118.38585,34.48174],[-118.38714,34.48185],[-118.38732,34.48823],[-118.38696,34.49123],[-118.38505,34.49551],[-118.38458,34.4961],[-118.37845,34.4962],[-118.37826,34.50238],[-118.3767,34.50301],[-118.37688,34.50254],[-118.37597,34.50268],[-118.37578,34.50368],[-118.36949,34.5071],[-118.36907,34.50719],[-118.36877,34.50592],[-118.36821,34.50581],[-118.36801,34.5064],[-118.36674,34.50546],[-118.36353,34.5059],[-118.36253,34.50517],[-118.36155,34.50299],[-118.36181,34.51117],[-118.37207,34.51092],[-118.37179,34.51187],[-118.37022,34.51213],[-118.36788,34.5136],[-118.36802,34.51462],[-118.36651,34.51491],[-118.36687,34.51584],[-118.36542,34.51582],[-118.36493,34.51688],[-118.36571,34.51948],[-118.36533,34.52613],[-118.36596,34.52808],[-118.36754,34.53011],[-118.36595,34.53259],[-118.36594,34.53398],[-118.36756,34.53387],[-118.36864,34.53197],[-118.37063,34.53083],[-118.37126,34.52971],[-118.37233,34.52936],[-118.37476,34.52901],[-118.37583,34.5294],[-118.37648,34.53092],[-118.37676,34.53359],[-118.37771,34.53161],[-118.3777,34.53374],[-118.37718,34.53494],[-118.37743,34.53768],[-118.37559,34.54273],[-118.37544,34.54486],[-118.37227,34.54962],[-118.36719,34.55269],[-118.36165,34.55332],[-118.35975,34.55857],[-118.35902,34.56293],[-118.35837,34.5623],[-118.35569,34.56238],[-118.35255,34.56073],[-118.35031,34.56166],[-118.34852,34.56108],[-118.34786,34.56132],[-118.3472,34.56079],[-118.34627,34.56192],[-118.34124,34.5615],[-118.34007,34.56203],[-118.33885,34.56195],[-118.33761,34.5624],[-118.3364,34.56401],[-118.33373,34.56383],[-118.33275,34.56329],[-118.32893,34.56394],[-118.3252,34.56319],[-118.3213,34.56389],[-118.31563,34.56263],[-118.31398,34.56167],[-118.31112,34.5614],[-118.30344,34.56359],[-118.29829,34.56352],[-118.29443,34.56437],[-118.29314,34.56421],[-118.29192,34.56312],[-118.28995,34.56391],[-118.28763,34.56327],[-118.28773,34.5814],[-118.28887,34.58316],[-118.2891,34.58733],[-118.28856,34.58849],[-118.28654,34.58967],[-118.29159,34.58759],[-118.29457,34.5872],[-118.2967,34.58763],[-118.30401,34.58751],[-118.30493,34.5872],[-118.30564,34.58622],[-118.30686,34.58698],[-118.31076,34.58756],[-118.30799,34.58771],[-118.30926,34.59022],[-118.31049,34.59074],[-118.3096,34.58995],[-118.30962,34.58901],[-118.3104,34.58969],[-118.31202,34.5897],[-118.31303,34.59084],[-118.31473,34.59012],[-118.31472,34.59115],[-118.31555,34.59162],[-118.31584,34.59239],[-118.31661,34.5925],[-118.31805,34.59427],[-118.31923,34.59402],[-118.32072,34.59535],[-118.32167,34.5951],[-118.32224,34.59399],[-118.32331,34.59477],[-118.32526,34.59379],[-118.32577,34.59547],[-118.32718,34.59599],[-118.32733,34.5968],[-118.32909,34.59651],[-118.33019,34.59758],[-118.33186,34.59747],[-118.33199,34.59847],[-118.33532,34.59994],[-118.33614,34.60073],[-118.33805,34.60107],[-118.3391,34.60079],[-118.34268,34.60215],[-118.34365,34.60189],[-118.34491,34.60298],[-118.34615,34.60226],[-118.34813,34.60245],[-118.34873,34.6043],[-118.34668,34.60353],[-118.34566,34.60417],[-118.34554,34.60484],[-118.34473,34.60441],[-118.34354,34.60552],[-118.34465,34.60494],[-118.34571,34.60556],[-118.34562,34.60623],[-118.34776,34.6075],[-118.34705,34.60841],[-118.34806,34.60827],[-118.34898,34.60912],[-118.34977,34.60823],[-118.35067,34.60865],[-118.35171,34.61026],[-118.35089,34.61106],[-118.35142,34.61136],[-118.35142,34.61205],[-118.35205,34.61194],[-118.35188,34.613],[-118.35227,34.61335],[-118.35183,34.61442],[-118.35305,34.61313],[-118.35465,34.61433],[-118.35447,34.6148],[-118.35683,34.61646],[-118.35656,34.61682],[-118.35738,34.61697],[-118.35727,34.61641],[-118.35793,34.61629],[-118.35869,34.61681],[-118.35858,34.61763],[-118.35985,34.61781],[-118.36099,34.61695],[-118.36178,34.61798],[-118.36239,34.61757],[-118.3632,34.61816],[-118.36417,34.61773],[-118.36346,34.61907],[-118.36422,34.61955],[-118.36564,34.61903],[-118.36642,34.61991],[-118.36614,34.62042],[-118.36715,34.6206],[-118.36668,34.62317],[-118.36851,34.62332],[-118.36839,34.62426],[-118.37033,34.62508],[-118.37138,34.6249],[-118.37208,34.62587],[-118.37311,34.6255],[-118.37161,34.62725],[-118.37178,34.62824],[-118.37065,34.62929],[-118.37072,34.62975],[-118.37388,34.63081],[-118.37481,34.63043],[-118.37753,34.63055],[-118.37745,34.63112],[-118.37938,34.63153],[-118.37972,34.63203],[-118.38125,34.6312],[-118.38537,34.6308],[-118.38628,34.63201],[-118.3859,34.63327],[-118.38529,34.63412],[-118.38309,34.63471],[-118.38339,34.63555],[-118.38294,34.63659],[-118.3818,34.63716],[-118.38086,34.63962],[-118.38177,34.6394],[-118.38235,34.6398],[-118.38346,34.6393],[-118.38538,34.63971],[-118.38614,34.63914],[-118.38787,34.63965],[-118.38844,34.63934],[-118.39053,34.64023],[-118.39166,34.63907],[-118.39387,34.63972],[-118.39445,34.63903],[-118.39724,34.63942],[-118.39793,34.64016],[-118.39938,34.64008],[-118.40103,34.64112],[-118.40186,34.641],[-118.40208,34.64157],[-118.40273,34.64118],[-118.40362,34.64142],[-118.40409,34.64175],[-118.40384,34.64287],[-118.40453,34.64232],[-118.4056,34.64246],[-118.40564,34.64389],[-118.40661,34.64424],[-118.40589,34.64558],[-118.40787,34.64518],[-118.40748,34.64704],[-118.40858,34.64717],[-118.40904,34.64797],[-118.4112,34.64816],[-118.41161,34.64763],[-118.41259,34.64829],[-118.41379,34.64831],[-118.4143,34.64703],[-118.41532,34.64835],[-118.41718,34.64844],[-118.41788,34.64794],[-118.42262,34.649],[-118.42618,34.647],[-118.42816,34.64797],[-118.42888,34.64728],[-118.42964,34.64748],[-118.43047,34.64666],[-118.43134,34.647],[-118.43475,34.6454],[-118.43499,34.6444],[-118.44044,34.64428],[-118.4413,34.64325],[-118.44207,34.64306],[-118.4496,34.64554],[-118.45406,34.64556],[-118.45773,34.64628],[-118.45963,34.64575],[-118.46925,34.64856],[-118.47113,34.6482],[-118.47695,34.64985],[-118.47744,34.65171],[-118.47836,34.65098],[-118.47987,34.65121],[-118.48047,34.65055],[-118.48039,34.65128],[-118.48126,34.65237],[-118.47941,34.65384],[-118.47666,34.65415],[-118.47285,34.65372],[-118.46663,34.65504],[-118.465,34.65455],[-118.46365,34.65539],[-118.4628,34.65689],[-118.46284,34.6581],[-118.46049,34.65961],[-118.45894,34.66154],[-118.46133,34.66683],[-118.46088,34.669],[-118.46326,34.66784],[-118.4639,34.66795],[-118.46394,34.66858],[-118.46272,34.66949],[-118.46359,34.67072],[-118.46651,34.66961],[-118.46922,34.67178],[-118.47251,34.67022],[-118.47248,34.67136],[-118.47464,34.6706],[-118.47553,34.67187],[-118.47731,34.67223],[-118.47972,34.67386],[-118.48242,34.67455],[-118.48265,34.67499],[-118.48423,34.67501],[-118.48505,34.67448],[-118.48655,34.67502],[-118.48679,34.67572],[-118.4879,34.6759],[-118.48912,34.67735],[-118.49096,34.67809],[-118.49263,34.67956],[-118.49602,34.68095],[-118.49683,34.68176],[-118.49831,34.68176],[-118.50261,34.6835],[-118.50311,34.68407],[-118.50265,34.68441],[-118.50343,34.68516],[-118.50283,34.68606],[-118.50449,34.68742],[-118.50858,34.68737],[-118.51059,34.68671],[-118.51196,34.68761],[-118.51443,34.68774],[-118.51559,34.68832],[-118.51825,34.68741],[-118.51845,34.68676],[-118.5219,34.68653],[-118.52323,34.68792],[-118.52413,34.68821],[-118.52498,34.68762],[-118.52665,34.68849],[-118.52896,34.68749],[-118.52919,34.68553],[-118.52996,34.68402],[-118.53252,34.68344],[-118.53327,34.68404],[-118.5338,34.68279],[-118.53578,34.68165],[-118.5388,34.68188],[-118.54036,34.68124],[-118.54066,34.68171],[-118.54035,34.68297],[-118.54203,34.68397],[-118.54327,34.68405],[-118.54423,34.68303],[-118.54496,34.68401],[-118.54645,34.68403],[-118.54783,34.68515],[-118.54922,34.68503],[-118.54994,34.68593],[-118.55092,34.68613],[-118.54873,34.68847],[-118.54891,34.68915],[-118.55097,34.68926],[-118.55173,34.69002],[-118.55311,34.6901],[-118.55372,34.69091],[-118.55452,34.69077],[-118.55458,34.69165],[-118.55757,34.69246],[-118.55899,34.69394],[-118.56041,34.69406],[-118.56465,34.69311],[-118.56365,34.69659],[-118.56609,34.69703],[-118.5671,34.69897],[-118.56955,34.6992],[-118.56985,34.69994],[-118.57112,34.70057],[-118.57509,34.69947],[-118.57697,34.69967],[-118.57947,34.69823],[-118.58302,34.69757],[-118.58511,34.69554],[-118.58962,34.69538],[-118.59295,34.69643],[-118.59655,34.69478],[-118.5988,34.6951],[-118.60318,34.69337],[-118.60706,34.69322],[-118.61204,34.68906],[-118.61378,34.68875],[-118.61588,34.68731],[-118.61772,34.68346],[-118.61876,34.68234],[-118.62265,34.68154],[-118.6239,34.6817]]],[[[-118.30696,34.5583],[-118.30831,34.54024],[-118.34327,34.53992],[-118.34407,34.52566],[-118.35854,34.52571],[-118.35573,34.52364],[-118.34936,34.52523],[-118.32513,34.5255],[-118.32377,34.52742],[-118.31923,34.52917],[-118.31711,34.53171],[-118.31519,34.53246],[-118.31062,34.53661],[-118.3054,34.5355],[-118.30218,34.53372],[-118.30082,34.53463],[-118.2985,34.53487],[-118.29685,34.53617],[-118.29633,34.53598],[-118.29609,34.53506],[-118.294,34.53673],[-118.29288,34.53713],[-118.29187,34.53679],[-118.2907,34.53788],[-118.28953,34.53784],[-118.28957,34.53622],[-118.28356,34.5379],[-118.28115,34.53741],[-118.28124,34.53631],[-118.27934,34.5338],[-118.27723,34.53401],[-118.27432,34.53488],[-118.2701,34.5399],[-118.27034,34.54107],[-118.26968,34.54202],[-118.2682,34.54287],[-118.26663,34.54485],[-118.26536,34.54491],[-118.26324,34.54401],[-118.26073,34.54397],[-118.2593,34.54328],[-118.25624,34.54381],[-118.25534,34.54306],[-118.25468,34.5583],[-118.30696,34.5583]]],[[[-118.36172,34.52123],[-118.36174,34.51794],[-118.36051,34.51956],[-118.36172,34.52123]]],[[[-118.36172,34.52123],[-118.36169,34.52247],[-118.36237,34.52179],[-118.36172,34.52123]]],[[[-118.25561,34.51989],[-118.25569,34.51989],[-118.25567,34.51441],[-118.25561,34.51989]]],[[[-118.25949,34.4991],[-118.26491,34.4978],[-118.25915,34.49898],[-118.25728,34.50023],[-118.25562,34.50217],[-118.25949,34.4991]]],[[[-118.36086,34.52299],[-118.36033,34.5241],[-118.35917,34.52457],[-118.35854,34.52571],[-118.36165,34.52568],[-118.36169,34.52247],[-118.36086,34.52299]]]]}},{"type":"Feature","properties":{"role":"outline"},"geometry":{"type":"Polygon","coordinates":[[[-118.79669,34.61656],[-118.67059,34.36069],[-118.66644,34.35945],[-118.66551,34.3569],[-118.66218,34.35674],[-118.66229,34.35559],[-118.66187,34.35476],[-118.66069,34.35433],[-118.66073,34.3531],[-118.65915,34.35283],[-118.65766,34.35189],[-118.65378,34.35164],[-118.65334,34.35276],[-118.64927,34.35176],[-118.64758,34.35266],[-118.64418,34.35153],[-118.64186,34.35166],[-118.64033,34.35265],[-118.63676,34.3521],[-118.63564,34.35128],[-118.633,34.35057],[-118.63256,34.35001],[-118.62911,34.34969],[-118.62691,34.35009],[-118.62561,34.34964],[-118.6245,34.34858],[-118.62263,34.34899],[-118.61517,34.34537],[-118.6142,34.34392],[-118.61259,34.34284],[-118.61145,34.34066],[-118.61025,34.33982],[-118.60993,34.33831],[-118.60296,34.33555],[-118.60081,34.3336],[-118.60072,34.33197],[-118.59819,34.3298],[-118.59661,34.32901],[-118.59511,34.32888],[-118.59321,34.32993],[-118.59207,34.32774],[-118.5874,34.32753],[-118.58621,34.32652],[-118.58644,34.32582],[-118.584,34.32437],[-118.58103,34.32524],[-118.57906,34.32492],[-118.57708,34.32576],[-118.57624,34.32539],[-118.5746,34.32199],[-118.57169,34.32003],[-118.56972,34.31935],[-118.56854,34.3195],[-118.56823,34.32026],[-118.56366,34.32305],[-118.55587,34.32079],[-118.55488,34.32162],[-118.55143,34.32192],[-118.54882,34.32446],[-118.54723,34.32475],[-118.5476,34.32738],[-118.54577,34.32864],[-118.54502,34.32993],[-118.53957,34.32797],[-118.53217,34.32832],[-118.53025,34.32999],[-118.53231,34.33192],[-118.53243,34.33331],[-118.53349,34.33525],[-118.53312,34.3358],[-118.53352,34.33698],[-118.53169,34.3371],[-118.53048,34.33769],[-118.52665,34.33747],[-118.52567,34.33787],[-118.52231,34.33674],[-118.52292,34.33725],[-118.52273,34.33823],[-118.52586,34.3394],[-118.52639,34.34052],[-118.52599,34.34044],[-118.52598,34.34164],[-118.51955,34.34042],[-118.51298,34.33724],[-118.50834,34.33389],[-118.50401,34.33716],[-118.50867,34.33959],[-118.50945,34.34144],[-118.50602,34.34131],[-118.50408,34.34635],[-118.50393,34.34933],[-118.50647,34.35777],[-118.50612,34.3602],[-118.50469,34.36304],[-118.4977,34.36262],[-118.49766,34.36152],[-118.48897,34.36142],[-118.48891,34.35963],[-118.47592,34.3591],[-118.47597,34.36628],[-118.48477,34.36675],[-118.48469,34.37021],[-118.48908,34.37026],[-118.4891,34.36939],[-118.49161,34.36942],[-118.49166,34.36668],[-118.49645,34.36674],[-118.49681,34.37047],[-118.50038,34.37046],[-118.49858,34.37308],[-118.49348,34.37754],[-118.48986,34.37512],[-118.48326,34.37575],[-118.48061,34.37381],[-118.47877,34.37345],[-118.47198,34.37626],[-118.46978,34.37799],[-118.46451,34.38055],[-118.45788,34.3788],[-118.44188,34.37814],[-118.44167,34.37436],[-118.43979,34.37436],[-118.43975,34.37705],[-118.43641,34.37704],[-118.43641,34.37613],[-118.4342,34.37611],[-118.4342,34.37521],[-118.43309,34.3752],[-118.4331,34.37431],[-118.43087,34.3743],[-118.43086,34.37653],[-118.42524,34.3767],[-118.41739,34.38106],[-118.41335,34.38118],[-118.41288,34.37957],[-118.41171,34.37924],[-118.40667,34.38082],[-118.39724,34.38119],[-118.39707,34.39803],[-118.39715,34.40103],[-118.39782,34.40152],[-118.39786,34.41652],[-118.40202,34.4164],[-118.40203,34.42299],[-118.40411,34.42238],[-118.40447,34.42322],[-118.40385,34.42364],[-118.40507,34.42363],[-118.40422,34.42415],[-118.40421,34.42531],[-118.41522,34.42527],[-118.41521,34.42761],[-118.40936,34.42754],[-118.40487,34.4282],[-118.39068,34.43381],[-118.3856,34.43358],[-118.38333,34.43238],[-118.38221,34.43234],[-118.37835,34.43523],[-118.36672,34.43876],[-118.36526,34.43862],[-118.3642,34.43772],[-118.36291,34.43328],[-118.36035,34.43349],[-118.35874,34.4331],[-118.35532,34.43108],[-118.34957,34.43205],[-118.34554,34.435],[-118.34095,34.43603],[-118.3399,34.43732],[-118.33851,34.43799],[-118.33432,34.43832],[-118.33333,34.43984],[-118.33371,34.44167],[-118.33336,34.44394],[-118.33429,34.44569],[-118.33391,34.4472],[-118.3342,34.44847],[-118.33308,34.45055],[-118.3342,34.45456],[-118.3304,34.45835],[-118.33009,34.46005],[-118.32855,34.46111],[-118.32971,34.46652],[-118.32457,34.46701],[-118.31741,34.47157],[-118.31078,34.47305],[-118.2973,34.47959],[-118.28994,34.48103],[-118.28726,34.48356],[-118.28607,34.48966],[-118.28403,34.49175],[-118.27138,34.49685],[-118.26491,34.4978],[-118.25915,34.49898],[-118.25728,34.50023],[-118.25562,34.50217],[-118.25567,34.51441],[-118.25561,34.51989],[-118.25534,34.54306],[-118.25468,34.5583],[-118.30696,34.5583],[-118.30831,34.54024],[-118.34327,34.53992],[-118.34407,34.52566],[-118.35854,34.52571],[-118.36165,34.52568],[-118.36169,34.52247],[-118.36237,34.52179],[-118.36172,34.52123],[-118.36174,34.51794],[-118.36181,34.51117],[-118.37207,34.51092],[-118.37179,34.51187],[-118.37022,34.51213],[-118.36788,34.5136],[-118.36802,34.51462],[-118.36651,34.51491],[-118.36687,34.51584],[-118.36542,34.51582],[-118.36493,34.51688],[-118.36571,34.51948],[-118.36533,34.52613],[-118.36596,34.52808],[-118.36754,34.53011],[-118.36595,34.53259],[-118.36594,34.53398],[-118.36756,34.53387],[-118.36864,34.53197],[-118.37063,34.53083],[-118.37126,34.52971],[-118.37233,34.52936],[-118.37476,34.52901],[-118.37583,34.5294],[-118.37648,34.53092],[-118.37676,34.53359],[-118.37771,34.53161],[-118.3777,34.53374],[-118.37718,34.53494],[-118.37743,34.53768],[-118.37559,34.54273],[-118.37544,34.54486],[-118.37227,34.54962],[-118.36719,34.55269],[-118.36165,34.55332],[-118.35975,34.55857],[-118.35902,34.56293],[-118.35837,34.5623],[-118.35569,34.56238],[-118.35255,34.56073],[-118.35031,34.56166],[-118.34852,34.56108],[-118.34786,34.56132],[-118.3472,34.56079],[-118.34627,34.56192],[-118.34124,34.5615],[-118.34007,34.56203],[-118.33885,34.56195],[-118.33761,34.5624],[-118.3364,34.56401],[-118.33373,34.56383],[-118.33275,34.56329],[-118.32893,34.56394],[-118.3252,34.56319],[-118.3213,34.56389],[-118.31563,34.56263],[-118.31398,34.56167],[-118.31112,34.5614],[-118.30344,34.56359],[-118.29829,34.56352],[-118.29443,34.56437],[-118.29314,34.56421],[-118.29192,34.56312],[-118.28995,34.56391],[-118.28763,34.56327],[-118.28773,34.5814],[-118.28887,34.58316],[-118.2891,34.58733],[-118.28856,34.58849],[-118.28654,34.58967],[-118.29159,34.58759],[-118.29457,34.5872],[-118.2967,34.58763],[-118.30401,34.58751],[-118.30493,34.5872],[-118.30564,34.58622],[-118.30686,34.58698],[-118.31076,34.58756],[-118.30799,34.58771],[-118.30926,34.59022],[-118.31049,34.59074],[-118.3096,34.58995],[-118.30962,34.58901],[-118.3104,34.58969],[-118.31202,34.5897],[-118.31303,34.59084],[-118.31473,34.59012],[-118.31472,34.59115],[-118.31555,34.59162],[-118.31584,34.59239],[-118.31661,34.5925],[-118.31805,34.59427],[-118.31923,34.59402],[-118.32072,34.59535],[-118.32167,34.5951],[-118.32224,34.59399],[-118.32331,34.59477],[-118.32526,34.59379],[-118.32577,34.59547],[-118.32718,34.59599],[-118.32733,34.5968],[-118.32909,34.59651],[-118.33019,34.59758],[-118.33186,34.59747],[-118.33199,34.59847],[-118.33532,34.59994],[-118.33614,34.60073],[-118.33805,34.60107],[-118.3391,34.60079],[-118.34268,34.60215],[-118.34365,34.60189],[-118.34491,34.60298],[-118.34615,34.60226],[-118.34813,34.60245],[-118.34873,34.6043],[-118.34668,34.60353],[-118.34566,34.60417],[-118.34554,34.60484],[-118.34473,34.60441],[-118.34354,34.60552],[-118.34465,34.60494],[-118.34571,34.60556],[-118.34562,34.60623],[-118.34776,34.6075],[-118.34705,34.60841],[-118.34806,34.60827],[-118.34898,34.60912],[-118.34977,34.60823],[-118.35067,34.60865],[-118.35171,34.61026],[-118.35089,34.61106],[-118.35142,34.61136],[-118.35142,34.61205],[-118.35205,34.61194],[-118.35188,34.613],[-118.35227,34.61335],[-118.35183,34.61442],[-118.35305,34.61313],[-118.35465,34.61433],[-118.35447,34.6148],[-118.35683,34.61646],[-118.35656,34.61682],[-118.35738,34.61697],[-118.35727,34.61641],[-118.35793,34.61629],[-118.35869,34.61681],[-118.35858,34.61763],[-118.35985,34.61781],[-118.36099,34.61695],[-118.36178,34.61798],[-118.36239,34.61757],[-118.3632,34.61816],[-118.36417,34.61773],[-118.36346,34.61907],[-118.36422,34.61955],[-118.36564,34.61903],[-118.36642,34.61991],[-118.36614,34.62042],[-118.36715,34.6206],[-118.36668,34.62317],[-118.36851,34.62332],[-118.36839,34.62426],[-118.37033,34.62508],[-118.37138,34.6249],[-118.37208,34.62587],[-118.37311,34.6255],[-118.37161,34.62725],[-118.37178,34.62824],[-118.37065,34.62929],[-118.37072,34.62975],[-118.37388,34.63081],[-118.37481,34.63043],[-118.37753,34.63055],[-118.37745,34.63112],[-118.37938,34.63153],[-118.37972,34.63203],[-118.38125,34.6312],[-118.38537,34.6308],[-118.38628,34.63201],[-118.3859,34.63327],[-118.38529,34.63412],[-118.38309,34.63471],[-118.38339,34.63555],[-118.38294,34.63659],[-118.3818,34.63716],[-118.38086,34.63962],[-118.38177,34.6394],[-118.38235,34.6398],[-118.38346,34.6393],[-118.38538,34.63971],[-118.38614,34.63914],[-118.38787,34.63965],[-118.38844,34.63934],[-118.39053,34.64023],[-118.39166,34.63907],[-118.39387,34.63972],[-118.39445,34.63903],[-118.39724,34.63942],[-118.39793,34.64016],[-118.39938,34.64008],[-118.40103,34.64112],[-118.40186,34.641],[-118.40208,34.64157],[-118.40273,34.64118],[-118.40362,34.64142],[-118.40409,34.64175],[-118.40384,34.64287],[-118.40453,34.64232],[-118.4056,34.64246],[-118.40564,34.64389],[-118.40661,34.64424],[-118.40589,34.64558],[-118.40787,34.64518],[-118.40748,34.64704],[-118.40858,34.64717],[-118.40904,34.64797],[-118.4112,34.64816],[-118.41161,34.64763],[-118.41259,34.64829],[-118.41379,34.64831],[-118.4143,34.64703],[-118.41532,34.64835],[-118.41718,34.64844],[-118.41788,34.64794],[-118.42262,34.649],[-118.42618,34.647],[-118.42816,34.64797],[-118.42888,34.64728],[-118.42964,34.64748],[-118.43047,34.64666],[-118.43134,34.647],[-118.43475,34.6454],[-118.43499,34.6444],[-118.44044,34.64428],[-118.4413,34.64325],[-118.44207,34.64306],[-118.4496,34.64554],[-118.45406,34.64556],[-118.45773,34.64628],[-118.45963,34.64575],[-118.46925,34.64856],[-118.47113,34.6482],[-118.47695,34.64985],[-118.47744,34.65171],[-118.47836,34.65098],[-118.47987,34.65121],[-118.48047,34.65055],[-118.48039,34.65128],[-118.48126,34.65237],[-118.47941,34.65384],[-118.47666,34.65415],[-118.47285,34.65372],[-118.46663,34.65504],[-118.465,34.65455],[-118.46365,34.65539],[-118.4628,34.65689],[-118.46284,34.6581],[-118.46049,34.65961],[-118.45894,34.66154],[-118.46133,34.66683],[-118.46088,34.669],[-118.46326,34.66784],[-118.4639,34.66795],[-118.46394,34.66858],[-118.46272,34.66949],[-118.46359,34.67072],[-118.46651,34.66961],[-118.46922,34.67178],[-118.47251,34.67022],[-118.47248,34.67136],[-118.47464,34.6706],[-118.47553,34.67187],[-118.47731,34.67223],[-118.47972,34.67386],[-118.48242,34.67455],[-118.48265,34.67499],[-118.48423,34.67501],[-118.48505,34.67448],[-118.48655,34.67502],[-118.48679,34.67572],[-118.4879,34.6759],[-118.48912,34.67735],[-118.49096,34.67809],[-118.49263,34.67956],[-118.49602,34.68095],[-118.49683,34.68176],[-118.49831,34.68176],[-118.50261,34.6835],[-118.50311,34.68407],[-118.50265,34.68441],[-118.50343,34.68516],[-118.50283,34.68606],[-118.50449,34.68742],[-118.50858,34.68737],[-118.51059,34.68671],[-118.51196,34.68761],[-118.51443,34.68774],[-118.51559,34.68832],[-118.51825,34.68741],[-118.51845,34.68676],[-118.5219,34.68653],[-118.52323,34.68792],[-118.52413,34.68821],[-118.52498,34.68762],[-118.52665,34.68849],[-118.52896,34.68749],[-118.52919,34.68553],[-118.52996,34.68402],[-118.53252,34.68344],[-118.53327,34.68404],[-118.5338,34.68279],[-118.53578,34.68165],[-118.5388,34.68188],[-118.54036,34.68124],[-118.54066,34.68171],[-118.54035,34.68297],[-118.54203,34.68397],[-118.54327,34.68405],[-118.54423,34.68303],[-118.54496,34.68401],[-118.54645,34.68403],[-118.54783,34.68515],[-118.54922,34.68503],[-118.54994,34.68593],[-118.55092,34.68613],[-118.54873,34.68847],[-118.54891,34.68915],[-118.55097,34.68926],[-118.55173,34.69002],[-118.55311,34.6901],[-118.55372,34.69091],[-118.55452,34.69077],[-118.55458,34.69165],[-118.55757,34.69246],[-118.55899,34.69394],[-118.56041,34.69406],[-118.56465,34.69311],[-118.56365,34.69659],[-118.56609,34.69703],[-118.5671,34.69897],[-118.56955,34.6992],[-118.56985,34.69994],[-118.57112,34.70057],[-118.57509,34.69947],[-118.57697,34.69967],[-118.57947,34.69823],[-118.58302,34.69757],[-118.58511,34.69554],[-118.58962,34.69538],[-118.59295,34.69643],[-118.59655,34.69478],[-118.5988,34.6951],[-118.60318,34.69337],[-118.60706,34.69322],[-118.61204,34.68906],[-118.61378,34.68875],[-118.61588,34.68731],[-118.61772,34.68346],[-118.61876,34.68234],[-118.62265,34.68154],[-118.6239,34.6817],[-118.62737,34.68395],[-118.62802,34.68581],[-118.62962,34.68698],[-118.63049,34.68882],[-118.63142,34.68923],[-118.63337,34.68984],[-118.63932,34.68965],[-118.64276,34.69029],[-118.64457,34.69144],[-118.64963,34.69259],[-118.65543,34.69517],[-118.66322,34.69768],[-118.66505,34.69944],[-118.6659,34.70251],[-118.66795,34.70373],[-118.67171,34.70502],[-118.67503,34.70718],[-118.67697,34.70877],[-118.68065,34.71486],[-118.68489,34.71745],[-118.68756,34.72003],[-118.69487,34.71995],[-118.69623,34.71821],[-118.70954,34.71789],[-118.70945,34.7184],[-118.71082,34.71945],[-118.71058,34.72077],[-118.7117,34.72083],[-118.71245,34.72171],[-118.71354,34.72644],[-118.71336,34.72732],[-118.70942,34.72879],[-118.71194,34.72984],[-118.71208,34.73096],[-118.7125,34.7311],[-118.7122,34.72965],[-118.72939,34.73164],[-118.74714,34.73157],[-118.74747,34.73917],[-118.75709,34.73968],[-118.75699,34.74728],[-118.76591,34.74726],[-118.7659,34.75362],[-118.77966,34.75823],[-118.77891,34.75737],[-118.78608,34.75118],[-118.79028,34.75378],[-118.79169,34.7535],[-118.79173,34.75267],[-118.79378,34.75157],[-118.79547,34.7485],[-118.79895,34.72704],[-118.79795,34.71252],[-118.79212,34.69825],[-118.78691,34.68875],[-118.77954,34.68034],[-118.77699,34.67625],[-118.77434,34.67443],[-118.76877,34.67268],[-118.766,34.67108],[-118.76189,34.66527],[-118.75665,34.66138],[-118.75461,34.6578],[-118.75424,34.65233],[-118.75297,34.64929],[-118.75658,34.64795],[-118.7571,34.64695],[-118.75856,34.64664],[-118.75885,34.6461],[-118.76073,34.64625],[-118.76094,34.64498],[-118.76242,34.64452],[-118.76239,34.64412],[-118.76554,34.64423],[-118.76667,34.64356],[-118.76907,34.64334],[-118.77043,34.64383],[-118.77066,34.64483],[-118.77235,34.64499],[-118.77059,34.64623],[-118.77126,34.64699],[-118.77092,34.64798],[-118.77404,34.6482],[-118.7747,34.64894],[-118.77693,34.64826],[-118.77661,34.6485],[-118.77722,34.64897],[-118.77706,34.64943],[-118.77774,34.64943],[-118.77841,34.65079],[-118.77901,34.65085],[-118.78011,34.65239],[-118.78297,34.65273],[-118.78463,34.6522],[-118.78436,34.65446],[-118.78503,34.65532],[-118.78572,34.65529],[-118.78524,34.65656],[-118.78561,34.65744],[-118.78587,34.6567],[-118.78896,34.65663],[-118.78999,34.6593],[-118.79504,34.65919],[-118.79739,34.65857],[-118.79881,34.65916],[-118.79937,34.6585],[-118.79876,34.65786],[-118.79891,34.65723],[-118.80022,34.65815],[-118.80172,34.6571],[-118.80426,34.65683],[-118.80582,34.65752],[-118.80701,34.65891],[-118.80672,34.65938],[-118.80806,34.66156],[-118.8092,34.66187],[-118.81105,34.66085],[-118.81332,34.6605],[-118.81552,34.66131],[-118.81751,34.66139],[-118.8176,34.66342],[-118.81868,34.66432],[-118.81821,34.66585],[-118.8198,34.66624],[-118.82091,34.66585],[-118.79669,34.61656]]]}}]}