{"type":"FeatureCollection","name":"house-2025","properties":{"chamber":"house","plan":"2025","planNote":"2025 congressional map (AB 604, enacted by Proposition 50; elections from 2026)","populationBasis":"2020 Census","valleyPop":291244},"features":[{"type":"Feature","properties":{"district":27,"label":"27th Congressional District","pop":256153,"share":88.0,"main":true},"geometry":{"type":"Polygon","coordinates":[[[-118.61445,34.43721],[-118.61834,34.43528],[-118.62406,34.43038],[-118.62595,34.42928],[-118.64106,34.42467],[-118.64874,34.42398],[-118.65392,34.42208],[-118.65721,34.41928],[-118.65748,34.41965],[-118.65685,34.42001],[-118.65735,34.42185],[-118.65698,34.42388],[-118.65868,34.42753],[-118.65865,34.43146],[-118.65973,34.43251],[-118.66142,34.43032],[-118.66417,34.43086],[-118.6652,34.43165],[-118.6656,34.43319],[-118.66724,34.43372],[-118.6676,34.43451],[-118.66854,34.43346],[-118.66715,34.43304],[-118.667,34.43204],[-118.67194,34.4275],[-118.67314,34.42746],[-118.66946,34.42405],[-118.66939,34.42188],[-118.66895,34.42116],[-118.66954,34.41988],[-118.6695,34.4182],[-118.66893,34.41599],[-118.67007,34.41515],[-118.66978,34.41452],[-118.67027,34.41377],[-118.67018,34.41299],[-118.66907,34.41177],[-118.66913,34.41087],[-118.67312,34.41029],[-118.67931,34.40786],[-118.68354,34.40783],[-118.68812,34.40665],[-118.6929,34.40609],[-118.67059,34.36069],[-118.66644,34.35945],[-118.66551,34.3569],[-118.66218,34.35674],[-118.66229,34.35559],[-118.66187,34.35476],[-118.66069,34.35433],[-118.66066,34.35303],[-118.65915,34.35283],[-118.65836,34.35207],[-118.65557,34.35163],[-118.65372,34.35167],[-118.65334,34.35276],[-118.64927,34.35176],[-118.64744,34.35265],[-118.64435,34.35153],[-118.64186,34.35166],[-118.64033,34.35265],[-118.63676,34.3521],[-118.63564,34.35128],[-118.633,34.35057],[-118.63256,34.35001],[-118.62911,34.34969],[-118.62691,34.35009],[-118.62561,34.34964],[-118.6245,34.34858],[-118.62263,34.34899],[-118.61517,34.34537],[-118.6142,34.34392],[-118.61259,34.34284],[-118.61145,34.34066],[-118.61025,34.33982],[-118.60993,34.33831],[-118.60296,34.33555],[-118.60081,34.3336],[-118.60072,34.33197],[-118.59819,34.3298],[-118.59661,34.32901],[-118.59511,34.32888],[-118.59321,34.32993],[-118.59207,34.32774],[-118.5874,34.32753],[-118.58621,34.32652],[-118.58644,34.32582],[-118.584,34.32437],[-118.58103,34.32524],[-118.57906,34.32492],[-118.57708,34.32576],[-118.57624,34.32539],[-118.5746,34.32199],[-118.57169,34.32003],[-118.56972,34.31935],[-118.56854,34.3195],[-118.56823,34.32026],[-118.56366,34.32305],[-118.55587,34.32079],[-118.55488,34.32162],[-118.55143,34.32192],[-118.54882,34.32446],[-118.54723,34.32475],[-118.5476,34.32738],[-118.54577,34.32864],[-118.54502,34.32993],[-118.53957,34.32797],[-118.53217,34.32832],[-118.53025,34.32999],[-118.53231,34.33192],[-118.53243,34.33331],[-118.53349,34.33525],[-118.53312,34.3358],[-118.53352,34.33698],[-118.53169,34.3371],[-118.53048,34.33769],[-118.52665,34.33747],[-118.52567,34.33787],[-118.52231,34.33674],[-118.52292,34.33725],[-118.52273,34.33823],[-118.52586,34.3394],[-118.52639,34.34052],[-118.52599,34.34044],[-118.52598,34.34164],[-118.51955,34.34042],[-118.51298,34.33724],[-118.50834,34.33389],[-118.50401,34.33716],[-118.50867,34.33959],[-118.50945,34.34145],[-118.506,34.34137],[-118.5045,34.34456],[-118.50372,34.34858],[-118.50616,34.35657],[-118.50624,34.35914],[-118.5053,34.36169],[-118.50029,34.37063],[-118.49858,34.37308],[-118.49348,34.37754],[-118.48663,34.38347],[-118.48233,34.38588],[-118.4774,34.38971],[-118.44926,34.40559],[-118.44777,34.40689],[-118.44698,34.40603],[-118.4491,34.4047],[-118.45103,34.40247],[-118.44845,34.40211],[-118.44787,34.4013],[-118.44618,34.40166],[-118.4436,34.40396],[-118.44341,34.40533],[-118.44259,34.40592],[-118.44286,34.40457],[-118.44195,34.40387],[-118.44232,34.40324],[-118.44156,34.40208],[-118.44106,34.40205],[-118.4411,34.40354],[-118.43995,34.40402],[-118.43488,34.40221],[-118.43257,34.40263],[-118.43245,34.40638],[-118.42831,34.40665],[-118.42796,34.41311],[-118.42593,34.41431],[-118.42588,34.41647],[-118.422,34.41663],[-118.42083,34.41469],[-118.41611,34.4178],[-118.41515,34.41904],[-118.41515,34.42325],[-118.41729,34.42235],[-118.42119,34.41905],[-118.42303,34.41856],[-118.42364,34.41995],[-118.42133,34.42092],[-118.41808,34.42369],[-118.41523,34.42474],[-118.41522,34.42589],[-118.41329,34.42601],[-118.41211,34.42491],[-118.40745,34.42435],[-118.40386,34.42563],[-118.40421,34.42563],[-118.40421,34.42653],[-118.40354,34.42652],[-118.40354,34.42707],[-118.4042,34.42708],[-118.4042,34.42839],[-118.39237,34.43342],[-118.39335,34.43674],[-118.39319,34.44187],[-118.38801,34.45023],[-118.38532,34.45173],[-118.38257,34.45528],[-118.37988,34.45605],[-118.37975,34.45681],[-118.37871,34.45782],[-118.3773,34.4583],[-118.37453,34.46082],[-118.37454,34.46133],[-118.37362,34.46149],[-118.37306,34.46269],[-118.37203,34.46341],[-118.37248,34.46438],[-118.37082,34.46662],[-118.37105,34.46731],[-118.37898,34.46726],[-118.37751,34.4812],[-118.37938,34.48073],[-118.38348,34.4818],[-118.38714,34.48185],[-118.38733,34.49614],[-118.37845,34.4962],[-118.37826,34.50238],[-118.3801,34.50369],[-118.37724,34.50455],[-118.37686,34.50832],[-118.37729,34.50862],[-118.3774,34.51076],[-118.37207,34.51092],[-118.37179,34.51187],[-118.37022,34.51213],[-118.36788,34.5136],[-118.36802,34.51462],[-118.36646,34.51496],[-118.36687,34.51584],[-118.36593,34.51564],[-118.36509,34.51625],[-118.36571,34.51948],[-118.36513,34.52506],[-118.36596,34.52808],[-118.36754,34.53011],[-118.36595,34.53259],[-118.36594,34.53398],[-118.36756,34.53387],[-118.36864,34.53197],[-118.37063,34.53083],[-118.37126,34.52971],[-118.37233,34.52936],[-118.37476,34.52901],[-118.37583,34.5294],[-118.37648,34.53092],[-118.37676,34.53359],[-118.37771,34.53161],[-118.3777,34.53374],[-118.37718,34.53494],[-118.37743,34.53768],[-118.37559,34.54273],[-118.37544,34.54486],[-118.37227,34.54962],[-118.36719,34.55269],[-118.36165,34.55332],[-118.35975,34.55857],[-118.35902,34.56293],[-118.35837,34.5623],[-118.35569,34.56238],[-118.35255,34.56073],[-118.35031,34.56166],[-118.34852,34.56108],[-118.34786,34.56132],[-118.3472,34.56079],[-118.34627,34.56192],[-118.34124,34.5615],[-118.34007,34.56203],[-118.33885,34.56195],[-118.33761,34.5624],[-118.3364,34.56401],[-118.33373,34.56383],[-118.33275,34.56329],[-118.32893,34.56394],[-118.3252,34.56319],[-118.3213,34.56389],[-118.31563,34.56263],[-118.31398,34.56167],[-118.31112,34.5614],[-118.30344,34.56359],[-118.29829,34.56352],[-118.29443,34.56437],[-118.29314,34.56421],[-118.29192,34.56312],[-118.28995,34.56391],[-118.28763,34.56327],[-118.28773,34.5814],[-118.28887,34.58316],[-118.2891,34.58733],[-118.28856,34.58849],[-118.28654,34.58967],[-118.29159,34.58759],[-118.29457,34.5872],[-118.2967,34.58763],[-118.30401,34.58751],[-118.30493,34.5872],[-118.30564,34.58622],[-118.30686,34.58698],[-118.31076,34.58756],[-118.30799,34.58771],[-118.30926,34.59022],[-118.31049,34.59074],[-118.3096,34.58995],[-118.30962,34.58901],[-118.3104,34.58969],[-118.31202,34.5897],[-118.31303,34.59084],[-118.31473,34.59012],[-118.31472,34.59115],[-118.31555,34.59162],[-118.31584,34.59239],[-118.31661,34.5925],[-118.31805,34.59427],[-118.31923,34.59402],[-118.32072,34.59535],[-118.32167,34.5951],[-118.32224,34.59399],[-118.32331,34.59477],[-118.32526,34.59379],[-118.32577,34.59547],[-118.32718,34.59599],[-118.32733,34.5968],[-118.32909,34.59651],[-118.33019,34.59758],[-118.33186,34.59747],[-118.33199,34.59847],[-118.33532,34.59994],[-118.33614,34.60073],[-118.33805,34.60107],[-118.3391,34.60079],[-118.34268,34.60215],[-118.34365,34.60189],[-118.34491,34.60298],[-118.34615,34.60226],[-118.34813,34.60245],[-118.34873,34.6043],[-118.34668,34.60353],[-118.34566,34.60417],[-118.34554,34.60484],[-118.34473,34.60441],[-118.34354,34.60552],[-118.34465,34.60494],[-118.34571,34.60556],[-118.34562,34.60623],[-118.34776,34.6075],[-118.34705,34.60841],[-118.34806,34.60827],[-118.34898,34.60912],[-118.34977,34.60823],[-118.35067,34.60865],[-118.35171,34.61026],[-118.35089,34.61106],[-118.35142,34.61136],[-118.35142,34.61205],[-118.35205,34.61194],[-118.35188,34.613],[-118.35227,34.61335],[-118.35183,34.61442],[-118.35305,34.61313],[-118.35465,34.61433],[-118.35447,34.6148],[-118.35683,34.61646],[-118.35656,34.61682],[-118.35738,34.61697],[-118.35727,34.61641],[-118.35793,34.61629],[-118.35869,34.61681],[-118.35858,34.61763],[-118.35985,34.61781],[-118.36099,34.61695],[-118.36178,34.61798],[-118.36239,34.61757],[-118.3632,34.61816],[-118.36417,34.61773],[-118.36346,34.61907],[-118.36422,34.61955],[-118.36564,34.61903],[-118.36642,34.61991],[-118.36614,34.62042],[-118.36715,34.6206],[-118.36668,34.62317],[-118.36851,34.62332],[-118.36839,34.62426],[-118.37033,34.62508],[-118.37138,34.6249],[-118.37208,34.62587],[-118.37311,34.6255],[-118.37161,34.62725],[-118.37178,34.62824],[-118.37065,34.62929],[-118.37072,34.62975],[-118.37377,34.63079],[-118.37753,34.63055],[-118.37745,34.63112],[-118.37938,34.63153],[-118.37972,34.63203],[-118.38125,34.6312],[-118.38537,34.6308],[-118.38628,34.63201],[-118.3859,34.63327],[-118.38529,34.63412],[-118.38309,34.63471],[-118.38339,34.63555],[-118.38294,34.63659],[-118.3818,34.63716],[-118.38086,34.63962],[-118.38177,34.6394],[-118.38235,34.6398],[-118.38346,34.6393],[-118.38538,34.63971],[-118.38614,34.63914],[-118.38787,34.63965],[-118.38844,34.63934],[-118.39053,34.64023],[-118.39166,34.63907],[-118.39387,34.63972],[-118.39445,34.63903],[-118.39724,34.63942],[-118.39793,34.64016],[-118.39938,34.64008],[-118.40103,34.64112],[-118.40186,34.641],[-118.40208,34.64157],[-118.40273,34.64118],[-118.40362,34.64142],[-118.40409,34.64175],[-118.40384,34.64287],[-118.40453,34.64232],[-118.4056,34.64246],[-118.40564,34.64389],[-118.40661,34.64424],[-118.40589,34.64558],[-118.40787,34.64518],[-118.40748,34.64704],[-118.40858,34.64717],[-118.40904,34.64797],[-118.4112,34.64816],[-118.41161,34.64763],[-118.41259,34.64829],[-118.41379,34.64831],[-118.4142,34.64702],[-118.41532,34.64835],[-118.41674,34.64821],[-118.41523,34.64675],[-118.41669,34.64598],[-118.41659,34.64533],[-118.41858,34.6456],[-118.42124,34.64413],[-118.4222,34.64433],[-118.42345,34.64347],[-118.42342,34.64267],[-118.42486,34.6427],[-118.42554,34.64195],[-118.42754,34.64134],[-118.42809,34.64037],[-118.42946,34.64012],[-118.42967,34.63929],[-118.43054,34.63943],[-118.43181,34.63879],[-118.43199,34.63823],[-118.43616,34.63585],[-118.43728,34.63462],[-118.43808,34.6346],[-118.44151,34.63225],[-118.44308,34.63066],[-118.44371,34.62882],[-118.44343,34.62716],[-118.44233,34.62551],[-118.44279,34.62499],[-118.44539,34.62575],[-118.44851,34.62529],[-118.44443,34.63227],[-118.44142,34.6341],[-118.43967,34.6444],[-118.44058,34.64425],[-118.4413,34.64325],[-118.44207,34.64306],[-118.4496,34.64554],[-118.45406,34.64556],[-118.45773,34.64628],[-118.45963,34.64575],[-118.46925,34.64856],[-118.47113,34.6482],[-118.47695,34.64985],[-118.47744,34.65171],[-118.47836,34.65098],[-118.47987,34.65121],[-118.48041,34.65055],[-118.48037,34.65125],[-118.48372,34.65047],[-118.48495,34.64938],[-118.48519,34.64772],[-118.48576,34.64727],[-118.48965,34.64568],[-118.49071,34.64432],[-118.4921,34.64438],[-118.49867,34.64019],[-118.50158,34.63995],[-118.50522,34.64057],[-118.50419,34.64221],[-118.50439,34.64265],[-118.50773,34.64296],[-118.50984,34.6443],[-118.51128,34.64383],[-118.51285,34.6445],[-118.51425,34.64407],[-118.51846,34.64411],[-118.52177,34.64231],[-118.52279,34.64069],[-118.52453,34.64027],[-118.52519,34.63877],[-118.52838,34.63819],[-118.529,34.63597],[-118.52835,34.63503],[-118.52989,34.63438],[-118.53037,34.63336],[-118.52913,34.63328],[-118.5298,34.63201],[-118.53181,34.6316],[-118.53222,34.63234],[-118.53274,34.63229],[-118.53339,34.63053],[-118.53544,34.63145],[-118.53673,34.63089],[-118.53747,34.62947],[-118.53837,34.62907],[-118.53938,34.62899],[-118.53918,34.62976],[-118.54106,34.63005],[-118.54179,34.62984],[-118.54188,34.62849],[-118.54462,34.6293],[-118.54511,34.62803],[-118.5473,34.62655],[-118.55108,34.62481],[-118.55535,34.62196],[-118.55965,34.62059],[-118.56071,34.61905],[-118.55837,34.61782],[-118.55832,34.61714],[-118.57866,34.61742],[-118.57785,34.61624],[-118.59727,34.61629],[-118.62467,34.61549],[-118.64622,34.61632],[-118.69763,34.61637],[-118.7001,34.61718],[-118.7006,34.61715],[-118.70047,34.6164],[-118.71464,34.61653],[-118.71184,34.61065],[-118.71173,34.60608],[-118.71076,34.60067],[-118.71157,34.58967],[-118.71091,34.58707],[-118.70998,34.58558],[-118.70311,34.58014],[-118.6988,34.57562],[-118.69134,34.57255],[-118.68909,34.57116],[-118.68738,34.56925],[-118.68403,34.56381],[-118.67919,34.56043],[-118.67438,34.55793],[-118.67094,34.55359],[-118.65467,34.54462],[-118.65238,34.54291],[-118.64542,34.5352],[-118.64256,34.52553],[-118.62908,34.5072],[-118.62498,34.50721],[-118.62584,34.51062],[-118.62539,34.51059],[-118.62368,34.50999],[-118.62156,34.50805],[-118.6192,34.50769],[-118.61649,34.50577],[-118.61618,34.50485],[-118.61684,34.50485],[-118.61683,34.50384],[-118.61612,34.5036],[-118.61617,34.50254],[-118.61674,34.50202],[-118.61622,34.50041],[-118.6139,34.50007],[-118.61377,34.49728],[-118.61211,34.4972],[-118.61191,34.4932],[-118.61077,34.48935],[-118.61866,34.48922],[-118.61548,34.48461],[-118.61432,34.48085],[-118.61437,34.47822],[-118.61649,34.46812],[-118.6151,34.46201],[-118.61582,34.45665],[-118.61569,34.45421],[-118.61464,34.45163],[-118.6105,34.44638],[-118.60518,34.44321],[-118.61445,34.43721]]]}},{"type":"Feature","properties":{"district":26,"label":"26th Congressional District","pop":22621,"share":7.8,"main":false},"geometry":{"type":"MultiPolygon","coordinates":[[[[-118.64622,34.61632],[-118.62467,34.61549],[-118.59727,34.61629],[-118.57785,34.61624],[-118.57866,34.61742],[-118.55832,34.61714],[-118.55837,34.61782],[-118.56071,34.61905],[-118.55965,34.62059],[-118.55535,34.62196],[-118.55108,34.62481],[-118.5473,34.62655],[-118.54511,34.62803],[-118.54462,34.6293],[-118.54188,34.62849],[-118.54179,34.62984],[-118.54106,34.63005],[-118.53918,34.62976],[-118.53938,34.62899],[-118.53837,34.62907],[-118.53747,34.62947],[-118.53673,34.63089],[-118.53544,34.63145],[-118.53339,34.63053],[-118.53274,34.63229],[-118.53222,34.63234],[-118.53181,34.6316],[-118.5298,34.63201],[-118.52913,34.63328],[-118.53037,34.63336],[-118.52989,34.63438],[-118.52835,34.63503],[-118.529,34.63597],[-118.52838,34.63819],[-118.52519,34.63877],[-118.52453,34.64027],[-118.52279,34.64069],[-118.52177,34.64231],[-118.51846,34.64411],[-118.51425,34.64407],[-118.51285,34.6445],[-118.51128,34.64383],[-118.50984,34.6443],[-118.50773,34.64296],[-118.50439,34.64265],[-118.50419,34.64221],[-118.50522,34.64057],[-118.50158,34.63995],[-118.49867,34.64019],[-118.4921,34.64438],[-118.49071,34.64432],[-118.48965,34.64568],[-118.48576,34.64727],[-118.48519,34.64772],[-118.48495,34.64938],[-118.48372,34.65047],[-118.48037,34.65125],[-118.48126,34.65237],[-118.47941,34.65384],[-118.47666,34.65415],[-118.47285,34.65372],[-118.46663,34.65504],[-118.465,34.65455],[-118.46365,34.65539],[-118.4628,34.65689],[-118.46284,34.6581],[-118.46049,34.65961],[-118.45894,34.66154],[-118.46133,34.66683],[-118.46088,34.669],[-118.46326,34.66784],[-118.4639,34.66795],[-118.46394,34.66858],[-118.46272,34.66949],[-118.46359,34.67072],[-118.46651,34.66961],[-118.46922,34.67178],[-118.47251,34.67022],[-118.47248,34.67136],[-118.47464,34.6706],[-118.47553,34.67187],[-118.47731,34.67223],[-118.47972,34.67386],[-118.48242,34.67455],[-118.48265,34.67499],[-118.48423,34.67501],[-118.48505,34.67448],[-118.48655,34.67502],[-118.48679,34.67572],[-118.4879,34.6759],[-118.48912,34.67735],[-118.49096,34.67809],[-118.49263,34.67956],[-118.49602,34.68095],[-118.49683,34.68176],[-118.49831,34.68176],[-118.50261,34.6835],[-118.50311,34.68407],[-118.50265,34.68441],[-118.50343,34.68516],[-118.50283,34.68606],[-118.50433,34.68737],[-118.50858,34.68737],[-118.51059,34.68671],[-118.51196,34.68761],[-118.51443,34.68774],[-118.51559,34.68832],[-118.51825,34.68741],[-118.51845,34.68676],[-118.5219,34.68653],[-118.52323,34.68792],[-118.52413,34.68821],[-118.52498,34.68762],[-118.52665,34.68849],[-118.52896,34.68749],[-118.52919,34.68553],[-118.52996,34.68402],[-118.53252,34.68344],[-118.53327,34.68404],[-118.5338,34.68279],[-118.53578,34.68165],[-118.5388,34.68188],[-118.54036,34.68124],[-118.54066,34.68171],[-118.54035,34.68297],[-118.54203,34.68397],[-118.54327,34.68405],[-118.54423,34.68303],[-118.54496,34.68401],[-118.54645,34.68403],[-118.54783,34.68515],[-118.54922,34.68503],[-118.54994,34.68593],[-118.55092,34.68613],[-118.54873,34.68847],[-118.54891,34.68915],[-118.55097,34.68926],[-118.55173,34.69002],[-118.55311,34.6901],[-118.55372,34.69091],[-118.55452,34.69077],[-118.55458,34.69165],[-118.55757,34.69246],[-118.55899,34.69394],[-118.56041,34.69406],[-118.56465,34.69311],[-118.56365,34.69659],[-118.56609,34.69703],[-118.5671,34.69897],[-118.56955,34.6992],[-118.56985,34.69994],[-118.57112,34.70057],[-118.57509,34.69947],[-118.57697,34.69967],[-118.57947,34.69823],[-118.58302,34.69757],[-118.58511,34.69554],[-118.58962,34.69538],[-118.59295,34.69643],[-118.59655,34.69478],[-118.5988,34.6951],[-118.60318,34.69337],[-118.60706,34.69322],[-118.61204,34.68906],[-118.61378,34.68875],[-118.61588,34.68731],[-118.61772,34.68346],[-118.61876,34.68234],[-118.62308,34.68149],[-118.62737,34.68395],[-118.62802,34.68581],[-118.62962,34.68698],[-118.63049,34.68882],[-118.63142,34.68923],[-118.63337,34.68984],[-118.63932,34.68965],[-118.64276,34.69029],[-118.64457,34.69144],[-118.64963,34.69259],[-118.65543,34.69517],[-118.66322,34.69768],[-118.66505,34.69944],[-118.6659,34.70251],[-118.66795,34.70373],[-118.67171,34.70502],[-118.67503,34.70718],[-118.67697,34.70877],[-118.68065,34.71486],[-118.68489,34.71745],[-118.68756,34.72003],[-118.69487,34.71995],[-118.69623,34.71821],[-118.70954,34.71789],[-118.70945,34.7184],[-118.71082,34.71945],[-118.71058,34.72077],[-118.7117,34.72083],[-118.71245,34.72171],[-118.71354,34.72644],[-118.71336,34.72732],[-118.70942,34.72879],[-118.71194,34.72984],[-118.71208,34.73096],[-118.7125,34.7311],[-118.7122,34.72965],[-118.72939,34.73164],[-118.74714,34.73157],[-118.74747,34.73917],[-118.75709,34.73968],[-118.75699,34.74728],[-118.76591,34.74726],[-118.7659,34.75362],[-118.77966,34.75823],[-118.77891,34.75737],[-118.78608,34.75118],[-118.79028,34.75378],[-118.79169,34.7535],[-118.79173,34.75267],[-118.79378,34.75157],[-118.79541,34.74855],[-118.79892,34.72719],[-118.79781,34.71212],[-118.79209,34.69807],[-118.78689,34.68871],[-118.77975,34.68048],[-118.777,34.67618],[-118.77434,34.67439],[-118.76937,34.67287],[-118.76659,34.6714],[-118.76458,34.66944],[-118.76209,34.66539],[-118.75607,34.66056],[-118.75485,34.65824],[-118.75447,34.65259],[-118.75314,34.64923],[-118.75658,34.64795],[-118.7571,34.64695],[-118.75856,34.64664],[-118.75885,34.6461],[-118.76073,34.64625],[-118.76094,34.64498],[-118.76242,34.64452],[-118.76239,34.64412],[-118.76554,34.64423],[-118.76667,34.64356],[-118.76907,34.64334],[-118.77043,34.64383],[-118.77066,34.64483],[-118.77235,34.64499],[-118.77059,34.64623],[-118.77126,34.64699],[-118.77092,34.64798],[-118.77404,34.6482],[-118.7747,34.64894],[-118.77693,34.64826],[-118.77661,34.6485],[-118.77722,34.64897],[-118.77706,34.64943],[-118.77774,34.64943],[-118.77841,34.65079],[-118.77901,34.65085],[-118.78011,34.65239],[-118.78297,34.65273],[-118.78463,34.6522],[-118.78436,34.65446],[-118.78503,34.65532],[-118.78572,34.65529],[-118.78524,34.65656],[-118.78561,34.65744],[-118.78587,34.6567],[-118.78896,34.65663],[-118.78999,34.6593],[-118.79504,34.65919],[-118.79739,34.65857],[-118.79881,34.65916],[-118.79937,34.6585],[-118.79876,34.65786],[-118.79891,34.65723],[-118.80022,34.65815],[-118.80172,34.6571],[-118.80426,34.65683],[-118.80582,34.65752],[-118.80701,34.65891],[-118.80672,34.65938],[-118.80806,34.66156],[-118.8092,34.66187],[-118.81105,34.66085],[-118.81332,34.6605],[-118.81552,34.66131],[-118.81751,34.66139],[-118.8176,34.66342],[-118.81868,34.66432],[-118.81821,34.66585],[-118.8198,34.66624],[-118.82091,34.66585],[-118.6929,34.40609],[-118.68812,34.40665],[-118.68354,34.40783],[-118.67931,34.40786],[-118.67312,34.41029],[-118.66913,34.41087],[-118.66907,34.41177],[-118.67018,34.41299],[-118.67027,34.41377],[-118.66978,34.41452],[-118.67007,34.41515],[-118.66893,34.41599],[-118.6695,34.4182],[-118.66954,34.41988],[-118.66895,34.42116],[-118.66939,34.42188],[-118.66946,34.42405],[-118.67314,34.42746],[-118.67194,34.4275],[-118.667,34.43204],[-118.66715,34.43304],[-118.66854,34.43346],[-118.6676,34.43451],[-118.66724,34.43372],[-118.6656,34.43319],[-118.6652,34.43165],[-118.66417,34.43086],[-118.66142,34.43032],[-118.65973,34.43251],[-118.65865,34.43146],[-118.65868,34.42753],[-118.65698,34.42388],[-118.65735,34.42185],[-118.65685,34.42001],[-118.65748,34.41965],[-118.65721,34.41928],[-118.65392,34.42208],[-118.64874,34.42398],[-118.64106,34.42467],[-118.62595,34.42928],[-118.62406,34.43038],[-118.61834,34.43528],[-118.61445,34.43721],[-118.60518,34.44321],[-118.6105,34.44638],[-118.61464,34.45163],[-118.61569,34.45421],[-118.61582,34.45665],[-118.6151,34.46201],[-118.61649,34.46812],[-118.61437,34.47822],[-118.61432,34.48085],[-118.61548,34.48461],[-118.61866,34.48922],[-118.61077,34.48935],[-118.61191,34.4932],[-118.61211,34.4972],[-118.61377,34.49728],[-118.6139,34.50007],[-118.61622,34.50041],[-118.61674,34.50202],[-118.61617,34.50254],[-118.61612,34.5036],[-118.61683,34.50384],[-118.61684,34.50485],[-118.61618,34.50485],[-118.61649,34.50577],[-118.6192,34.50769],[-118.62156,34.50805],[-118.62368,34.50999],[-118.62539,34.51059],[-118.62584,34.51062],[-118.62498,34.50721],[-118.62908,34.5072],[-118.64256,34.52553],[-118.64542,34.5352],[-118.65238,34.54291],[-118.65467,34.54462],[-118.67094,34.55359],[-118.67438,34.55793],[-118.67919,34.56043],[-118.68403,34.56381],[-118.68738,34.56925],[-118.68909,34.57116],[-118.69134,34.57255],[-118.6988,34.57562],[-118.70311,34.58014],[-118.70998,34.58558],[-118.71091,34.58707],[-118.71157,34.58967],[-118.71076,34.60067],[-118.71173,34.60608],[-118.71184,34.61065],[-118.71464,34.61653],[-118.70047,34.6164],[-118.7006,34.61715],[-118.7001,34.61718],[-118.69763,34.61637],[-118.64622,34.61632]]],[[[-118.41858,34.6456],[-118.41659,34.64533],[-118.41669,34.64598],[-118.41523,34.64675],[-118.41674,34.64821],[-118.41718,34.64844],[-118.41788,34.64794],[-118.42262,34.649],[-118.42618,34.647],[-118.42798,34.64798],[-118.42888,34.64728],[-118.42964,34.64748],[-118.43047,34.64666],[-118.43134,34.647],[-118.43475,34.6454],[-118.43499,34.6444],[-118.43967,34.6444],[-118.44142,34.6341],[-118.44443,34.63227],[-118.44851,34.62529],[-118.44539,34.62575],[-118.44279,34.62499],[-118.44233,34.62551],[-118.44343,34.62716],[-118.44371,34.62882],[-118.44308,34.63066],[-118.44151,34.63225],[-118.43808,34.6346],[-118.43728,34.63462],[-118.43616,34.63585],[-118.43199,34.63823],[-118.43181,34.63879],[-118.43054,34.63943],[-118.42967,34.63929],[-118.42946,34.64012],[-118.42809,34.64037],[-118.42754,34.64134],[-118.42554,34.64195],[-118.42486,34.6427],[-118.42342,34.64267],[-118.42345,34.64347],[-118.4222,34.64433],[-118.42124,34.64413],[-118.41858,34.6456]]]]}},{"type":"Feature","properties":{"district":30,"label":"30th Congressional District","pop":12470,"share":4.3,"main":false},"geometry":{"type":"MultiPolygon","coordinates":[[[[-118.32513,34.5255],[-118.34936,34.52523],[-118.35573,34.52364],[-118.35854,34.52571],[-118.35917,34.52457],[-118.36033,34.5241],[-118.36086,34.52299],[-118.36169,34.52247],[-118.36172,34.52123],[-118.36051,34.51956],[-118.36174,34.51794],[-118.3615,34.49658],[-118.37261,34.49622],[-118.37582,34.49459],[-118.37729,34.49252],[-118.37799,34.48899],[-118.37751,34.4812],[-118.37898,34.46726],[-118.37105,34.46731],[-118.37082,34.46662],[-118.37248,34.46438],[-118.37203,34.46341],[-118.37306,34.46269],[-118.37362,34.46149],[-118.37454,34.46133],[-118.37453,34.46082],[-118.3773,34.4583],[-118.37871,34.45782],[-118.37975,34.45681],[-118.37988,34.45605],[-118.38257,34.45528],[-118.38532,34.45173],[-118.38801,34.45023],[-118.39319,34.44187],[-118.39335,34.43674],[-118.39237,34.43342],[-118.39017,34.43386],[-118.3856,34.43358],[-118.38333,34.43238],[-118.38221,34.43234],[-118.37835,34.43523],[-118.36623,34.43882],[-118.3649,34.43845],[-118.3642,34.43772],[-118.36291,34.43328],[-118.36035,34.43349],[-118.35874,34.4331],[-118.35545,34.43106],[-118.34957,34.43205],[-118.34554,34.435],[-118.34193,34.43578],[-118.34192,34.43613],[-118.34095,34.43603],[-118.3399,34.43732],[-118.33851,34.43799],[-118.33432,34.43832],[-118.33333,34.43984],[-118.33371,34.44167],[-118.33336,34.44394],[-118.33429,34.44569],[-118.33391,34.4472],[-118.3342,34.44847],[-118.33308,34.45055],[-118.3342,34.45456],[-118.3304,34.45835],[-118.33009,34.46005],[-118.32855,34.46111],[-118.32928,34.46546],[-118.33096,34.47008],[-118.32888,34.47105],[-118.32634,34.4709],[-118.32636,34.48521],[-118.32466,34.48869],[-118.30854,34.48855],[-118.30869,34.48137],[-118.28902,34.48161],[-118.28697,34.48416],[-118.28607,34.48966],[-118.28403,34.49175],[-118.27138,34.49685],[-118.25977,34.49871],[-118.25563,34.50178],[-118.25546,34.53704],[-118.25578,34.53738],[-118.25546,34.53782],[-118.25616,34.5385],[-118.25551,34.53919],[-118.25534,34.54306],[-118.25624,34.54381],[-118.25951,34.5433],[-118.26073,34.54397],[-118.26356,34.54406],[-118.26618,34.54495],[-118.26725,34.54449],[-118.2682,34.54287],[-118.26955,34.54218],[-118.27034,34.54107],[-118.2701,34.5399],[-118.27507,34.53441],[-118.27934,34.5338],[-118.28124,34.53631],[-118.28115,34.53741],[-118.28356,34.5379],[-118.28957,34.53622],[-118.28953,34.53784],[-118.2907,34.53788],[-118.29187,34.53679],[-118.29288,34.53713],[-118.294,34.53673],[-118.29609,34.53506],[-118.29633,34.53598],[-118.29685,34.53617],[-118.2985,34.53487],[-118.30082,34.53463],[-118.30218,34.53372],[-118.3054,34.5355],[-118.31062,34.53661],[-118.31519,34.53246],[-118.31711,34.53171],[-118.31923,34.52917],[-118.32377,34.52742],[-118.32513,34.5255]]],[[[-118.44192,34.37814],[-118.44195,34.37453],[-118.43979,34.37452],[-118.43975,34.37721],[-118.43641,34.3772],[-118.43642,34.37629],[-118.4342,34.37628],[-118.4342,34.37538],[-118.43309,34.37537],[-118.4331,34.37448],[-118.43087,34.37446],[-118.43111,34.36704],[-118.42665,34.36699],[-118.42656,34.3707],[-118.41879,34.3706],[-118.41883,34.3669],[-118.41995,34.36691],[-118.41997,34.36318],[-118.41551,34.36314],[-118.41548,34.36686],[-118.41325,34.36684],[-118.41318,34.37053],[-118.40945,34.3706],[-118.40956,34.35951],[-118.4056,34.35955],[-118.40559,34.38148],[-118.39805,34.38179],[-118.39759,34.427],[-118.40027,34.4268],[-118.40265,34.42565],[-118.40386,34.42563],[-118.40745,34.42435],[-118.41211,34.42491],[-118.41329,34.42601],[-118.41522,34.42589],[-118.41523,34.42474],[-118.41808,34.42369],[-118.42133,34.42092],[-118.42364,34.41995],[-118.42303,34.41856],[-118.42119,34.41905],[-118.41729,34.42235],[-118.41515,34.42325],[-118.41515,34.41904],[-118.41611,34.4178],[-118.42083,34.41469],[-118.422,34.41663],[-118.42588,34.41647],[-118.42593,34.41431],[-118.42796,34.41311],[-118.42831,34.40665],[-118.43245,34.40638],[-118.43257,34.40263],[-118.43488,34.40221],[-118.43995,34.40402],[-118.4411,34.40354],[-118.44106,34.40205],[-118.44156,34.40208],[-118.44232,34.40324],[-118.44195,34.40387],[-118.44286,34.40457],[-118.44259,34.40592],[-118.44341,34.40533],[-118.4436,34.40396],[-118.44618,34.40166],[-118.44787,34.4013],[-118.44845,34.40211],[-118.45103,34.40247],[-118.4491,34.4047],[-118.44698,34.40603],[-118.44777,34.40689],[-118.44926,34.40559],[-118.4774,34.38971],[-118.48233,34.38588],[-118.48663,34.38347],[-118.49348,34.37754],[-118.48986,34.37512],[-118.48326,34.37575],[-118.48061,34.37381],[-118.47913,34.37342],[-118.47198,34.37626],[-118.46978,34.37799],[-118.46473,34.38055],[-118.45788,34.3788],[-118.44192,34.37814]]],[[[-118.49681,34.37064],[-118.50029,34.37063],[-118.5053,34.36169],[-118.50624,34.35914],[-118.50616,34.35657],[-118.50372,34.34858],[-118.5045,34.34456],[-118.48895,34.34446],[-118.48864,34.35162],[-118.48506,34.35159],[-118.48493,34.35958],[-118.47584,34.3591],[-118.47591,34.36628],[-118.48477,34.36675],[-118.4847,34.37037],[-118.48908,34.37042],[-118.4891,34.36955],[-118.49162,34.36958],[-118.49166,34.36684],[-118.49645,34.3669],[-118.49681,34.37064]]]]}},{"type":"Feature","properties":{"role":"outline"},"geometry":{"type":"Polygon","coordinates":[[[-118.6929,34.40609],[-118.67059,34.36069],[-118.66644,34.35945],[-118.66551,34.3569],[-118.66218,34.35674],[-118.66229,34.35559],[-118.66187,34.35476],[-118.66069,34.35433],[-118.66066,34.35303],[-118.65915,34.35283],[-118.65836,34.35207],[-118.65557,34.35163],[-118.65372,34.35167],[-118.65334,34.35276],[-118.64927,34.35176],[-118.64744,34.35265],[-118.64435,34.35153],[-118.64186,34.35166],[-118.64033,34.35265],[-118.63676,34.3521],[-118.63564,34.35128],[-118.633,34.35057],[-118.63256,34.35001],[-118.62911,34.34969],[-118.62691,34.35009],[-118.62561,34.34964],[-118.6245,34.34858],[-118.62263,34.34899],[-118.61517,34.34537],[-118.6142,34.34392],[-118.61259,34.34284],[-118.61145,34.34066],[-118.61025,34.33982],[-118.60993,34.33831],[-118.60296,34.33555],[-118.60081,34.3336],[-118.60072,34.33197],[-118.59819,34.3298],[-118.59661,34.32901],[-118.59511,34.32888],[-118.59321,34.32993],[-118.59207,34.32774],[-118.5874,34.32753],[-118.58621,34.32652],[-118.58644,34.32582],[-118.584,34.32437],[-118.58103,34.32524],[-118.57906,34.32492],[-118.57708,34.32576],[-118.57624,34.32539],[-118.5746,34.32199],[-118.57169,34.32003],[-118.56972,34.31935],[-118.56854,34.3195],[-118.56823,34.32026],[-118.56366,34.32305],[-118.55587,34.32079],[-118.55488,34.32162],[-118.55143,34.32192],[-118.54882,34.32446],[-118.54723,34.32475],[-118.5476,34.32738],[-118.54577,34.32864],[-118.54502,34.32993],[-118.53957,34.32797],[-118.53217,34.32832],[-118.53025,34.32999],[-118.53231,34.33192],[-118.53243,34.33331],[-118.53349,34.33525],[-118.53312,34.3358],[-118.53352,34.33698],[-118.53169,34.3371],[-118.53048,34.33769],[-118.52665,34.33747],[-118.52567,34.33787],[-118.52231,34.33674],[-118.52292,34.33725],[-118.52273,34.33823],[-118.52586,34.3394],[-118.52639,34.34052],[-118.52599,34.34044],[-118.52598,34.34164],[-118.51955,34.34042],[-118.51298,34.33724],[-118.50834,34.33389],[-118.50401,34.33716],[-118.50867,34.33959],[-118.50945,34.34145],[-118.506,34.34137],[-118.5045,34.34456],[-118.48895,34.34446],[-118.48864,34.35162],[-118.48506,34.35159],[-118.48493,34.35958],[-118.47584,34.3591],[-118.47591,34.36628],[-118.48477,34.36675],[-118.4847,34.37037],[-118.48908,34.37042],[-118.4891,34.36955],[-118.49162,34.36958],[-118.49166,34.36684],[-118.49645,34.3669],[-118.49681,34.37064],[-118.50029,34.37063],[-118.49858,34.37308],[-118.49348,34.37754],[-118.48986,34.37512],[-118.48326,34.37575],[-118.48061,34.37381],[-118.47913,34.37342],[-118.47198,34.37626],[-118.46978,34.37799],[-118.46473,34.38055],[-118.45788,34.3788],[-118.44192,34.37814],[-118.44195,34.37453],[-118.43979,34.37452],[-118.43975,34.37721],[-118.43641,34.3772],[-118.43642,34.37629],[-118.4342,34.37628],[-118.4342,34.37538],[-118.43309,34.37537],[-118.4331,34.37448],[-118.43087,34.37446],[-118.43111,34.36704],[-118.42665,34.36699],[-118.42656,34.3707],[-118.41879,34.3706],[-118.41883,34.3669],[-118.41995,34.36691],[-118.41997,34.36318],[-118.41551,34.36314],[-118.41548,34.36686],[-118.41325,34.36684],[-118.41318,34.37053],[-118.40945,34.3706],[-118.40956,34.35951],[-118.4056,34.35955],[-118.40559,34.38148],[-118.39805,34.38179],[-118.39759,34.427],[-118.40027,34.4268],[-118.40265,34.42565],[-118.40386,34.42563],[-118.40421,34.42563],[-118.40421,34.42653],[-118.40354,34.42652],[-118.40354,34.42707],[-118.4042,34.42708],[-118.4042,34.42839],[-118.39237,34.43342],[-118.39017,34.43386],[-118.3856,34.43358],[-118.38333,34.43238],[-118.38221,34.43234],[-118.37835,34.43523],[-118.36623,34.43882],[-118.3649,34.43845],[-118.3642,34.43772],[-118.36291,34.43328],[-118.36035,34.43349],[-118.35874,34.4331],[-118.35545,34.43106],[-118.34957,34.43205],[-118.34554,34.435],[-118.34193,34.43578],[-118.34192,34.43613],[-118.34095,34.43603],[-118.3399,34.43732],[-118.33851,34.43799],[-118.33432,34.43832],[-118.33333,34.43984],[-118.33371,34.44167],[-118.33336,34.44394],[-118.33429,34.44569],[-118.33391,34.4472],[-118.3342,34.44847],[-118.33308,34.45055],[-118.3342,34.45456],[-118.3304,34.45835],[-118.33009,34.46005],[-118.32855,34.46111],[-118.32928,34.46546],[-118.33096,34.47008],[-118.32888,34.47105],[-118.32634,34.4709],[-118.32636,34.48521],[-118.32466,34.48869],[-118.30854,34.48855],[-118.30869,34.48137],[-118.28902,34.48161],[-118.28697,34.48416],[-118.28607,34.48966],[-118.28403,34.49175],[-118.27138,34.49685],[-118.25977,34.49871],[-118.25563,34.50178],[-118.25546,34.53704],[-118.25578,34.53738],[-118.25546,34.53782],[-118.25616,34.5385],[-118.25551,34.53919],[-118.25534,34.54306],[-118.25624,34.54381],[-118.25951,34.5433],[-118.26073,34.54397],[-118.26356,34.54406],[-118.26618,34.54495],[-118.26725,34.54449],[-118.2682,34.54287],[-118.26955,34.54218],[-118.27034,34.54107],[-118.2701,34.5399],[-118.27507,34.53441],[-118.27934,34.5338],[-118.28124,34.53631],[-118.28115,34.53741],[-118.28356,34.5379],[-118.28957,34.53622],[-118.28953,34.53784],[-118.2907,34.53788],[-118.29187,34.53679],[-118.29288,34.53713],[-118.294,34.53673],[-118.29609,34.53506],[-118.29633,34.53598],[-118.29685,34.53617],[-118.2985,34.53487],[-118.30082,34.53463],[-118.30218,34.53372],[-118.3054,34.5355],[-118.31062,34.53661],[-118.31519,34.53246],[-118.31711,34.53171],[-118.31923,34.52917],[-118.32377,34.52742],[-118.32513,34.5255],[-118.34936,34.52523],[-118.35573,34.52364],[-118.35854,34.52571],[-118.35917,34.52457],[-118.36033,34.5241],[-118.36086,34.52299],[-118.36169,34.52247],[-118.36172,34.52123],[-118.36051,34.51956],[-118.36174,34.51794],[-118.3615,34.49658],[-118.37261,34.49622],[-118.37582,34.49459],[-118.37729,34.49252],[-118.37799,34.48899],[-118.37751,34.4812],[-118.37938,34.48073],[-118.38348,34.4818],[-118.38714,34.48185],[-118.38733,34.49614],[-118.37845,34.4962],[-118.37826,34.50238],[-118.3801,34.50369],[-118.37724,34.50455],[-118.37686,34.50832],[-118.37729,34.50862],[-118.3774,34.51076],[-118.37207,34.51092],[-118.37179,34.51187],[-118.37022,34.51213],[-118.36788,34.5136],[-118.36802,34.51462],[-118.36646,34.51496],[-118.36687,34.51584],[-118.36593,34.51564],[-118.36509,34.51625],[-118.36571,34.51948],[-118.36513,34.52506],[-118.36596,34.52808],[-118.36754,34.53011],[-118.36595,34.53259],[-118.36594,34.53398],[-118.36756,34.53387],[-118.36864,34.53197],[-118.37063,34.53083],[-118.37126,34.52971],[-118.37233,34.52936],[-118.37476,34.52901],[-118.37583,34.5294],[-118.37648,34.53092],[-118.37676,34.53359],[-118.37771,34.53161],[-118.3777,34.53374],[-118.37718,34.53494],[-118.37743,34.53768],[-118.37559,34.54273],[-118.37544,34.54486],[-118.37227,34.54962],[-118.36719,34.55269],[-118.36165,34.55332],[-118.35975,34.55857],[-118.35902,34.56293],[-118.35837,34.5623],[-118.35569,34.56238],[-118.35255,34.56073],[-118.35031,34.56166],[-118.34852,34.56108],[-118.34786,34.56132],[-118.3472,34.56079],[-118.34627,34.56192],[-118.34124,34.5615],[-118.34007,34.56203],[-118.33885,34.56195],[-118.33761,34.5624],[-118.3364,34.56401],[-118.33373,34.56383],[-118.33275,34.56329],[-118.32893,34.56394],[-118.3252,34.56319],[-118.3213,34.56389],[-118.31563,34.56263],[-118.31398,34.56167],[-118.31112,34.5614],[-118.30344,34.56359],[-118.29829,34.56352],[-118.29443,34.56437],[-118.29314,34.56421],[-118.29192,34.56312],[-118.28995,34.56391],[-118.28763,34.56327],[-118.28773,34.5814],[-118.28887,34.58316],[-118.2891,34.58733],[-118.28856,34.58849],[-118.28654,34.58967],[-118.29159,34.58759],[-118.29457,34.5872],[-118.2967,34.58763],[-118.30401,34.58751],[-118.30493,34.5872],[-118.30564,34.58622],[-118.30686,34.58698],[-118.31076,34.58756],[-118.30799,34.58771],[-118.30926,34.59022],[-118.31049,34.59074],[-118.3096,34.58995],[-118.30962,34.58901],[-118.3104,34.58969],[-118.31202,34.5897],[-118.31303,34.59084],[-118.31473,34.59012],[-118.31472,34.59115],[-118.31555,34.59162],[-118.31584,34.59239],[-118.31661,34.5925],[-118.31805,34.59427],[-118.31923,34.59402],[-118.32072,34.59535],[-118.32167,34.5951],[-118.32224,34.59399],[-118.32331,34.59477],[-118.32526,34.59379],[-118.32577,34.59547],[-118.32718,34.59599],[-118.32733,34.5968],[-118.32909,34.59651],[-118.33019,34.59758],[-118.33186,34.59747],[-118.33199,34.59847],[-118.33532,34.59994],[-118.33614,34.60073],[-118.33805,34.60107],[-118.3391,34.60079],[-118.34268,34.60215],[-118.34365,34.60189],[-118.34491,34.60298],[-118.34615,34.60226],[-118.34813,34.60245],[-118.34873,34.6043],[-118.34668,34.60353],[-118.34566,34.60417],[-118.34554,34.60484],[-118.34473,34.60441],[-118.34354,34.60552],[-118.34465,34.60494],[-118.34571,34.60556],[-118.34562,34.60623],[-118.34776,34.6075],[-118.34705,34.60841],[-118.34806,34.60827],[-118.34898,34.60912],[-118.34977,34.60823],[-118.35067,34.60865],[-118.35171,34.61026],[-118.35089,34.61106],[-118.35142,34.61136],[-118.35142,34.61205],[-118.35205,34.61194],[-118.35188,34.613],[-118.35227,34.61335],[-118.35183,34.61442],[-118.35305,34.61313],[-118.35465,34.61433],[-118.35447,34.6148],[-118.35683,34.61646],[-118.35656,34.61682],[-118.35738,34.61697],[-118.35727,34.61641],[-118.35793,34.61629],[-118.35869,34.61681],[-118.35858,34.61763],[-118.35985,34.61781],[-118.36099,34.61695],[-118.36178,34.61798],[-118.36239,34.61757],[-118.3632,34.61816],[-118.36417,34.61773],[-118.36346,34.61907],[-118.36422,34.61955],[-118.36564,34.61903],[-118.36642,34.61991],[-118.36614,34.62042],[-118.36715,34.6206],[-118.36668,34.62317],[-118.36851,34.62332],[-118.36839,34.62426],[-118.37033,34.62508],[-118.37138,34.6249],[-118.37208,34.62587],[-118.37311,34.6255],[-118.37161,34.62725],[-118.37178,34.62824],[-118.37065,34.62929],[-118.37072,34.62975],[-118.37377,34.63079],[-118.37753,34.63055],[-118.37745,34.63112],[-118.37938,34.63153],[-118.37972,34.63203],[-118.38125,34.6312],[-118.38537,34.6308],[-118.38628,34.63201],[-118.3859,34.63327],[-118.38529,34.63412],[-118.38309,34.63471],[-118.38339,34.63555],[-118.38294,34.63659],[-118.3818,34.63716],[-118.38086,34.63962],[-118.38177,34.6394],[-118.38235,34.6398],[-118.38346,34.6393],[-118.38538,34.63971],[-118.38614,34.63914],[-118.38787,34.63965],[-118.38844,34.63934],[-118.39053,34.64023],[-118.39166,34.63907],[-118.39387,34.63972],[-118.39445,34.63903],[-118.39724,34.63942],[-118.39793,34.64016],[-118.39938,34.64008],[-118.40103,34.64112],[-118.40186,34.641],[-118.40208,34.64157],[-118.40273,34.64118],[-118.40362,34.64142],[-118.40409,34.64175],[-118.40384,34.64287],[-118.40453,34.64232],[-118.4056,34.64246],[-118.40564,34.64389],[-118.40661,34.64424],[-118.40589,34.64558],[-118.40787,34.64518],[-118.40748,34.64704],[-118.40858,34.64717],[-118.40904,34.64797],[-118.4112,34.64816],[-118.41161,34.64763],[-118.41259,34.64829],[-118.41379,34.64831],[-118.4142,34.64702],[-118.41532,34.64835],[-118.41674,34.64821],[-118.41718,34.64844],[-118.41788,34.64794],[-118.42262,34.649],[-118.42618,34.647],[-118.42798,34.64798],[-118.42888,34.64728],[-118.42964,34.64748],[-118.43047,34.64666],[-118.43134,34.647],[-118.43475,34.6454],[-118.43499,34.6444],[-118.43967,34.6444],[-118.44058,34.64425],[-118.4413,34.64325],[-118.44207,34.64306],[-118.4496,34.64554],[-118.45406,34.64556],[-118.45773,34.64628],[-118.45963,34.64575],[-118.46925,34.64856],[-118.47113,34.6482],[-118.47695,34.64985],[-118.47744,34.65171],[-118.47836,34.65098],[-118.47987,34.65121],[-118.48041,34.65055],[-118.48037,34.65125],[-118.48126,34.65237],[-118.47941,34.65384],[-118.47666,34.65415],[-118.47285,34.65372],[-118.46663,34.65504],[-118.465,34.65455],[-118.46365,34.65539],[-118.4628,34.65689],[-118.46284,34.6581],[-118.46049,34.65961],[-118.45894,34.66154],[-118.46133,34.66683],[-118.46088,34.669],[-118.46326,34.66784],[-118.4639,34.66795],[-118.46394,34.66858],[-118.46272,34.66949],[-118.46359,34.67072],[-118.46651,34.66961],[-118.46922,34.67178],[-118.47251,34.67022],[-118.47248,34.67136],[-118.47464,34.6706],[-118.47553,34.67187],[-118.47731,34.67223],[-118.47972,34.67386],[-118.48242,34.67455],[-118.48265,34.67499],[-118.48423,34.67501],[-118.48505,34.67448],[-118.48655,34.67502],[-118.48679,34.67572],[-118.4879,34.6759],[-118.48912,34.67735],[-118.49096,34.67809],[-118.49263,34.67956],[-118.49602,34.68095],[-118.49683,34.68176],[-118.49831,34.68176],[-118.50261,34.6835],[-118.50311,34.68407],[-118.50265,34.68441],[-118.50343,34.68516],[-118.50283,34.68606],[-118.50433,34.68737],[-118.50858,34.68737],[-118.51059,34.68671],[-118.51196,34.68761],[-118.51443,34.68774],[-118.51559,34.68832],[-118.51825,34.68741],[-118.51845,34.68676],[-118.5219,34.68653],[-118.52323,34.68792],[-118.52413,34.68821],[-118.52498,34.68762],[-118.52665,34.68849],[-118.52896,34.68749],[-118.52919,34.68553],[-118.52996,34.68402],[-118.53252,34.68344],[-118.53327,34.68404],[-118.5338,34.68279],[-118.53578,34.68165],[-118.5388,34.68188],[-118.54036,34.68124],[-118.54066,34.68171],[-118.54035,34.68297],[-118.54203,34.68397],[-118.54327,34.68405],[-118.54423,34.68303],[-118.54496,34.68401],[-118.54645,34.68403],[-118.54783,34.68515],[-118.54922,34.68503],[-118.54994,34.68593],[-118.55092,34.68613],[-118.54873,34.68847],[-118.54891,34.68915],[-118.55097,34.68926],[-118.55173,34.69002],[-118.55311,34.6901],[-118.55372,34.69091],[-118.55452,34.69077],[-118.55458,34.69165],[-118.55757,34.69246],[-118.55899,34.69394],[-118.56041,34.69406],[-118.56465,34.69311],[-118.56365,34.69659],[-118.56609,34.69703],[-118.5671,34.69897],[-118.56955,34.6992],[-118.56985,34.69994],[-118.57112,34.70057],[-118.57509,34.69947],[-118.57697,34.69967],[-118.57947,34.69823],[-118.58302,34.69757],[-118.58511,34.69554],[-118.58962,34.69538],[-118.59295,34.69643],[-118.59655,34.69478],[-118.5988,34.6951],[-118.60318,34.69337],[-118.60706,34.69322],[-118.61204,34.68906],[-118.61378,34.68875],[-118.61588,34.68731],[-118.61772,34.68346],[-118.61876,34.68234],[-118.62308,34.68149],[-118.62737,34.68395],[-118.62802,34.68581],[-118.62962,34.68698],[-118.63049,34.68882],[-118.63142,34.68923],[-118.63337,34.68984],[-118.63932,34.68965],[-118.64276,34.69029],[-118.64457,34.69144],[-118.64963,34.69259],[-118.65543,34.69517],[-118.66322,34.69768],[-118.66505,34.69944],[-118.6659,34.70251],[-118.66795,34.70373],[-118.67171,34.70502],[-118.67503,34.70718],[-118.67697,34.70877],[-118.68065,34.71486],[-118.68489,34.71745],[-118.68756,34.72003],[-118.69487,34.71995],[-118.69623,34.71821],[-118.70954,34.71789],[-118.70945,34.7184],[-118.71082,34.71945],[-118.71058,34.72077],[-118.7117,34.72083],[-118.71245,34.72171],[-118.71354,34.72644],[-118.71336,34.72732],[-118.70942,34.72879],[-118.71194,34.72984],[-118.71208,34.73096],[-118.7125,34.7311],[-118.7122,34.72965],[-118.72939,34.73164],[-118.74714,34.73157],[-118.74747,34.73917],[-118.75709,34.73968],[-118.75699,34.74728],[-118.76591,34.74726],[-118.7659,34.75362],[-118.77966,34.75823],[-118.77891,34.75737],[-118.78608,34.75118],[-118.79028,34.75378],[-118.79169,34.7535],[-118.79173,34.75267],[-118.79378,34.75157],[-118.79541,34.74855],[-118.79892,34.72719],[-118.79781,34.71212],[-118.79209,34.69807],[-118.78689,34.68871],[-118.77975,34.68048],[-118.777,34.67618],[-118.77434,34.67439],[-118.76937,34.67287],[-118.76659,34.6714],[-118.76458,34.66944],[-118.76209,34.66539],[-118.75607,34.66056],[-118.75485,34.65824],[-118.75447,34.65259],[-118.75314,34.64923],[-118.75658,34.64795],[-118.7571,34.64695],[-118.75856,34.64664],[-118.75885,34.6461],[-118.76073,34.64625],[-118.76094,34.64498],[-118.76242,34.64452],[-118.76239,34.64412],[-118.76554,34.64423],[-118.76667,34.64356],[-118.76907,34.64334],[-118.77043,34.64383],[-118.77066,34.64483],[-118.77235,34.64499],[-118.77059,34.64623],[-118.77126,34.64699],[-118.77092,34.64798],[-118.77404,34.6482],[-118.7747,34.64894],[-118.77693,34.64826],[-118.77661,34.6485],[-118.77722,34.64897],[-118.77706,34.64943],[-118.77774,34.64943],[-118.77841,34.65079],[-118.77901,34.65085],[-118.78011,34.65239],[-118.78297,34.65273],[-118.78463,34.6522],[-118.78436,34.65446],[-118.78503,34.65532],[-118.78572,34.65529],[-118.78524,34.65656],[-118.78561,34.65744],[-118.78587,34.6567],[-118.78896,34.65663],[-118.78999,34.6593],[-118.79504,34.65919],[-118.79739,34.65857],[-118.79881,34.65916],[-118.79937,34.6585],[-118.79876,34.65786],[-118.79891,34.65723],[-118.80022,34.65815],[-118.80172,34.6571],[-118.80426,34.65683],[-118.80582,34.65752],[-118.80701,34.65891],[-118.80672,34.65938],[-118.80806,34.66156],[-118.8092,34.66187],[-118.81105,34.66085],[-118.81332,34.6605],[-118.81552,34.66131],[-118.81751,34.66139],[-118.8176,34.66342],[-118.81868,34.66432],[-118.81821,34.66585],[-118.8198,34.66624],[-118.82091,34.66585],[-118.6929,34.40609]]]}}]}