{"type":"FeatureCollection","name":"house-1991","properties":{"chamber":"house","plan":"1991","planNote":"1991 plan (Special Masters; elections 1992 to 2000)","populationBasis":"2000 Census","valleyPop":202423},"features":[{"type":"Feature","properties":{"district":25,"label":"25th Congressional District","pop":202423,"share":100.0,"main":true},"geometry":{"type":"MultiPolygon","coordinates":[[[[-118.59219,34.28093],[-118.59172,34.28139],[-118.59219,34.28307],[-118.59075,34.2893],[-118.59018,34.2983],[-118.58736,34.3029],[-118.58499,34.30491],[-118.57327,34.30399],[-118.57148,34.30086],[-118.57,34.30028],[-118.56562,34.30462],[-118.56094,34.30467],[-118.55739,34.29924],[-118.55443,34.29657],[-118.55158,34.29719],[-118.5489,34.29723],[-118.5498,34.29692],[-118.54362,34.29836],[-118.54162,34.2999],[-118.54278,34.30141],[-118.54309,34.30264],[-118.54482,34.30288],[-118.54389,34.30458],[-118.54709,34.31335],[-118.54413,34.31684],[-118.54344,34.31668],[-118.50876,34.334],[-118.50796,34.33519],[-118.50712,34.335],[-118.50378,34.33671],[-118.5048,34.33789],[-118.50835,34.33934],[-118.50921,34.34051],[-118.51026,34.34537],[-118.50812,34.34973],[-118.50829,34.35358],[-118.50696,34.35965],[-118.50678,34.36497],[-118.49747,34.37498],[-118.4942,34.37807],[-118.49348,34.37754],[-118.48986,34.37512],[-118.48326,34.37575],[-118.48061,34.37381],[-118.47913,34.37342],[-118.47198,34.37626],[-118.46978,34.37799],[-118.46749,34.37883],[-118.46492,34.38053],[-118.45869,34.37891],[-118.45391,34.37843],[-118.44158,34.37814],[-118.43798,34.37848],[-118.43475,34.37711],[-118.42927,34.37636],[-118.42484,34.37684],[-118.41988,34.38001],[-118.41717,34.38109],[-118.41678,34.3811],[-118.41335,34.38118],[-118.41272,34.37943],[-118.4109,34.37933],[-118.40837,34.38047],[-118.40528,34.38062],[-118.4053,34.38418],[-118.3972,34.38426],[-118.3971,34.39458],[-118.4031,34.39458],[-118.40311,34.39622],[-118.40225,34.39699],[-118.40367,34.39771],[-118.40335,34.39858],[-118.40263,34.39822],[-118.40197,34.39914],[-118.40351,34.39956],[-118.40321,34.40064],[-118.40488,34.40054],[-118.40858,34.40353],[-118.40811,34.40515],[-118.40633,34.40715],[-118.40381,34.40833],[-118.40058,34.4041],[-118.39905,34.39945],[-118.39707,34.39803],[-118.39778,34.41619],[-118.40175,34.4164],[-118.40203,34.42299],[-118.40411,34.42238],[-118.40447,34.42322],[-118.40385,34.42364],[-118.40507,34.42363],[-118.40422,34.42415],[-118.40421,34.42482],[-118.41522,34.42491],[-118.41517,34.42709],[-118.40664,34.42705],[-118.40567,34.42803],[-118.40213,34.42907],[-118.39102,34.43376],[-118.39108,34.43477],[-118.39035,34.43644],[-118.39139,34.43696],[-118.39149,34.44088],[-118.39241,34.44125],[-118.39213,34.44218],[-118.39155,34.44204],[-118.39101,34.44263],[-118.39185,34.44374],[-118.38781,34.44907],[-118.38858,34.44938],[-118.38809,34.44984],[-118.38853,34.44962],[-118.38873,34.45169],[-118.38854,34.45789],[-118.39237,34.45793],[-118.39276,34.45575],[-118.39406,34.45613],[-118.39439,34.45567],[-118.39393,34.45545],[-118.39405,34.4549],[-118.39226,34.45473],[-118.39412,34.45406],[-118.39352,34.45327],[-118.39732,34.45337],[-118.39726,34.44967],[-118.39561,34.44963],[-118.39466,34.44672],[-118.39629,34.44606],[-118.39746,34.44664],[-118.39802,34.44734],[-118.39731,34.4483],[-118.39737,34.44907],[-118.39893,34.44899],[-118.39923,34.44965],[-118.40168,34.45055],[-118.40284,34.44951],[-118.40243,34.44718],[-118.40289,34.4464],[-118.40346,34.44666],[-118.40497,34.44581],[-118.40547,34.44653],[-118.40624,34.44666],[-118.40622,34.43901],[-118.40929,34.43929],[-118.41163,34.43893],[-118.41478,34.43764],[-118.41494,34.43493],[-118.41568,34.43309],[-118.42071,34.43106],[-118.41897,34.43329],[-118.41895,34.43431],[-118.41755,34.43701],[-118.41768,34.43906],[-118.41909,34.44083],[-118.41943,34.44298],[-118.41908,34.44392],[-118.42055,34.44488],[-118.42079,34.44759],[-118.4236,34.4498],[-118.41801,34.45718],[-118.41418,34.46143],[-118.41066,34.46433],[-118.40632,34.46551],[-118.39777,34.46886],[-118.39182,34.47352],[-118.38952,34.47688],[-118.38827,34.48124],[-118.38714,34.48151],[-118.38733,34.49614],[-118.37845,34.4962],[-118.37751,34.4812],[-118.37898,34.46726],[-118.36002,34.46717],[-118.35986,34.46655],[-118.35876,34.46655],[-118.35662,34.46779],[-118.35493,34.46771],[-118.35383,34.46829],[-118.35235,34.46781],[-118.35029,34.46909],[-118.34941,34.46884],[-118.34906,34.46801],[-118.34809,34.46989],[-118.34824,34.47279],[-118.34701,34.47283],[-118.34441,34.47408],[-118.34379,34.47507],[-118.34399,34.47997],[-118.34455,34.4813],[-118.34131,34.48215],[-118.33471,34.48211],[-118.33518,34.48234],[-118.33518,34.48485],[-118.33232,34.48549],[-118.33074,34.48547],[-118.33087,34.47829],[-118.32987,34.47581],[-118.33048,34.4735],[-118.33179,34.47193],[-118.33144,34.47091],[-118.33147,34.47204],[-118.32942,34.47554],[-118.32942,34.47694],[-118.32898,34.47737],[-118.32927,34.4795],[-118.32813,34.48148],[-118.32793,34.48323],[-118.3268,34.48432],[-118.32452,34.48904],[-118.32166,34.48903],[-118.31521,34.49093],[-118.31522,34.48975],[-118.31322,34.48967],[-118.31328,34.48866],[-118.30854,34.48855],[-118.30839,34.49242],[-118.30703,34.49219],[-118.30247,34.48986],[-118.30095,34.49005],[-118.30003,34.49101],[-118.29903,34.48999],[-118.29785,34.49122],[-118.29683,34.48975],[-118.29448,34.48947],[-118.29274,34.49057],[-118.2921,34.49327],[-118.28442,34.49231],[-118.28328,34.4931],[-118.27876,34.49426],[-118.28018,34.49339],[-118.2701,34.49708],[-118.27026,34.49764],[-118.26553,34.49823],[-118.26491,34.4978],[-118.25977,34.49871],[-118.25728,34.50023],[-118.25319,34.50396],[-118.25102,34.50491],[-118.2513,34.50539],[-118.24229,34.50556],[-118.24221,34.51205],[-118.24667,34.51195],[-118.24673,34.51371],[-118.24224,34.51374],[-118.24215,34.51457],[-118.24124,34.51464],[-118.23955,34.5165],[-118.24277,34.51914],[-118.24777,34.5221],[-118.24691,34.52433],[-118.24689,34.52566],[-118.24793,34.52674],[-118.24939,34.52729],[-118.24878,34.52763],[-118.24863,34.52837],[-118.24752,34.52808],[-118.24696,34.52849],[-118.24798,34.52888],[-118.24972,34.53089],[-118.24886,34.53101],[-118.24799,34.53184],[-118.2483,34.53221],[-118.24919,34.53157],[-118.25131,34.53233],[-118.25172,34.53484],[-118.25129,34.53619],[-118.25247,34.53667],[-118.2547,34.53639],[-118.25577,34.53731],[-118.25541,34.53777],[-118.25615,34.53864],[-118.2554,34.53929],[-118.25534,34.54306],[-118.25624,34.54381],[-118.25527,34.54466],[-118.25501,34.55094],[-118.26058,34.54724],[-118.26536,34.54491],[-118.26725,34.54449],[-118.2682,34.54287],[-118.26968,34.54202],[-118.27034,34.54107],[-118.2701,34.5399],[-118.27419,34.53502],[-118.2765,34.53412],[-118.27938,34.53379],[-118.28132,34.53649],[-118.28209,34.54156],[-118.2835,34.54361],[-118.28556,34.54533],[-118.29015,34.54621],[-118.29212,34.54506],[-118.28953,34.53784],[-118.2898,34.5253],[-118.29712,34.52542],[-118.29721,34.52969],[-118.29826,34.52864],[-118.29834,34.5255],[-118.29944,34.5255],[-118.29946,34.52669],[-118.30054,34.52673],[-118.30118,34.52548],[-118.31983,34.52542],[-118.31935,34.52562],[-118.31957,34.52783],[-118.32142,34.52732],[-118.32323,34.52597],[-118.32332,34.5256],[-118.3212,34.52546],[-118.34936,34.52523],[-118.35573,34.52364],[-118.35854,34.52571],[-118.35917,34.52457],[-118.36033,34.5241],[-118.36181,34.52231],[-118.36177,34.52106],[-118.35933,34.51801],[-118.36025,34.51316],[-118.3616,34.51208],[-118.36182,34.51016],[-118.3677,34.50688],[-118.37023,34.50684],[-118.37244,34.50513],[-118.3774,34.50252],[-118.37826,34.50227],[-118.3801,34.50369],[-118.37724,34.50455],[-118.37686,34.50832],[-118.37729,34.50862],[-118.3774,34.51076],[-118.37207,34.51092],[-118.37179,34.51187],[-118.37022,34.51213],[-118.36788,34.5136],[-118.36802,34.51462],[-118.36646,34.51496],[-118.36687,34.51584],[-118.36593,34.51564],[-118.36509,34.51625],[-118.36571,34.51948],[-118.36513,34.52506],[-118.36596,34.52808],[-118.36754,34.53011],[-118.36595,34.53259],[-118.36594,34.53398],[-118.36756,34.53387],[-118.36864,34.53197],[-118.37063,34.53083],[-118.37126,34.52971],[-118.37486,34.52902],[-118.37583,34.5294],[-118.37631,34.53049],[-118.37667,34.53355],[-118.37771,34.53161],[-118.3777,34.53374],[-118.37718,34.53494],[-118.37745,34.53755],[-118.37559,34.54273],[-118.37539,34.54501],[-118.37211,34.54978],[-118.37066,34.55027],[-118.36719,34.55269],[-118.36165,34.55332],[-118.35975,34.55857],[-118.35902,34.56293],[-118.35837,34.5623],[-118.35569,34.56238],[-118.35255,34.56073],[-118.35031,34.56166],[-118.34852,34.56108],[-118.34786,34.56132],[-118.3472,34.56079],[-118.34627,34.56192],[-118.34124,34.5615],[-118.34007,34.56203],[-118.33885,34.56195],[-118.33761,34.5624],[-118.3364,34.56401],[-118.33373,34.56383],[-118.33275,34.56329],[-118.32893,34.56394],[-118.3252,34.56319],[-118.3213,34.56389],[-118.31563,34.56263],[-118.31398,34.56167],[-118.31112,34.5614],[-118.30344,34.56359],[-118.29829,34.56352],[-118.29443,34.56437],[-118.29314,34.56421],[-118.29192,34.56312],[-118.28995,34.56391],[-118.28763,34.56327],[-118.28773,34.5814],[-118.28887,34.58316],[-118.2891,34.58733],[-118.28856,34.58849],[-118.2866,34.58966],[-118.29159,34.58759],[-118.29457,34.5872],[-118.2967,34.58763],[-118.30401,34.58751],[-118.30493,34.5872],[-118.30564,34.58622],[-118.30686,34.58698],[-118.31076,34.58756],[-118.30799,34.58771],[-118.30926,34.59022],[-118.31049,34.59074],[-118.3096,34.58995],[-118.30962,34.58901],[-118.3104,34.58969],[-118.31202,34.5897],[-118.31303,34.59084],[-118.31473,34.59012],[-118.31472,34.59115],[-118.31555,34.59162],[-118.31584,34.59239],[-118.31661,34.5925],[-118.31805,34.59427],[-118.31923,34.59402],[-118.32072,34.59535],[-118.32167,34.5951],[-118.32224,34.59399],[-118.32331,34.59477],[-118.32526,34.59379],[-118.32577,34.59547],[-118.32718,34.59599],[-118.32733,34.5968],[-118.32909,34.59651],[-118.33019,34.59758],[-118.33186,34.59747],[-118.33199,34.59847],[-118.33532,34.59994],[-118.33614,34.60073],[-118.33805,34.60107],[-118.3391,34.60079],[-118.34268,34.60215],[-118.34365,34.60189],[-118.34491,34.60298],[-118.34615,34.60226],[-118.34813,34.60245],[-118.34873,34.6043],[-118.34668,34.60353],[-118.34566,34.60417],[-118.34554,34.60484],[-118.34473,34.60441],[-118.34354,34.60552],[-118.34465,34.60494],[-118.34571,34.60556],[-118.34562,34.60623],[-118.34776,34.6075],[-118.34705,34.60841],[-118.34806,34.60827],[-118.34898,34.60912],[-118.34977,34.60823],[-118.35067,34.60865],[-118.35171,34.61026],[-118.35089,34.61106],[-118.35142,34.61136],[-118.35142,34.61205],[-118.35205,34.61194],[-118.35188,34.613],[-118.35227,34.61335],[-118.35183,34.61442],[-118.35305,34.61313],[-118.35465,34.61433],[-118.35447,34.6148],[-118.35683,34.61646],[-118.35656,34.61682],[-118.35738,34.61697],[-118.35727,34.61641],[-118.35793,34.61629],[-118.35869,34.61681],[-118.35858,34.61763],[-118.35985,34.61781],[-118.36099,34.61695],[-118.36178,34.61798],[-118.36239,34.61757],[-118.3632,34.61816],[-118.36417,34.61773],[-118.36346,34.61907],[-118.36422,34.61955],[-118.36564,34.61903],[-118.36642,34.61991],[-118.36614,34.62042],[-118.36715,34.6206],[-118.36668,34.62317],[-118.36851,34.62332],[-118.36839,34.62426],[-118.37033,34.62508],[-118.37138,34.6249],[-118.37208,34.62587],[-118.37311,34.6255],[-118.37161,34.62725],[-118.37178,34.62824],[-118.37065,34.62929],[-118.37072,34.62975],[-118.37388,34.63081],[-118.37481,34.63043],[-118.37753,34.63055],[-118.37745,34.63112],[-118.37938,34.63153],[-118.37972,34.63203],[-118.38125,34.6312],[-118.38537,34.6308],[-118.38628,34.63201],[-118.3859,34.63327],[-118.38529,34.63412],[-118.38309,34.63471],[-118.38339,34.63555],[-118.38294,34.63659],[-118.3818,34.63716],[-118.38086,34.63962],[-118.38177,34.6394],[-118.38235,34.6398],[-118.38346,34.6393],[-118.38538,34.63971],[-118.38614,34.63914],[-118.38787,34.63965],[-118.38844,34.63934],[-118.39053,34.64023],[-118.39166,34.63907],[-118.39387,34.63972],[-118.39445,34.63903],[-118.39724,34.63942],[-118.39793,34.64016],[-118.39938,34.64008],[-118.40103,34.64112],[-118.40186,34.641],[-118.40208,34.64157],[-118.40273,34.64118],[-118.40362,34.64142],[-118.40409,34.64175],[-118.40384,34.64287],[-118.40453,34.64232],[-118.4056,34.64246],[-118.40564,34.64389],[-118.40661,34.64424],[-118.40589,34.64558],[-118.40787,34.64518],[-118.40748,34.64704],[-118.40858,34.64717],[-118.40904,34.64797],[-118.4112,34.64816],[-118.41161,34.64763],[-118.41259,34.64829],[-118.41379,34.64831],[-118.4143,34.64703],[-118.41532,34.64835],[-118.41718,34.64844],[-118.41788,34.64794],[-118.42262,34.649],[-118.42618,34.647],[-118.42816,34.64797],[-118.42888,34.64728],[-118.42964,34.64748],[-118.43047,34.64666],[-118.43134,34.647],[-118.43475,34.6454],[-118.43499,34.6444],[-118.44044,34.64428],[-118.4413,34.64325],[-118.44207,34.64306],[-118.4496,34.64554],[-118.45406,34.64556],[-118.45773,34.64628],[-118.45963,34.64575],[-118.46925,34.64856],[-118.47113,34.6482],[-118.47695,34.64985],[-118.47744,34.65171],[-118.47836,34.65098],[-118.47987,34.65121],[-118.48047,34.65055],[-118.48039,34.65128],[-118.48126,34.65237],[-118.47941,34.65384],[-118.47666,34.65415],[-118.47285,34.65372],[-118.46663,34.65504],[-118.465,34.65455],[-118.46365,34.65539],[-118.4628,34.65689],[-118.46284,34.6581],[-118.46049,34.65961],[-118.45894,34.66154],[-118.46133,34.66683],[-118.46088,34.669],[-118.46326,34.66784],[-118.4639,34.66795],[-118.46394,34.66858],[-118.46272,34.66949],[-118.46359,34.67072],[-118.46651,34.66961],[-118.46922,34.67178],[-118.47251,34.67022],[-118.47248,34.67136],[-118.47464,34.6706],[-118.47553,34.67187],[-118.47731,34.67223],[-118.47972,34.67386],[-118.48242,34.67455],[-118.48265,34.67499],[-118.48423,34.67501],[-118.48505,34.67448],[-118.48655,34.67502],[-118.48679,34.67572],[-118.4879,34.6759],[-118.48912,34.67735],[-118.49096,34.67809],[-118.49263,34.67956],[-118.49602,34.68095],[-118.49683,34.68176],[-118.49831,34.68176],[-118.50261,34.6835],[-118.50311,34.68407],[-118.50265,34.68441],[-118.50343,34.68516],[-118.50283,34.68606],[-118.50433,34.68737],[-118.50858,34.68737],[-118.51059,34.68671],[-118.51196,34.68761],[-118.51443,34.68774],[-118.51559,34.68832],[-118.51825,34.68741],[-118.51845,34.68676],[-118.5219,34.68653],[-118.52323,34.68792],[-118.52413,34.68821],[-118.52498,34.68762],[-118.52665,34.68849],[-118.52896,34.68749],[-118.52919,34.68553],[-118.52996,34.68402],[-118.53252,34.68344],[-118.53327,34.68404],[-118.5338,34.68279],[-118.53578,34.68165],[-118.5388,34.68188],[-118.54036,34.68124],[-118.54066,34.68171],[-118.54035,34.68297],[-118.54203,34.68397],[-118.54327,34.68405],[-118.54423,34.68303],[-118.54496,34.68401],[-118.54645,34.68403],[-118.54783,34.68515],[-118.54922,34.68503],[-118.54994,34.68593],[-118.55092,34.68613],[-118.54873,34.68847],[-118.54891,34.68915],[-118.55097,34.68926],[-118.55173,34.69002],[-118.55311,34.6901],[-118.55372,34.69091],[-118.55452,34.69077],[-118.55458,34.69165],[-118.55757,34.69246],[-118.55899,34.69394],[-118.56041,34.69406],[-118.56465,34.69311],[-118.56365,34.69659],[-118.56609,34.69703],[-118.5671,34.69897],[-118.56955,34.6992],[-118.56985,34.69994],[-118.57112,34.70057],[-118.57509,34.69947],[-118.57697,34.69967],[-118.57947,34.69823],[-118.58302,34.69757],[-118.58511,34.69554],[-118.58962,34.69538],[-118.59295,34.69643],[-118.59655,34.69478],[-118.5988,34.6951],[-118.60318,34.69337],[-118.60706,34.69322],[-118.61204,34.68906],[-118.61378,34.68875],[-118.61588,34.68731],[-118.61772,34.68346],[-118.61876,34.68234],[-118.62308,34.68149],[-118.62737,34.68395],[-118.62802,34.68581],[-118.62962,34.68698],[-118.63049,34.68882],[-118.63142,34.68923],[-118.63337,34.68984],[-118.63932,34.68965],[-118.64276,34.69029],[-118.64457,34.69144],[-118.64963,34.69259],[-118.65543,34.69517],[-118.66322,34.69768],[-118.66505,34.69944],[-118.6659,34.70251],[-118.66795,34.70373],[-118.67171,34.70502],[-118.67503,34.70718],[-118.67697,34.70877],[-118.68065,34.71486],[-118.68489,34.71745],[-118.68756,34.72003],[-118.69487,34.71995],[-118.69623,34.71821],[-118.70954,34.71789],[-118.70945,34.7184],[-118.71082,34.71945],[-118.71058,34.72077],[-118.7117,34.72083],[-118.71245,34.72171],[-118.71354,34.72644],[-118.71336,34.72732],[-118.70942,34.72879],[-118.71194,34.72984],[-118.71208,34.73096],[-118.7125,34.7311],[-118.7122,34.72965],[-118.72939,34.73164],[-118.74714,34.73157],[-118.74747,34.73917],[-118.75709,34.73968],[-118.75699,34.74728],[-118.76591,34.74726],[-118.7659,34.75362],[-118.77966,34.75823],[-118.77891,34.75737],[-118.78608,34.75118],[-118.79028,34.75378],[-118.79334,34.75247],[-118.79552,34.75244],[-118.79557,34.74701],[-118.79876,34.72867],[-118.79897,34.72406],[-118.79795,34.71252],[-118.79226,34.69859],[-118.78691,34.68875],[-118.77954,34.68034],[-118.77739,34.67665],[-118.77434,34.67443],[-118.76877,34.67268],[-118.766,34.67108],[-118.76189,34.66527],[-118.75735,34.66205],[-118.75584,34.66043],[-118.75461,34.6578],[-118.75424,34.65233],[-118.75297,34.64929],[-118.75658,34.64795],[-118.7571,34.64695],[-118.75856,34.64664],[-118.75885,34.6461],[-118.76073,34.64625],[-118.76094,34.64498],[-118.76242,34.64452],[-118.76239,34.64412],[-118.76412,34.64428],[-118.764,34.64194],[-118.76514,34.64149],[-118.76665,34.64357],[-118.76907,34.64334],[-118.77043,34.64383],[-118.77066,34.64483],[-118.77235,34.64499],[-118.77059,34.64623],[-118.77126,34.64699],[-118.77092,34.64798],[-118.77404,34.6482],[-118.7747,34.64894],[-118.77693,34.64826],[-118.77661,34.6485],[-118.77722,34.64897],[-118.77706,34.64943],[-118.77774,34.64943],[-118.77841,34.65079],[-118.77901,34.65085],[-118.78011,34.65239],[-118.78297,34.65273],[-118.78463,34.6522],[-118.78436,34.65446],[-118.78503,34.65532],[-118.78572,34.65529],[-118.78524,34.65656],[-118.78561,34.65744],[-118.78587,34.6567],[-118.78896,34.65663],[-118.78999,34.6593],[-118.79504,34.65919],[-118.79739,34.65857],[-118.79881,34.65916],[-118.79937,34.6585],[-118.79876,34.65786],[-118.79891,34.65723],[-118.80022,34.65815],[-118.80172,34.6571],[-118.80426,34.65683],[-118.80632,34.65805],[-118.80817,34.66161],[-118.8092,34.66187],[-118.81105,34.66085],[-118.81332,34.6605],[-118.81552,34.66131],[-118.81751,34.66139],[-118.8176,34.66342],[-118.81868,34.66432],[-118.81821,34.66585],[-118.8198,34.66624],[-118.82105,34.66591],[-118.82185,34.66809],[-118.82245,34.66823],[-118.74616,34.51406],[-118.70769,34.43772],[-118.6366,34.29173],[-118.63676,34.28464],[-118.63347,34.26963],[-118.62764,34.27398],[-118.62302,34.27557],[-118.60632,34.2778],[-118.60409,34.27745],[-118.59697,34.27473],[-118.59612,34.276],[-118.59541,34.27575],[-118.59439,34.27744],[-118.59145,34.27951],[-118.59219,34.28093]]],[[[-118.32971,34.46652],[-118.33144,34.47091],[-118.33098,34.46717],[-118.33055,34.46647],[-118.32971,34.46652]]]]}},{"type":"Feature","properties":{"district":27,"label":"27th Congressional District","pop":0,"share":0.0,"main":false},"geometry":{"type":"MultiPolygon","coordinates":[[[[-118.50587,34.36042],[-118.49904,34.37259],[-118.49348,34.37754],[-118.4942,34.37807],[-118.49747,34.37498],[-118.50678,34.36497],[-118.50696,34.35965],[-118.50829,34.35358],[-118.50812,34.34973],[-118.51026,34.34537],[-118.50921,34.34051],[-118.50651,34.3405],[-118.50387,34.34634],[-118.504,34.35015],[-118.50625,34.35706],[-118.50587,34.36042]]],[[[-118.41699,34.38096],[-118.41678,34.3811],[-118.41717,34.38109],[-118.41699,34.38096]]]]}},{"type":"Feature","properties":{"role":"outline"},"geometry":{"type":"MultiPolygon","coordinates":[[[[-118.54413,34.31684],[-118.54344,34.31668],[-118.50876,34.334],[-118.50796,34.33519],[-118.50712,34.335],[-118.50378,34.33671],[-118.5048,34.33789],[-118.50835,34.33934],[-118.50921,34.34051],[-118.50651,34.3405],[-118.50387,34.34634],[-118.504,34.35015],[-118.50625,34.35706],[-118.50587,34.36042],[-118.49904,34.37259],[-118.49348,34.37754],[-118.48986,34.37512],[-118.48326,34.37575],[-118.48061,34.37381],[-118.47913,34.37342],[-118.47198,34.37626],[-118.46978,34.37799],[-118.46749,34.37883],[-118.46492,34.38053],[-118.45869,34.37891],[-118.45391,34.37843],[-118.44158,34.37814],[-118.43798,34.37848],[-118.43475,34.37711],[-118.42927,34.37636],[-118.42484,34.37684],[-118.41988,34.38001],[-118.41717,34.38109],[-118.41699,34.38096],[-118.41678,34.3811],[-118.41335,34.38118],[-118.41272,34.37943],[-118.4109,34.37933],[-118.40837,34.38047],[-118.40528,34.38062],[-118.4053,34.38418],[-118.3972,34.38426],[-118.3971,34.39458],[-118.4031,34.39458],[-118.40311,34.39622],[-118.40225,34.39699],[-118.40367,34.39771],[-118.40335,34.39858],[-118.40263,34.39822],[-118.40197,34.39914],[-118.40351,34.39956],[-118.40321,34.40064],[-118.40488,34.40054],[-118.40858,34.40353],[-118.40811,34.40515],[-118.40633,34.40715],[-118.40381,34.40833],[-118.40058,34.4041],[-118.39905,34.39945],[-118.39707,34.39803],[-118.39778,34.41619],[-118.40175,34.4164],[-118.40203,34.42299],[-118.40411,34.42238],[-118.40447,34.42322],[-118.40385,34.42364],[-118.40507,34.42363],[-118.40422,34.42415],[-118.40421,34.42482],[-118.41522,34.42491],[-118.41517,34.42709],[-118.40664,34.42705],[-118.40567,34.42803],[-118.40213,34.42907],[-118.39102,34.43376],[-118.39108,34.43477],[-118.39035,34.43644],[-118.39139,34.43696],[-118.39149,34.44088],[-118.39241,34.44125],[-118.39213,34.44218],[-118.39155,34.44204],[-118.39101,34.44263],[-118.39185,34.44374],[-118.38781,34.44907],[-118.38858,34.44938],[-118.38809,34.44984],[-118.38853,34.44962],[-118.38873,34.45169],[-118.38854,34.45789],[-118.39237,34.45793],[-118.39276,34.45575],[-118.39406,34.45613],[-118.39439,34.45567],[-118.39393,34.45545],[-118.39405,34.4549],[-118.39226,34.45473],[-118.39412,34.45406],[-118.39352,34.45327],[-118.39732,34.45337],[-118.39726,34.44967],[-118.39561,34.44963],[-118.39466,34.44672],[-118.39629,34.44606],[-118.39746,34.44664],[-118.39802,34.44734],[-118.39731,34.4483],[-118.39737,34.44907],[-118.39893,34.44899],[-118.39923,34.44965],[-118.40168,34.45055],[-118.40284,34.44951],[-118.40243,34.44718],[-118.40289,34.4464],[-118.40346,34.44666],[-118.40497,34.44581],[-118.40547,34.44653],[-118.40624,34.44666],[-118.40622,34.43901],[-118.40929,34.43929],[-118.41163,34.43893],[-118.41478,34.43764],[-118.41494,34.43493],[-118.41568,34.43309],[-118.42071,34.43106],[-118.41897,34.43329],[-118.41895,34.43431],[-118.41755,34.43701],[-118.41768,34.43906],[-118.41909,34.44083],[-118.41943,34.44298],[-118.41908,34.44392],[-118.42055,34.44488],[-118.42079,34.44759],[-118.4236,34.4498],[-118.41801,34.45718],[-118.41418,34.46143],[-118.41066,34.46433],[-118.40632,34.46551],[-118.39777,34.46886],[-118.39182,34.47352],[-118.38952,34.47688],[-118.38827,34.48124],[-118.38714,34.48151],[-118.38733,34.49614],[-118.37845,34.4962],[-118.37751,34.4812],[-118.37898,34.46726],[-118.36002,34.46717],[-118.35986,34.46655],[-118.35876,34.46655],[-118.35662,34.46779],[-118.35493,34.46771],[-118.35383,34.46829],[-118.35235,34.46781],[-118.35029,34.46909],[-118.34941,34.46884],[-118.34906,34.46801],[-118.34809,34.46989],[-118.34824,34.47279],[-118.34701,34.47283],[-118.34441,34.47408],[-118.34379,34.47507],[-118.34399,34.47997],[-118.34455,34.4813],[-118.34131,34.48215],[-118.33471,34.48211],[-118.33518,34.48234],[-118.33518,34.48485],[-118.33232,34.48549],[-118.33074,34.48547],[-118.33087,34.47829],[-118.32987,34.47581],[-118.33048,34.4735],[-118.33179,34.47193],[-118.33144,34.47091],[-118.33147,34.47204],[-118.32942,34.47554],[-118.32942,34.47694],[-118.32898,34.47737],[-118.32927,34.4795],[-118.32813,34.48148],[-118.32793,34.48323],[-118.3268,34.48432],[-118.32452,34.48904],[-118.32166,34.48903],[-118.31521,34.49093],[-118.31522,34.48975],[-118.31322,34.48967],[-118.31328,34.48866],[-118.30854,34.48855],[-118.30839,34.49242],[-118.30703,34.49219],[-118.30247,34.48986],[-118.30095,34.49005],[-118.30003,34.49101],[-118.29903,34.48999],[-118.29785,34.49122],[-118.29683,34.48975],[-118.29448,34.48947],[-118.29274,34.49057],[-118.2921,34.49327],[-118.28442,34.49231],[-118.28328,34.4931],[-118.27876,34.49426],[-118.28018,34.49339],[-118.2701,34.49708],[-118.27026,34.49764],[-118.26553,34.49823],[-118.26491,34.4978],[-118.25977,34.49871],[-118.25728,34.50023],[-118.25319,34.50396],[-118.25102,34.50491],[-118.2513,34.50539],[-118.24229,34.50556],[-118.24221,34.51205],[-118.24667,34.51195],[-118.24673,34.51371],[-118.24224,34.51374],[-118.24215,34.51457],[-118.24124,34.51464],[-118.23955,34.5165],[-118.24277,34.51914],[-118.24777,34.5221],[-118.24691,34.52433],[-118.24689,34.52566],[-118.24793,34.52674],[-118.24939,34.52729],[-118.24878,34.52763],[-118.24863,34.52837],[-118.24752,34.52808],[-118.24696,34.52849],[-118.24798,34.52888],[-118.24972,34.53089],[-118.24886,34.53101],[-118.24799,34.53184],[-118.2483,34.53221],[-118.24919,34.53157],[-118.25131,34.53233],[-118.25172,34.53484],[-118.25129,34.53619],[-118.25247,34.53667],[-118.2547,34.53639],[-118.25577,34.53731],[-118.25541,34.53777],[-118.25615,34.53864],[-118.2554,34.53929],[-118.25534,34.54306],[-118.25624,34.54381],[-118.25527,34.54466],[-118.25501,34.55094],[-118.26058,34.54724],[-118.26536,34.54491],[-118.26725,34.54449],[-118.2682,34.54287],[-118.26968,34.54202],[-118.27034,34.54107],[-118.2701,34.5399],[-118.27419,34.53502],[-118.2765,34.53412],[-118.27938,34.53379],[-118.28132,34.53649],[-118.28209,34.54156],[-118.2835,34.54361],[-118.28556,34.54533],[-118.29015,34.54621],[-118.29212,34.54506],[-118.28953,34.53784],[-118.2898,34.5253],[-118.29712,34.52542],[-118.29721,34.52969],[-118.29826,34.52864],[-118.29834,34.5255],[-118.29944,34.5255],[-118.29946,34.52669],[-118.30054,34.52673],[-118.30118,34.52548],[-118.31983,34.52542],[-118.31935,34.52562],[-118.31957,34.52783],[-118.32142,34.52732],[-118.32323,34.52597],[-118.32332,34.5256],[-118.3212,34.52546],[-118.34936,34.52523],[-118.35573,34.52364],[-118.35854,34.52571],[-118.35917,34.52457],[-118.36033,34.5241],[-118.36181,34.52231],[-118.36177,34.52106],[-118.35933,34.51801],[-118.36025,34.51316],[-118.3616,34.51208],[-118.36182,34.51016],[-118.3677,34.50688],[-118.37023,34.50684],[-118.37244,34.50513],[-118.3774,34.50252],[-118.37826,34.50227],[-118.3801,34.50369],[-118.37724,34.50455],[-118.37686,34.50832],[-118.37729,34.50862],[-118.3774,34.51076],[-118.37207,34.51092],[-118.37179,34.51187],[-118.37022,34.51213],[-118.36788,34.5136],[-118.36802,34.51462],[-118.36646,34.51496],[-118.36687,34.51584],[-118.36593,34.51564],[-118.36509,34.51625],[-118.36571,34.51948],[-118.36513,34.52506],[-118.36596,34.52808],[-118.36754,34.53011],[-118.36595,34.53259],[-118.36594,34.53398],[-118.36756,34.53387],[-118.36864,34.53197],[-118.37063,34.53083],[-118.37126,34.52971],[-118.37486,34.52902],[-118.37583,34.5294],[-118.37631,34.53049],[-118.37667,34.53355],[-118.37771,34.53161],[-118.3777,34.53374],[-118.37718,34.53494],[-118.37745,34.53755],[-118.37559,34.54273],[-118.37539,34.54501],[-118.37211,34.54978],[-118.37066,34.55027],[-118.36719,34.55269],[-118.36165,34.55332],[-118.35975,34.55857],[-118.35902,34.56293],[-118.35837,34.5623],[-118.35569,34.56238],[-118.35255,34.56073],[-118.35031,34.56166],[-118.34852,34.56108],[-118.34786,34.56132],[-118.3472,34.56079],[-118.34627,34.56192],[-118.34124,34.5615],[-118.34007,34.56203],[-118.33885,34.56195],[-118.33761,34.5624],[-118.3364,34.56401],[-118.33373,34.56383],[-118.33275,34.56329],[-118.32893,34.56394],[-118.3252,34.56319],[-118.3213,34.56389],[-118.31563,34.56263],[-118.31398,34.56167],[-118.31112,34.5614],[-118.30344,34.56359],[-118.29829,34.56352],[-118.29443,34.56437],[-118.29314,34.56421],[-118.29192,34.56312],[-118.28995,34.56391],[-118.28763,34.56327],[-118.28773,34.5814],[-118.28887,34.58316],[-118.2891,34.58733],[-118.28856,34.58849],[-118.2866,34.58966],[-118.29159,34.58759],[-118.29457,34.5872],[-118.2967,34.58763],[-118.30401,34.58751],[-118.30493,34.5872],[-118.30564,34.58622],[-118.30686,34.58698],[-118.31076,34.58756],[-118.30799,34.58771],[-118.30926,34.59022],[-118.31049,34.59074],[-118.3096,34.58995],[-118.30962,34.58901],[-118.3104,34.58969],[-118.31202,34.5897],[-118.31303,34.59084],[-118.31473,34.59012],[-118.31472,34.59115],[-118.31555,34.59162],[-118.31584,34.59239],[-118.31661,34.5925],[-118.31805,34.59427],[-118.31923,34.59402],[-118.32072,34.59535],[-118.32167,34.5951],[-118.32224,34.59399],[-118.32331,34.59477],[-118.32526,34.59379],[-118.32577,34.59547],[-118.32718,34.59599],[-118.32733,34.5968],[-118.32909,34.59651],[-118.33019,34.59758],[-118.33186,34.59747],[-118.33199,34.59847],[-118.33532,34.59994],[-118.33614,34.60073],[-118.33805,34.60107],[-118.3391,34.60079],[-118.34268,34.60215],[-118.34365,34.60189],[-118.34491,34.60298],[-118.34615,34.60226],[-118.34813,34.60245],[-118.34873,34.6043],[-118.34668,34.60353],[-118.34566,34.60417],[-118.34554,34.60484],[-118.34473,34.60441],[-118.34354,34.60552],[-118.34465,34.60494],[-118.34571,34.60556],[-118.34562,34.60623],[-118.34776,34.6075],[-118.34705,34.60841],[-118.34806,34.60827],[-118.34898,34.60912],[-118.34977,34.60823],[-118.35067,34.60865],[-118.35171,34.61026],[-118.35089,34.61106],[-118.35142,34.61136],[-118.35142,34.61205],[-118.35205,34.61194],[-118.35188,34.613],[-118.35227,34.61335],[-118.35183,34.61442],[-118.35305,34.61313],[-118.35465,34.61433],[-118.35447,34.6148],[-118.35683,34.61646],[-118.35656,34.61682],[-118.35738,34.61697],[-118.35727,34.61641],[-118.35793,34.61629],[-118.35869,34.61681],[-118.35858,34.61763],[-118.35985,34.61781],[-118.36099,34.61695],[-118.36178,34.61798],[-118.36239,34.61757],[-118.3632,34.61816],[-118.36417,34.61773],[-118.36346,34.61907],[-118.36422,34.61955],[-118.36564,34.61903],[-118.36642,34.61991],[-118.36614,34.62042],[-118.36715,34.6206],[-118.36668,34.62317],[-118.36851,34.62332],[-118.36839,34.62426],[-118.37033,34.62508],[-118.37138,34.6249],[-118.37208,34.62587],[-118.37311,34.6255],[-118.37161,34.62725],[-118.37178,34.62824],[-118.37065,34.62929],[-118.37072,34.62975],[-118.37388,34.63081],[-118.37481,34.63043],[-118.37753,34.63055],[-118.37745,34.63112],[-118.37938,34.63153],[-118.37972,34.63203],[-118.38125,34.6312],[-118.38537,34.6308],[-118.38628,34.63201],[-118.3859,34.63327],[-118.38529,34.63412],[-118.38309,34.63471],[-118.38339,34.63555],[-118.38294,34.63659],[-118.3818,34.63716],[-118.38086,34.63962],[-118.38177,34.6394],[-118.38235,34.6398],[-118.38346,34.6393],[-118.38538,34.63971],[-118.38614,34.63914],[-118.38787,34.63965],[-118.38844,34.63934],[-118.39053,34.64023],[-118.39166,34.63907],[-118.39387,34.63972],[-118.39445,34.63903],[-118.39724,34.63942],[-118.39793,34.64016],[-118.39938,34.64008],[-118.40103,34.64112],[-118.40186,34.641],[-118.40208,34.64157],[-118.40273,34.64118],[-118.40362,34.64142],[-118.40409,34.64175],[-118.40384,34.64287],[-118.40453,34.64232],[-118.4056,34.64246],[-118.40564,34.64389],[-118.40661,34.64424],[-118.40589,34.64558],[-118.40787,34.64518],[-118.40748,34.64704],[-118.40858,34.64717],[-118.40904,34.64797],[-118.4112,34.64816],[-118.41161,34.64763],[-118.41259,34.64829],[-118.41379,34.64831],[-118.4143,34.64703],[-118.41532,34.64835],[-118.41718,34.64844],[-118.41788,34.64794],[-118.42262,34.649],[-118.42618,34.647],[-118.42816,34.64797],[-118.42888,34.64728],[-118.42964,34.64748],[-118.43047,34.64666],[-118.43134,34.647],[-118.43475,34.6454],[-118.43499,34.6444],[-118.44044,34.64428],[-118.4413,34.64325],[-118.44207,34.64306],[-118.4496,34.64554],[-118.45406,34.64556],[-118.45773,34.64628],[-118.45963,34.64575],[-118.46925,34.64856],[-118.47113,34.6482],[-118.47695,34.64985],[-118.47744,34.65171],[-118.47836,34.65098],[-118.47987,34.65121],[-118.48047,34.65055],[-118.48039,34.65128],[-118.48126,34.65237],[-118.47941,34.65384],[-118.47666,34.65415],[-118.47285,34.65372],[-118.46663,34.65504],[-118.465,34.65455],[-118.46365,34.65539],[-118.4628,34.65689],[-118.46284,34.6581],[-118.46049,34.65961],[-118.45894,34.66154],[-118.46133,34.66683],[-118.46088,34.669],[-118.46326,34.66784],[-118.4639,34.66795],[-118.46394,34.66858],[-118.46272,34.66949],[-118.46359,34.67072],[-118.46651,34.66961],[-118.46922,34.67178],[-118.47251,34.67022],[-118.47248,34.67136],[-118.47464,34.6706],[-118.47553,34.67187],[-118.47731,34.67223],[-118.47972,34.67386],[-118.48242,34.67455],[-118.48265,34.67499],[-118.48423,34.67501],[-118.48505,34.67448],[-118.48655,34.67502],[-118.48679,34.67572],[-118.4879,34.6759],[-118.48912,34.67735],[-118.49096,34.67809],[-118.49263,34.67956],[-118.49602,34.68095],[-118.49683,34.68176],[-118.49831,34.68176],[-118.50261,34.6835],[-118.50311,34.68407],[-118.50265,34.68441],[-118.50343,34.68516],[-118.50283,34.68606],[-118.50433,34.68737],[-118.50858,34.68737],[-118.51059,34.68671],[-118.51196,34.68761],[-118.51443,34.68774],[-118.51559,34.68832],[-118.51825,34.68741],[-118.51845,34.68676],[-118.5219,34.68653],[-118.52323,34.68792],[-118.52413,34.68821],[-118.52498,34.68762],[-118.52665,34.68849],[-118.52896,34.68749],[-118.52919,34.68553],[-118.52996,34.68402],[-118.53252,34.68344],[-118.53327,34.68404],[-118.5338,34.68279],[-118.53578,34.68165],[-118.5388,34.68188],[-118.54036,34.68124],[-118.54066,34.68171],[-118.54035,34.68297],[-118.54203,34.68397],[-118.54327,34.68405],[-118.54423,34.68303],[-118.54496,34.68401],[-118.54645,34.68403],[-118.54783,34.68515],[-118.54922,34.68503],[-118.54994,34.68593],[-118.55092,34.68613],[-118.54873,34.68847],[-118.54891,34.68915],[-118.55097,34.68926],[-118.55173,34.69002],[-118.55311,34.6901],[-118.55372,34.69091],[-118.55452,34.69077],[-118.55458,34.69165],[-118.55757,34.69246],[-118.55899,34.69394],[-118.56041,34.69406],[-118.56465,34.69311],[-118.56365,34.69659],[-118.56609,34.69703],[-118.5671,34.69897],[-118.56955,34.6992],[-118.56985,34.69994],[-118.57112,34.70057],[-118.57509,34.69947],[-118.57697,34.69967],[-118.57947,34.69823],[-118.58302,34.69757],[-118.58511,34.69554],[-118.58962,34.69538],[-118.59295,34.69643],[-118.59655,34.69478],[-118.5988,34.6951],[-118.60318,34.69337],[-118.60706,34.69322],[-118.61204,34.68906],[-118.61378,34.68875],[-118.61588,34.68731],[-118.61772,34.68346],[-118.61876,34.68234],[-118.62308,34.68149],[-118.62737,34.68395],[-118.62802,34.68581],[-118.62962,34.68698],[-118.63049,34.68882],[-118.63142,34.68923],[-118.63337,34.68984],[-118.63932,34.68965],[-118.64276,34.69029],[-118.64457,34.69144],[-118.64963,34.69259],[-118.65543,34.69517],[-118.66322,34.69768],[-118.66505,34.69944],[-118.6659,34.70251],[-118.66795,34.70373],[-118.67171,34.70502],[-118.67503,34.70718],[-118.67697,34.70877],[-118.68065,34.71486],[-118.68489,34.71745],[-118.68756,34.72003],[-118.69487,34.71995],[-118.69623,34.71821],[-118.70954,34.71789],[-118.70945,34.7184],[-118.71082,34.71945],[-118.71058,34.72077],[-118.7117,34.72083],[-118.71245,34.72171],[-118.71354,34.72644],[-118.71336,34.72732],[-118.70942,34.72879],[-118.71194,34.72984],[-118.71208,34.73096],[-118.7125,34.7311],[-118.7122,34.72965],[-118.72939,34.73164],[-118.74714,34.73157],[-118.74747,34.73917],[-118.75709,34.73968],[-118.75699,34.74728],[-118.76591,34.74726],[-118.7659,34.75362],[-118.77966,34.75823],[-118.77891,34.75737],[-118.78608,34.75118],[-118.79028,34.75378],[-118.79334,34.75247],[-118.79552,34.75244],[-118.79557,34.74701],[-118.79876,34.72867],[-118.79897,34.72406],[-118.79795,34.71252],[-118.79226,34.69859],[-118.78691,34.68875],[-118.77954,34.68034],[-118.77739,34.67665],[-118.77434,34.67443],[-118.76877,34.67268],[-118.766,34.67108],[-118.76189,34.66527],[-118.75735,34.66205],[-118.75584,34.66043],[-118.75461,34.6578],[-118.75424,34.65233],[-118.75297,34.64929],[-118.75658,34.64795],[-118.7571,34.64695],[-118.75856,34.64664],[-118.75885,34.6461],[-118.76073,34.64625],[-118.76094,34.64498],[-118.76242,34.64452],[-118.76239,34.64412],[-118.76412,34.64428],[-118.764,34.64194],[-118.76514,34.64149],[-118.76665,34.64357],[-118.76907,34.64334],[-118.77043,34.64383],[-118.77066,34.64483],[-118.77235,34.64499],[-118.77059,34.64623],[-118.77126,34.64699],[-118.77092,34.64798],[-118.77404,34.6482],[-118.7747,34.64894],[-118.77693,34.64826],[-118.77661,34.6485],[-118.77722,34.64897],[-118.77706,34.64943],[-118.77774,34.64943],[-118.77841,34.65079],[-118.77901,34.65085],[-118.78011,34.65239],[-118.78297,34.65273],[-118.78463,34.6522],[-118.78436,34.65446],[-118.78503,34.65532],[-118.78572,34.65529],[-118.78524,34.65656],[-118.78561,34.65744],[-118.78587,34.6567],[-118.78896,34.65663],[-118.78999,34.6593],[-118.79504,34.65919],[-118.79739,34.65857],[-118.79881,34.65916],[-118.79937,34.6585],[-118.79876,34.65786],[-118.79891,34.65723],[-118.80022,34.65815],[-118.80172,34.6571],[-118.80426,34.65683],[-118.80632,34.65805],[-118.80817,34.66161],[-118.8092,34.66187],[-118.81105,34.66085],[-118.81332,34.6605],[-118.81552,34.66131],[-118.81751,34.66139],[-118.8176,34.66342],[-118.81868,34.66432],[-118.81821,34.66585],[-118.8198,34.66624],[-118.82105,34.66591],[-118.82185,34.66809],[-118.82245,34.66823],[-118.74616,34.51406],[-118.70769,34.43772],[-118.6366,34.29173],[-118.63676,34.28464],[-118.63347,34.26963],[-118.62764,34.27398],[-118.62302,34.27557],[-118.60632,34.2778],[-118.60409,34.27745],[-118.59697,34.27473],[-118.59612,34.276],[-118.59541,34.27575],[-118.59439,34.27744],[-118.59145,34.27951],[-118.59219,34.28093],[-118.59172,34.28139],[-118.59219,34.28307],[-118.59075,34.2893],[-118.59018,34.2983],[-118.58736,34.3029],[-118.58499,34.30491],[-118.57327,34.30399],[-118.57148,34.30086],[-118.57,34.30028],[-118.56562,34.30462],[-118.56094,34.30467],[-118.55739,34.29924],[-118.55443,34.29657],[-118.55158,34.29719],[-118.5489,34.29723],[-118.5498,34.29692],[-118.54362,34.29836],[-118.54162,34.2999],[-118.54278,34.30141],[-118.54309,34.30264],[-118.54482,34.30288],[-118.54389,34.30458],[-118.54709,34.31335],[-118.54413,34.31684]]],[[[-118.32971,34.46652],[-118.33144,34.47091],[-118.33098,34.46717],[-118.33055,34.46647],[-118.32971,34.46652]]]]}}]}